cafeId,cafename,branchName,numberAddress,roadNameAddress,longitude,latitude
1,커피빈,코리아대학로대명거리점,서울특별시 종로구 명륜4가 51,서울특별시 종로구 대명길,127.0001708,37.58314925
2,커피빈,코리아선릉역점,서울특별시 강남구 역삼동 705-19,서울특별시 강남구 테헤란로,127.0482229,37.50474969
3,커피빈코리아낙성대역점,코리아낙성대역점,서울특별시 관악구 봉천동 1685-15,서울특별시 관악구 남부순환로,126.9615932,37.47810567
4,커피빈,코리아청담에스점,서울특별시 강남구 청담동 118-17,서울특별시 강남구 압구정로,127.0472158,37.52524956
5,커피빈,코리아청담성당점,서울특별시 강남구 청담동 76,서울특별시 강남구 삼성로,127.0500215,37.51990189
6,커피빈,코리아청담카페점,서울특별시 강남구 청담동 92-12,서울특별시 강남구 도산대로67길,127.0444085,37.52448802
7,커피빈,코리아반포엘루체점,서울특별시 서초구 반포동 1141,서울특별시 서초구 신반포로,126.9872107,37.50173741
8,커피빈,관훈점,서울특별시 종로구 관훈동 31,서울특별시 종로구 인사동10길,126.9852916,37.57412
9,커피빈,서강대학교점,서울특별시 마포구 신수동 1-1,서울특별시 마포구 백범로,126.9430454,37.55149363
10,커피빈코리아오목교역사거리점,코리아오목교역사거리점,서울특별시 양천구 목동 404-177,서울특별시 양천구 오목로,126.8762541,37.52414303
11,커피빈,안국역점,서울특별시 종로구 안국동 163,서울특별시 종로구 율곡로,126.984571,37.57633037
12,커피빈,미스리,서울특별시 송파구 잠실동 303,서울특별시 송파구 도곡로64길,127.0788577,37.50514574
13,커피빈,코리아뉴선릉역점,서울특별시 강남구 역삼동 705-1,서울특별시 강남구 테헤란로,127.0472097,37.5043811
14,커피빈,압구정점,서울특별시 강남구 신사동 580-5,서울특별시 강남구 논현로175길,127.0279007,37.52636264
15,커피빈,강서그랜드아이파크점,서울특별시 강서구 화곡동 1095,서울특별시 강서구 화곡로,126.8512794,37.55482629
16,커피빈,코리아연대동문회관점,서울특별시 서대문구 대신동 50-5,서울특별시 서대문구 성산로,126.9433127,37.56302033
17,커피빈,코리아청담점,서울특별시 강남구 청담동 88,서울특별시 강남구 선릉로158길,127.0408215,37.52542307
18,커피빈,코리아서초지파이브점,서울특별시 서초구 서초동 1685-8,서울특별시 서초구 서초중앙로24길,127.0163934,37.49544236
19,커피빈코리아서초역1번출구점,코리아서초역1번출구점,서울특별시 서초구 서초동 1553-3,서울특별시 서초구 서초대로,127.0092578,37.49199476
20,커피빈코리아트레이드타,,서울특별시 강남구 삼성동 159-1,서울특별시 강남구 영동대로,127.0610126,37.51034849
21,커피빈,코리아중계동은행사거리점,서울특별시 노원구 중계동 359-11,서울특별시 노원구 한글비석로,127.076456,37.65120464
22,커피빈코리아압구정로데오점,코리아압구정로데오점,서울특별시 강남구 신사동 663-24,서울특별시 강남구 선릉로157길,127.0389913,37.52611101
23,커피빈,코리아대치도곡역점,서울특별시 강남구 대치동 653,서울특별시 강남구 남부순환로,127.057935,37.49241999
24,커피빈,코리아차병원점,서울특별시 강남구 역삼동 650-9,서울특별시 강남구 논현로,127.0349403,37.50684049
25,커피빈,코리아동부이촌점,서울특별시 용산구 이촌동 301-160,서울특별시 용산구 이촌로,126.9811415,37.51890428
26,커피빈,코리아대치포스코뒷점,서울특별시 강남구 대치동 893,서울특별시 강남구 삼성로85길,127.0561648,37.50458815
27,커피빈치,,서울특별시 은평구 응암동 104-10,서울특별시 은평구 응암로,126.9210482,37.59831973
28,커피빈,코리아홍대역8번출구점,서울특별시 마포구 동교동 168-4,서울특별시 마포구 양화로18안길,126.9250763,37.55681873
29,커피빈,코리아논현동팍스타워점,서울특별시 강남구 논현동 231-9,서울특별시 강남구 언주로,127.036665,37.50993618
30,커피빈,코리아하나은행을지로본점,서울특별시 중구 을지로1가 101-1,서울특별시 중구 을지로,126.9818521,37.5664856
31,커피빈,코리아목동홈플러스점,서울특별시 양천구 목동 919-7,서울특별시 양천구 목동서로,126.8732777,37.53023273
32,커피빈,코리아여의도34번지점,서울특별시 영등포구 여의도동 34-1,서울특별시 영등포구 국제금융로,126.9294913,37.52271837
33,커피빈,코리아구로지밸리몰점,서울특별시 구로구 구로동 188-25,서울특별시 구로구 디지털로,126.8965278,37.48491351
34,커피빈,강남대로점,서울특별시 서초구 서초동 1328-7,서울특별시 서초구 강남대로,127.0283372,37.49531593
35,더커피빈앤티리프,,서울특별시 강남구 수서동 724,서울특별시 강남구 광평로,127.1030943,37.48731104
36,커피빈,코리아잠원논현역점,서울특별시 서초구 잠원동 40-4,서울특별시 서초구 신반포로47길,127.0194363,37.51094776
37,커피빈,코리아명동8나길점,서울특별시 중구 충무로1가 22-5,서울특별시 중구 명동8나길,126.9838895,37.56149336
38,커피빈예술의전당앞점,예술의전당앞점,서울특별시 서초구 서초동 1451-81,서울특별시 서초구 반포대로,127.0131653,37.4812148
39,커피빈,코리아영동고앞점,서울특별시 강남구 논현동 101-24,서울특별시 강남구 선릉로,127.039458,37.52147439
40,커피빈코리아선릉로93길점,코리아선릉로93길점,서울특별시 강남구 역삼동 696-42,서울특별시 강남구 선릉로93길,127.0478832,37.50567504
41,커피빈,코이라마곡마커스빌딩점,서울특별시 강서구 마곡동 774-12,서울특별시 강서구 마곡동로,126.8331469,37.56000961
42,커피빈,삼성전자강남사옥점,서울특별시 서초구 서초동 1320-10,서울특별시 서초구 서초대로74길,127.0268953,37.49662862
43,커피빈파크에비뉴엔터식스한양대점,파크에비뉴엔터식스한양대점,서울특별시 성동구 행당동 155-1,서울특별시 성동구 왕십리로,127.0400086,37.55707033
44,커피빈,,서울특별시 강남구 대치동 895-1,서울특별시 강남구 삼성로85길,127.0542693,37.50422158
45,커피빈,수서점,서울특별시 강남구 수서동 724,서울특별시 강남구 광평로,127.1030943,37.48731104
46,커피빈,코리아서초중앙로점,서울특별시 서초구 반포동 51-7,서울특별시 서초구 서초중앙로,127.0118058,37.5003058
47,커피빈남부터미널점,남부터미널점,서울특별시 서초구 서초동 1602-5,서울특별시 서초구 서초중앙로,127.0155622,37.48553283
48,커피빈,올림픽공원북2문앞,서울특별시 강동구 성내동 448-3,서울특별시 강동구 강동대로,127.1282528,37.52437976
49,커피빈,건대스타시티점,서울특별시 광진구 자양동 227-7,서울특별시 광진구 아차산로,127.0729442,37.53699681
50,커피빈,강남KTB점,서울특별시 강남구 역삼동 826-14,서울특별시 강남구 강남대로,127.0297769,37.49504844
51,커피빈,코리아여의도중앙점,서울특별시 영등포구 여의도동 14-34,서울특별시 영등포구 국회대로68길,126.9200935,37.52877793
52,커피빈,송파헬리오시티점,서울특별시 송파구 가락동 479,서울특별시 송파구 송파대로,127.1025188,37.49760579
53,커피빈,코리아종로관철동점,서울특별시 종로구 관철동 11-4,서울특별시 종로구 청계천로,126.9867153,37.56847369
54,커피빈,코리아홍대역점,서울특별시 마포구 동교동 163-12,서울특별시 마포구 홍익로6길,126.923251,37.55545955
55,커피빈코리아방배역점,코리아방배역점,서울특별시 서초구 방배동 909-8,서울특별시 서초구 효령로,126.9969256,37.48145648
56,커피빈,강남역142호점,서울특별시 서초구 서초동 1307-18,서울특별시 서초구 강남대로65길,127.0253102,37.5002468
57,커피빈,이대점,서울특별시 서대문구 대현동 34-31,서울특별시 서대문구 이화여대길,126.9446329,37.55930183
58,커피빈,바우하우스점,서울특별시 동대문구 장안동 368-1,서울특별시 동대문구 답십리로,127.0723644,37.57191695
59,커피빈,대치역점,서울특별시 강남구 대치동 507-1,서울특별시 강남구 남부순환로,127.0623075,37.49363516
60,커피빈,코리아여의도K타워점,서울특별시 영등포구 여의도동 45-1,서울특별시 영등포구 국제금융로8길,126.9280062,37.51977651
61,커피빈,코리아영동2교사거리점,서울특별시 강남구 도곡동 425,서울특별시 강남구 논현로,127.0432328,37.48187659
62,커피빈코리아건대스타시티,,서울특별시 광진구 자양동 227-7,서울특별시 광진구 아차산로,127.0730005,37.53702429
63,커피빈,코리아강남역12번출구점,서울특별시 강남구 역삼동 822-5,서울특별시 강남구 테헤란로,127.0292638,37.49887371
64,커피빈코리아강남역142,,서울특별시 서초구 서초동 1307-18,서울특별시 서초구 강남대로65길,127.0253102,37.5002468
65,커피빈코리아강남역랭기지,,서울특별시 강남구 역삼동 826-28,서울특별시 강남구 테헤란로4길,127.0300745,37.4965196
66,커피빈,천호현대백화점옆점,서울특별시 강동구 천호동 455-4,서울특별시 강동구 천호대로,127.1251976,37.5389633
67,커피빈코리아방배카페골목,,서울특별시 서초구 방배동 761-6,서울특별시 서초구 방배중앙로,126.9855167,37.49570384
68,커피빈코리아강변테크노마트점,코리아강변테크노마트점,서울특별시 광진구 구의동 546-4,서울특별시 광진구 광나루로56길,127.0956807,37.53571341
69,커피빈,코리아상암DDMC점,서울특별시 마포구 상암동 1610,서울특별시 마포구 매봉산로,126.8928847,37.57844343
70,커피빈코리아논현2015번지점,코리아논현2015번지점,서울특별시 강남구 논현동 201-5,서울특별시 강남구 강남대로112길,127.0260336,37.50550591
71,커피빈코리아합정푸르지오점,코리아합정푸르지오점,서울특별시 마포구 합정동 473,서울특별시 마포구 월드컵로3길,126.9116358,37.55100104
72,커피빈,코리아서초뱅뱅사거리점,서울특별시 서초구 서초동 1361-1,서울특별시 서초구 강남대로,127.0323214,37.48715803
73,커피빈,삼성동EXPRESS점,서울특별시 강남구 삼성동 108-12,서울특별시 강남구 봉은사로103길,127.0617574,37.51500386
74,커피빈,코리아강서그랜드아이파크점,서울특별시 강서구 화곡동 1095-4,서울특별시 강서구 화곡로,126.8509256,37.55428223
75,커피빈코리아강동경희대병원앞점,코리아강동경희대병원앞점,서울특별시 강동구 명일동 48-6,서울특별시 강동구 동남로,127.1559574,37.55264895
76,커피빈코리아외대앞점,코리아외대앞점,서울특별시 동대문구 이문동 288-94,서울특별시 동대문구 이문로,127.0601971,37.59605881
77,커피빈,코리아목동점,서울특별시 양천구 목동 917-9,서울특별시 양천구 목동동로,126.8757526,37.5281659
78,커피빈코리아신사점,코리아신사점,서울특별시 강남구 논현동 4-2,서울특별시 강남구 도산대로,127.0223894,37.51695522
79,커피빈코리아삼성오크우드,,서울특별시 강남구 삼성동 157,서울특별시 강남구 삼성로,127.056219,37.50836401
80,커피빈,코리아종로센트로폴리스점,서울특별시 종로구 공평동 17,서울특별시 종로구 우정국로,126.9835377,37.57156398
81,커피빈,코리아선정릉역점,서울특별시 강남구 논현동 278-22,서울특별시 강남구 봉은사로,127.0429609,37.51027569
82,커피빈코리아강남구청앞점,코리아강남구청앞점,서울특별시 강남구 청담동 45-4,서울특별시 강남구 학동로,127.0466127,37.51841471
83,커피빈,코리아잠실향군타워점,서울특별시 송파구 신천동 7-29,서울특별시 송파구 올림픽로35길,127.1012058,37.51657211
84,커피빈,코리아테헤란로비젼타워점,서울특별시 강남구 역삼동 707-2,서울특별시 강남구 테헤란로,127.0450339,37.50293085
85,커피빈,코리아삼성생명강남사옥점,서울특별시 서초구 서초동 1321-15,서울특별시 서초구 서초대로74길,127.0256838,37.49673577
86,커피빈,코리아응암동점,서울특별시 은평구 응암동 89-19,서울특별시 은평구 은평로,126.9210743,37.60043739
87,커피빈,코리아신촌대로점,서울특별시 서대문구 창천동 29-75,서울특별시 서대문구 신촌로,126.9385569,37.55596758
88,커피빈,코리아대치은마점,서울특별시 강남구 대치동 994-14,서울특별시 강남구 영동대로,127.0688065,37.49756112
89,커피빈,코리아명동증권빌딩점,서울특별시 중구 명동1가 59-1,서울특별시 중구 명동7길,126.9839527,37.5643412
90,커피빈,코리아화곡역점,서울특별시 강서구 화곡동 1076-19,서울특별시 강서구 강서로,126.8410187,37.54138171
91,커피빈,코리아대치한티점,서울특별시 강남구 대치동 924-9,서울특별시 강남구 선릉로64길,127.0541518,37.49829169
92,커피빈,코리아교대점,서울특별시 서초구 서초동 1657-5,서울특별시 서초구 서초중앙로,127.014217,37.49238766
93,커피빈,코리아공항터미널2호점,서울특별시 강남구 삼성동 159-6,서울특별시 강남구 테헤란로87길,127.0594268,37.50962404
94,커피빈,차병원사거리점,서울특별시 강남구 논현동 234-25,서울특별시 강남구 봉은사로,127.0346447,37.50783825
95,커피빈,,서울특별시 영등포구 양평동1가 239,서울특별시 영등포구 영등포로9길,126.8874896,37.52479904
96,커피빈,코리아청계천을지로점,서울특별시 중구 삼각동 30-1,서울특별시 중구 남대문로10길,126.9844944,37.56779685
97,커피빈,코리아교대법원점,서울특별시 서초구 서초동 1699-16,서울특별시 서초구 서초중앙로,127.0135186,37.49562563
98,커피빈코리아테헤란로하이,,서울특별시 강남구 대치동 890-60,서울특별시 강남구 테헤란로70길,127.0531431,37.50473517
99,커피빈코리아테헤란로비,,서울특별시 강남구 역삼동 707-2,서울특별시 강남구 테헤란로,127.0450339,37.50293085
100,커피빈코리아올림픽공원북,,서울특별시 강동구 성내동 448-3,서울특별시 강동구 강동대로,127.1282528,37.52437976
101,커피빈코리아역삼역4,,서울특별시 강남구 역삼동 646-18,서울특별시 강남구 테헤란로,127.0348844,37.50064078
102,커피빈,코리아여의도교보증권점,서울특별시 영등포구 여의도동 26-4,서울특별시 영등포구 의사당대로,126.9245733,37.5225025
103,커피빈,코리아혜화역1번출구점,서울특별시 종로구 동숭동 1-33,서울특별시 종로구 대학로,127.0021356,37.58269733
104,커피빈,코리아신논현역2번출구점,서울특별시 서초구 반포동 748-12,서울특별시 서초구 강남대로,127.0238386,37.50469487
105,커피빈,미스리,서울특별시 송파구 문정동 150,서울특별시 송파구 중대로,127.1188873,37.49052953
106,커피빈,별나라,서울특별시 강남구 대치동 904-19,서울특별시 강남구 역삼로77길,127.0562645,37.50295804
107,커피빈,코리아한성대입구역점,서울특별시 성북구 삼선동1가 25,서울특별시 성북구 삼선교로,127.0071205,37.58756895
108,커피빈코리아압구정로데오,,서울특별시 강남구 신사동 663-24,서울특별시 강남구 선릉로157길,127.0389913,37.52611101
109,커피빈코리아위례2차아이파크점,코리아위례2차아이파크점,서울특별시 송파구 장지동 884,서울특별시 송파구 위례광장로,127.1437439,37.47854792
110,커피빈,코리아대학로마로니에점,서울특별시 종로구 동숭동 1-95,서울특별시 종로구 대학로12길,127.0036928,37.58139497
111,커피빈코리아뉴교보타워옆,,서울특별시 서초구 서초동 1304,서울특별시 서초구 강남대로,127.0248644,37.50235159
112,커피빈코리아명동성당앞,,서울특별시 중구 명동1가 1-3,서울특별시 중구 명동길,126.9862157,37.5644057
113,커피빈코리아세종문화회,,서울특별시 종로구 당주동 20-1,서울특별시 종로구 새문안로9길,126.9754693,37.57134105
114,커피빈코리아논현동팍스타워,,서울특별시 강남구 논현동 231-9,서울특별시 강남구 언주로,127.036665,37.50993618
115,커피빈,강남대로센터점,서울특별시 강남구 역삼동 814-5,서울특별시 강남구 강남대로,127.0260445,37.50205497
116,커피빈코리아국기원사거,,서울특별시 강남구 역삼동 827-65,서울특별시 강남구 테헤란로8길,127.032149,37.49614015
117,커피빈,코리아서초부띠크모나코점,서울특별시 서초구 서초동 1316-5,서울특별시 서초구 서초대로,127.0244987,37.49742881
118,커피빈코리아상봉역점,코리아상봉역점,서울특별시 중랑구 상봉동 100-17,서울특별시 중랑구 망우로,127.0847771,37.5964412
119,커피빈,코리아종각역점,서울특별시 종로구 관철동 16-5,서울특별시 종로구 종로,126.9851564,37.56990197
120,커피빈코리아여의도순복음교회옆점,코리아여의도순복음교회옆점,서울특별시 영등포구 여의도동 11-11,서울특별시 영등포구 여의서로,126.9247365,37.53083863
121,커피빈,코리아용산아이파크몰점,서울특별시 용산구 한강로3가 40-999,서울특별시 용산구 한강대로21나길,126.9632226,37.52790298
122,커피빈코리아선릉로86,,서울특별시 강남구 대치동 889-74,서울특별시 강남구 선릉로86길,127.0505138,37.50336248
123,커피빈코리아대치포스코,,서울특별시 강남구 대치동 893,서울특별시 강남구 삼성로85길,127.0561648,37.50458815
124,커피빈코리아서울대입구,,서울특별시 관악구 봉천동 863-13,서울특별시 관악구 관악로,126.9521656,37.47959928
125,커피빈코리아서초우성아,,서울특별시 서초구 서초동 1330-8,서울특별시 서초구 사임당로,127.0283369,37.49272089
126,커피빈,코리아언주로점,서울특별시 강남구 신사동 627-17,서울특별시 강남구 언주로,127.0327819,37.52334815
127,커피빈,코리아강서홈플러스점,서울특별시 강서구 등촌동 639-11,서울특별시 강서구 화곡로,126.8548002,37.55845562
128,커피빈,코리아시청역7번출구점,서울특별시 중구 태평로2가 58-2,서울특별시 중구 세종대로,126.9771593,37.5636518
129,커피빈,코리아상봉엔터식스점,서울특별시 중랑구 상봉동 500,서울특별시 중랑구 망우로,127.0916054,37.59832307
130,커피빈코리아현대자동차강남오토스퀘어점,코리아현대자동차강남오토스퀘어점,서울특별시 강남구 역삼동 831-21,서울특별시 강남구 강남대로,127.0299591,37.4940768
131,커피빈,코리아현대자동차성내점,서울특별시 강동구 성내동 192-3,서울특별시 강동구 천호대로,127.1332187,37.53519296
132,커피빈,코리아내방역7번출구유중아트점,서울특별시 서초구 방배동 851-4,서울특별시 서초구 방배로,126.992826,37.4895311
133,커피빈,코리아여의도신영증권별관점,서울특별시 영등포구 여의도동 34-12,서울특별시 영등포구 국제금융로8길,126.9296855,37.52180107
134,커피빈,코리아순화동라마다호텔점,서울특별시 중구 순화동 151,서울특별시 중구 칠패로,126.9720218,37.56025531
135,커피빈코리아대치사거리점,코리아대치사거리점,서울특별시 강남구 대치동 961,서울특별시 강남구 삼성로,127.0589896,37.50300681
136,커피빈코리아천호역점,코리아천호역점,서울특별시 강동구 천호동 432-10,서울특별시 강동구 올림픽로,127.1234391,37.54031987
137,커피빈삼성역글라스타워뒷점,삼성역글라스타워뒷점,서울특별시 강남구 대치동 947,서울특별시 강남구 영동대로85길,127.0628745,37.50708344
138,커피빈,코리아영동점,서울특별시 서초구 반포동 736-17,서울특별시 서초구 강남대로,127.0228039,37.50684884
139,커피빈장안점,장안점,서울특별시 동대문구 장안동 372-1,서울특별시 동대문구 장한로,127.0705201,37.57092931
140,커피빈코리아도곡동지오빌딩점,코리아도곡동지오빌딩점,서울특별시 강남구 도곡동 543-1,서울특별시 강남구 도곡로,127.0416529,37.492262
141,커피빈,코리아송파파크하비오B1점,서울특별시 송파구 문정동 618,서울특별시 송파구 송파대로,127.1248723,37.47961708
142,커피빈코리아노원역점,코리아노원역점,서울특별시 노원구 상계동 724-1,서울특별시 노원구 노해로,127.0623975,37.65440054
143,커피빈코리아수유역점,코리아수유역점,서울특별시 강북구 번동 418-3,서울특별시 강북구 도봉로,127.0270285,37.63867041
144,커피빈코리아보라매공원,,서울특별시 동작구 신대방동 395-65,서울특별시 동작구 보라매로5길,126.9235167,37.49210058
145,커피빈코리아강남역먹자골목점,코리아강남역먹자골목점,서울특별시 강남구 역삼동 816-6,서울특별시 강남구 테헤란로1길,127.02728,37.50010085
146,커피빈,코리아현대자동차여의도점,서울특별시 영등포구 여의도동 24-1,서울특별시 영등포구 국제금융로,126.927277,37.52487881
147,커피빈,코리아목동트라팰리스점,서울특별시 양천구 목동 962,서울특별시 양천구 오목로,126.8703422,37.52607793
148,커피빈,코리아교대역점,서울특별시 서초구 서초동 1572-7,서울특별시 서초구 서초대로,127.0123549,37.49295779
149,커피빈,코리아뉴교보타워옆점,서울특별시 서초구 서초동 1304,서울특별시 서초구 강남대로,127.0248644,37.50235159
150,커피빈,코리아뉴압구정점,서울특별시 강남구 신사동 570-12,서울특별시 강남구 논현로167길,127.0274056,37.52441229
151,커피빈,코리아여의도역점,서울특별시 영등포구 여의도동 37,서울특별시 영등포구 의사당대로,126.9239727,37.52100129
152,커피빈,코리아소공동삼화빌딩점,서울특별시 중구 소공동 21-1,서울특별시 중구 남대문로7길,126.9811481,37.56415484
153,커피빈코리아구로디지털단지점,코리아구로디지털단지점,서울특별시 구로구 구로동 212-30,서울특별시 구로구 디지털로,126.8940884,37.4839446
154,커피빈,여의도역점,서울특별시 영등포구 여의도동 37,서울특별시 영등포구 의사당대로,126.924414,37.52020338
155,커피빈,코리아광화문역1번출구점,서울특별시 종로구 내수동 1,서울특별시 종로구 새문안로5가길,126.9740235,37.57276115
156,커피빈코리아천호현대백화점옆,,서울특별시 강동구 천호동 455-4,서울특별시 강동구 천호대로,127.1251976,37.5389633
157,커피빈,코리아삼성봉은사로점,서울특별시 강남구 삼성동 162-2,서울특별시 강남구 봉은사로,127.0641485,37.5146624
158,커피빈,코리아신촌점,서울특별시 서대문구 창천동 18-29,서울특별시 서대문구 연세로,126.9372841,37.55633456
159,커피빈,코리아고대안암역점,서울특별시 성북구 안암동5가 101-3,서울특별시 성북구 개운사길,127.0295587,37.58698067
160,커피빈,코리아강남에스점,서울특별시 서초구 서초동 1306-2,서울특별시 서초구 강남대로,127.0257958,37.50030487
161,커피빈,상수역점,서울특별시 마포구 상수동 143-31,서울특별시 마포구 와우산로10길,126.9231754,37.54813341
162,커피빈,코리아강남역GT타워옆점,서울특별시 서초구 서초동 1317-31,서울특별시 서초구 서초대로73길,127.025717,37.49853815
163,커피빈,연대동문회관점,서울특별시 서대문구 신촌동 134,서울특별시 서대문구 연세로,126.9429168,37.56380069
164,커피빈,코리아수서역원방빌딩점,서울특별시 강남구 수서동 717-4,서울특별시 강남구 광평로51길,127.1040946,37.48876934
165,커피빈코리아강남역먹자,,서울특별시 강남구 역삼동 816-6,서울특별시 강남구 테헤란로1길,127.02728,37.50010085
166,커피빈코리아고대참살이길점,코리아고대참살이길점,서울특별시 성북구 안암동5가 102-10,서울특별시 성북구 인촌로24길,127.0295271,37.58505218
167,커피빈코리아포스코옆삼성로86길점,코리아포스코옆삼성로86길점,서울특별시 강남구 대치동 942-16,서울특별시 강남구 삼성로86길,127.0582863,37.50587557
168,커피빈,코리아강남대로점,서울특별시 서초구 서초동 1328-3,서울특별시 서초구 강남대로,127.0281972,37.49564817
169,커피빈코리아인사점,코리아인사점,서울특별시 종로구 낙원동 272,서울특별시 종로구 인사동4길,126.9873221,37.57298411
170,커피빈코리아역삼점,코리아역삼점,서울특별시 강남구 역삼동 668-17,서울특별시 강남구 논현로,127.0365025,37.50233896
171,커피빈,신촌역앞점,서울특별시 서대문구 대현동 27-27,서울특별시 서대문구 신촌역로,126.9431181,37.55836922
172,커피빈,코리아합정역점,서울특별시 마포구 합정동 413-5,서울특별시 마포구 독막로,126.9150515,37.54880691
173,커피빈,코리아천호동행복빌딩점,서울특별시 강동구 천호동 421-4,서울특별시 강동구 구천면로,127.1270741,37.5400945
174,커피빈코리아양천향교역점,코리아양천향교역점,서울특별시 강서구 마곡동 784-2,서울특별시 강서구 강서로,126.8403304,37.56609027
175,커피빈,코리아마리오아울렛점,서울특별시 금천구 가산동 60-52,서울특별시 금천구 디지털로9길,126.886466,37.47871
176,커피빈코리아CBTL잠실홈플러스점,코리아CBTL잠실홈플러스점,서울특별시 송파구 신천동 7-12,서울특별시 송파구 올림픽로35가길,127.1029857,37.51624324
177,커피빈코리아삼청동점,코리아삼청동점,서울특별시 종로구 삼청동 106,서울특별시 종로구 삼청로,126.981768,37.58513641
178,커피빈,왕십리민자역사점,서울특별시 성동구 행당동 168-151,서울특별시 성동구 왕십리광장로,127.0383792,37.56143616
179,커피빈,논현역6번출구앞점,서울특별시 서초구 잠원동 37-1,서울특별시 서초구 강남대로,127.0204187,37.51193806
180,커피빈,이태원몬드리안호텔점,서울특별시 용산구 이태원동 22-76,서울특별시 용산구 장문로,126.9930934,37.5285579
181,커피빈코리아압구정에스점,코리아압구정에스점,서울특별시 강남구 신사동 660-1,서울특별시 강남구 압구정로46길,127.0368931,37.52827446
182,커피빈코리아여의도교보증,,서울특별시 영등포구 여의도동 26-4,서울특별시 영등포구 의사당대로,126.9245733,37.5225025
183,커피빈,코리아남대문점,서울특별시 중구 남대문로5가 581,서울특별시 중구 후암로,126.9740278,37.55428983
184,커피빈,코리아시흥홈플러스점,서울특별시 금천구 시흥동 992-47,서울특별시 금천구 시흥대로,126.9007767,37.45189359
185,커피빈코리아상암동SBS,,서울특별시 마포구 상암동 1607-1,서울특별시 마포구 상암산로,126.8927528,37.57970364
186,커피빈,코리아신촌현대백화점점,서울특별시 서대문구 창천동 30-33,서울특별시 서대문구 신촌로,126.9358278,37.55606915
187,커피빈,코리아서초동점,서울특별시 서초구 서초동 1582-12,서울특별시 서초구 반포대로,127.0105152,37.48668907
188,커피빈코리아이태원점,코리아이태원점,서울특별시 용산구 이태원동 123-33,서울특별시 용산구 이태원로,126.9948985,37.53484457
189,커피빈,코리아을지로입구역점,서울특별시 중구 수하동 65-1,서울특별시 중구 남대문로10길,126.9832279,37.56686688
190,커피빈코리아올림픽공원,,서울특별시 송파구 방이동 88,서울특별시 송파구 올림픽로,127.1157765,37.52034939
191,커피빈코리아CBTL서울,,서울특별시 중구 남대문로5가 541,서울특별시 중구 한강대로,126.9737396,37.55549473
192,스타벅스,대학로점,서울특별시 종로구 동숭동 1-28,서울특별시 종로구 대학로,127.002233,37.58218456
193,스타벅스,한티점,서울특별시 강남구 대치동 936-15,서울특별시 강남구 선릉로64길,127.0537151,37.49794579
194,스타벅스,동숭로아트점,서울특별시 종로구 동숭동 30,서울특별시 종로구 동숭길,127.003887,37.58296442
195,스타벅스남부터미널2점,남부터미널2점,서울특별시 서초구 서초동 1457-1,서울특별시 서초구 효령로,127.0141978,37.48438612
196,스타벅스,가로수길점,서울특별시 강남구 신사동 529-10,서울특별시 강남구 논현로175길,127.0216293,37.52318421
197,스타벅스미아사거리역점,미아사거리역점,서울특별시 강북구 미아동 35-30,서울특별시 강북구 도봉로,127.0306855,37.61184062
198,스타벅스,당산점,서울특별시 영등포구 당산동6가 338-1,서울특별시 영등포구 양평로,126.899952,37.53513359
199,스타벅스,문래역점,서울특별시 영등포구 문래동3가 55-5,서울특별시 영등포구 당산로,126.8964787,37.51744978
200,스타벅스,서강대점,서울특별시 마포구 신수동 63-14,서울특별시 마포구 백범로,126.9375433,37.55242638
201,스타벅스중랑구청점,중랑구청점,서울특별시 중랑구 신내동 563-3,서울특별시 중랑구 신내로,127.0956531,37.60540032
202,스타벅스,봉은사로선정릉점,서울특별시 강남구 삼성동 114-9,서울특별시 강남구 봉은사로,127.048501,37.51135667
203,스타벅스,방배다이치빌딩점,서울특별시 서초구 방배동 907-1,서울특별시 서초구 방배로,126.9960731,37.48433262
204,스타벅스,뉴코아강남점,서울특별시 서초구 잠원동 70-1,서울특별시 서초구 잠원로,127.006958,37.51024881
205,스타벅스,영풍문고점,서울특별시 종로구 서린동 33,서울특별시 종로구 청계천로,126.9821598,37.56965992
206,스타벅스,청담점,서울특별시 강남구 청담동 52-1,서울특별시 강남구 도산대로,127.0515717,37.52433852
207,스타벅스구로디지털로점,구로디지털로점,서울특별시 구로구 구로동 191-7,서울특별시 구로구 디지털로33길,126.8954986,37.48569681
208,스타벅스연신내역,,서울특별시 은평구 대조동 198-10,서울특별시 은평구 연서로,126.9201098,37.61780045
209,스타벅스,파미에파크점,서울특별시 서초구 반포동 118-3,서울특별시 서초구 사평대로,127.0078261,37.50448036
210,스타벅스,코엑스몰점,서울특별시 강남구 삼성동 159,서울특별시 강남구 영동대로,127.0571003,37.5129394
211,스타벅스구로에이스트윈타워1점,구로에이스트윈타워1점,서울특별시 구로구 구로동 212-1,서울특별시 구로구 디지털로,126.8944876,37.48447995
212,스타벅스종로관수점,종로관수점,서울특별시 종로구 관수동 3-5,서울특별시 종로구 삼일대로20길,126.9886564,37.56974278
213,스타벅스논현힐탑,,서울특별시 강남구 논현동 216-5,서울특별시 강남구 논현로,127.032255,37.5115851
214,스타벅스,발산역점,서울특별시 강서구 등촌동 678-14,서울특별시 강서구 강서로,126.8392902,37.5601783
215,스타벅스,포이점,서울특별시 강남구 개포동 1229-1,서울특별시 강남구 논현로,127.0451163,37.47781003
216,스타벅스,오목교사거리점,서울특별시 양천구 목동 404-177,서울특별시 양천구 오목로,126.8762541,37.52414303
217,스타벅스,청담역점,서울특별시 강남구 삼성동 52-17,서울특별시 강남구 삼성로,127.051147,37.51767632
218,스타벅스을지로입구,,서울특별시 중구 삼각동 115,서울특별시 중구 남대문로10길,126.9832121,37.56720013
219,스타벅스교대역점,교대역점,서울특별시 서초구 서초동 1693-3,서울특별시 서초구 서초중앙로,127.0139553,37.49423264
220,스타벅스,방배역점,서울특별시 서초구 방배동 908-10,서울특별시 서초구 방배로,126.9976309,37.48198508
221,스타벅스,이마트본사점,서울특별시 성동구 성수동2가 333-16,서울특별시 성동구 뚝섬로,127.053479,37.53992399
222,스타벅스,양재강남빌딩R점,서울특별시 강남구 도곡동 956,서울특별시 강남구 남부순환로,127.036609,37.48524679
223,스타벅스,이마빌딩점,서울특별시 종로구 수송동 146-1,서울특별시 종로구 종로1길,126.9789664,37.57389426
224,스타벅스황학캐슬점,황학캐슬점,서울특별시 중구 황학동 2545,서울특별시 중구 청계천로,127.0214482,37.57080306
225,스타벅스고대프라자점,고대프라자점,서울특별시 성북구 안암동5가 1-2,서울특별시 성북구 인촌로,127.0309577,37.58648758
226,스타벅스,신사역점,서울특별시 강남구 논현동 1-3,서울특별시 강남구 도산대로,127.0206347,37.5161838
227,스타벅스,마곡사이언스타워R점,서울특별시 강서구 마곡동 796-3,서울특별시 강서구 마곡동로,126.8338743,37.5605394
228,스타벅스소공로북창점,소공로북창점,서울특별시 중구 소공동 112-5,서울특별시 중구 세종대로18길,126.9789243,37.56371214
229,스타벅스,IFC몰점,서울특별시 영등포구 여의도동 23,서울특별시 영등포구 국제금융로,126.9248631,37.52517222
230,스타벅스,등촌점,서울특별시 강서구 등촌동 668-9,서울특별시 강서구 공항대로,126.8443343,37.5582365
231,스타벅스,순천향입구점,서울특별시 용산구 한남동 657-104,서울특별시 용산구 대사관로,127.0056326,37.53341267
232,스타벅스신림점,신림점,서울특별시 관악구 신림동 1432-71,서울특별시 관악구 신림로,126.9291549,37.48608776
233,스타벅스,강남구청역점,서울특별시 강남구 논현동 241-7,서울특별시 강남구 선릉로,127.0412398,37.51660516
234,스타벅스서울대입구역점,서울대입구역점,서울특별시 관악구 봉천동 869-1,서울특별시 관악구 남부순환로,126.9513192,37.48110554
235,스타벅스신세계본점,신세계본점,서울특별시 중구 충무로1가 54,서울특별시 중구 퇴계로,126.9807585,37.56034908
236,스타벅스,남영동점,서울특별시 용산구 갈월동 90-8,서울특별시 용산구 한강대로,126.9722381,37.54285805
237,스타벅스,역삼초교사거리점,서울특별시 강남구 역삼동 830-69,서울특별시 강남구 역삼로,127.0330005,37.49412876
238,스타벅스,안암역점,서울특별시 성북구 안암동5가 92,서울특별시 성북구 인촌로,127.0307477,37.5860984
239,스타벅스양천향교역,,서울특별시 강서구 마곡동 776-4,서울특별시 강서구 강서로,126.8405586,37.56743505
240,스타벅스,화곡DT점,서울특별시 강서구 화곡동 772-67,서울특별시 강서구 등촌로,126.8631698,37.53500146
241,스타벅스,마포염리점,서울특별시 마포구 염리동 168-9,서울특별시 마포구 독막로,126.9474628,37.54399137
242,스타벅스,문화일보점,서울특별시 중구 충정로1가 68,서울특별시 중구 새문안로,126.9686221,37.56711862
243,스타벅스여의도점,여의도점,서울특별시 영등포구 여의도동 23-9,서울특별시 영등포구 국제금융로2길,126.924483,37.52406949
244,스타벅스,상일동점,서울특별시 강동구 상일동 373-1,서울특별시 강동구 상일로10길,127.174087,37.55071373
245,스타벅스강남삼성타운점,강남삼성타운점,서울특별시 서초구 서초동 1327-5,서울특별시 서초구 서초대로78길,127.027735,37.49553624
246,스타벅스,구의디티점,서울특별시 광진구 구의동 67-7,서울특별시 광진구 광나루로,127.0871794,37.54529828
247,스타벅스,동대입구역점,서울특별시 중구 장충동1가 62-35,서울특별시 중구 장충단로,127.0061331,37.55963733
248,스타벅스,마로니에공원점,서울특별시 종로구 동숭동 1-115,서울특별시 종로구 대학로,127.002321,37.58152755
249,스타벅스,도산가로수길점,서울특별시 강남구 논현동 5-1,서울특별시 강남구 도산대로,127.0233685,37.51734176
250,스타벅스,문래동점,서울특별시 영등포구 문래동3가 77-1,서울특별시 영등포구 선유로,126.8896814,37.5196567
251,스타벅스,신세계도곡점,서울특별시 강남구 도곡동 467-17,서울특별시 강남구 언주로30길,127.0541634,37.48929922
252,스타벅스구산역점,구산역점,서울특별시 은평구 대조동 224-15,서울특별시 은평구 연서로,126.9176933,37.61181349
253,스타벅스숭실대점,숭실대점,서울특별시 동작구 상도동 501-9,서울특별시 동작구 사당로,126.9548399,37.49540038
254,스타벅스신촌점,신촌점,서울특별시 서대문구 창천동 18-55,서울특별시 서대문구 연세로,126.937101,37.55647708
255,스타벅스,신세계아이엔씨점,서울특별시 구로구 구로동 197-12,서울특별시 구로구 디지털로31길,126.8915267,37.48590289
256,스타벅스,동빙고점,서울특별시 용산구 동빙고동 10-8,서울특별시 용산구 장문로,126.9917868,37.52897024
257,스타벅스,구역삼세무서점,서울특별시 강남구 역삼동 747-21,서울특별시 강남구 논현로,127.0388807,37.49591579
258,스타벅스광화문점,광화문점,서울특별시 종로구 세종로 185-2,서울특별시 종로구 세종대로,126.9762855,37.57125803
259,스타벅스,천호역점,서울특별시 강동구 성내동 62-4,서울특별시 강동구 천호대로,127.1241328,37.5380904
260,스타벅스,광나루점,서울특별시 광진구 광장동 329-1,서울특별시 광진구 아차산로,127.1060879,37.54730812
261,스타벅스신사가로수점,신사가로수점,서울특별시 강남구 신사동 533-11,서울특별시 강남구 압구정로12길,127.022506,37.52188494
262,스타벅스,여의도공원점,서울특별시 영등포구 여의도동 12,서울특별시 영등포구 여의공원로,126.9248723,37.52926304
263,스타벅스,길동역점,서울특별시 강동구 길동 378-3,서울특별시 강동구 양재대로,127.1400238,37.53871178
264,스타벅스,도심공항터미널점,서울특별시 강남구 삼성동 159-6,서울특별시 강남구 테헤란로87길,127.0594268,37.50962404
265,스타벅스,삼성2점,서울특별시 강남구 대치동 996-9,서울특별시 강남구 테헤란로104길,127.065231,37.50858885
266,스타벅스,건대입구점,서울특별시 광진구 화양동 5-47,서울특별시 광진구 능동로,127.0707145,37.54069162
267,스타벅스,반포역점,서울특별시 서초구 잠원동 58-24,서울특별시 서초구 나루터로4길,127.013448,37.50958236
268,스타벅스,강남비젼타워점,서울특별시 강남구 역삼동 826-26,서울특별시 강남구 테헤란로2길,127.0296792,37.49648032
269,스타벅스역삼역점,역삼역점,서울특별시 강남구 역삼동 646-15,서울특별시 강남구 테헤란로,127.0351776,37.50070625
270,스타벅스상암DMC센트럴몰점,상암DMC센트럴몰점,서울특별시 마포구 상암동 1654,서울특별시 마포구 월드컵북로,126.8908284,37.57739695
271,스타벅스,강남GT타워점,서울특별시 서초구 서초동 1317-23,서울특별시 서초구 서초대로,127.0259036,37.49809817
272,스타벅스삼청동점,삼청동점,서울특별시 종로구 삼청동 112,서울특별시 종로구 삼청로,126.9817648,37.58537065
273,스타벅스,롯데캐슬여의도점,서울특별시 영등포구 여의도동 36,서울특별시 영등포구 의사당대로,126.9261637,37.52046259
274,스타벅스,구로호텔점,서울특별시 구로구 구로동 1128-1,서울특별시 구로구 디지털로32길,126.8988373,37.48317801
275,스타벅스,가양이마트점,서울특별시 강서구 가양동 449-19,서울특별시 강서구 양천로,126.8617991,37.55818091
276,스타벅스,이촌역점,서울특별시 용산구 용산동5가 24,서울특별시 용산구 서빙고로,126.9703921,37.52485709
277,스타벅스,석촌호수점,서울특별시 송파구 송파동 7-4,서울특별시 송파구 석촌호수로,127.1052164,37.50943014
278,스타벅스,목동5단지점,서울특별시 양천구 목동 908-34,서울특별시 양천구 목동동로,126.882198,37.5367329
279,스타벅스홍대갤러리점,홍대갤러리점,서울특별시 마포구 서교동 343-10,서울특별시 마포구 와우산로,126.9248661,37.5533298
280,스타벅스,목동8단지점,서울특별시 양천구 신정동 319-23,서울특별시 양천구 목동서로,126.868819,37.520558
281,스타벅스광장점,광장점,서울특별시 광진구 광장동 582,서울특별시 광진구 아차산로,127.0996444,37.54295213
282,스타벅스홍대삼거리점,홍대삼거리점,서울특별시 마포구 상수동 86-22,서울특별시 마포구 와우산로,126.9232587,37.55020656
283,스타벅스,청담스타점,서울특별시 강남구 청담동 89-4,서울특별시 강남구 도산대로57길,127.0418193,37.52525095
284,스타벅스대치점,대치점,서울특별시 강남구 대치동 988-17,서울특별시 강남구 도곡로,127.0622213,37.49962651
285,스타벅스광운대점,광운대점,서울특별시 노원구 월계동 410-1,서울특별시 노원구 석계로,127.0607054,37.62317518
286,스타벅스,교대법원점,서울특별시 서초구 서초동 1699-3,서울특별시 서초구 서초중앙로,127.013362,37.49635417
287,스타벅스신촌명물거리점,신촌명물거리점,서울특별시 서대문구 창천동 13-19,서울특별시 서대문구 명물길,126.9381235,37.55779279
288,스타벅스경복궁역,,서울특별시 종로구 통의동 35-42,서울특별시 종로구 자하문로4길,126.9726157,37.57717301
289,스타벅스합정메세나몰점,합정메세나몰점,서울특별시 마포구 서교동 490,서울특별시 마포구 양화로,126.9139374,37.55149077
290,스타벅스,대치역점,서울특별시 강남구 대치동 507,서울특별시 강남구 남부순환로,127.0619041,37.49334362
291,스타벅스,신당역점,서울특별시 중구 흥인동 132,서울특별시 중구 퇴계로,127.0143311,37.56539165
292,스타벅스,서강대흥역점,서울특별시 마포구 대흥동 111-1,서울특별시 마포구 백범로,126.9415521,37.54825452
293,스타벅스,랜드마크점,서울특별시 강남구 역삼동 837-36,서울특별시 강남구 강남대로,127.0318013,37.49065888
294,스타벅스,아시아선수촌점,서울특별시 송파구 잠실동 175,서울특별시 송파구 백제고분로,127.0790291,37.51052638
295,스타벅스,영등포KT점,서울특별시 영등포구 영등포동8가 35-1,서울특별시 영등포구 영중로,126.9050191,37.52675594
296,스타벅스,방배카페골목점,서울특별시 서초구 방배동 777-11,서울특별시 서초구 방배중앙로,126.9865526,37.49352318
297,스타벅스,서교동사거리점,서울특별시 마포구 서교동 374-20,서울특별시 마포구 양화로,126.9185611,37.55340737
298,스타벅스올림픽공원남문점,올림픽공원남문점,서울특별시 송파구 방이동 181,서울특별시 송파구 위례성대로,127.122997,37.51332992
299,스타벅스코엑스사거리점,코엑스사거리점,서울특별시 강남구 삼성동 91-31,서울특별시 강남구 영동대로,127.0601934,37.51524372
300,스타벅스,삼성서울병원점,서울특별시 강남구 일원동 50,서울특별시 강남구 일원로,127.0895788,37.49033434
301,스타벅스,목동역점,서울특별시 양천구 신정동 900-10,서울특별시 양천구 목동로,126.8637936,37.52669989
302,스타벅스,KBS동문점,서울특별시 영등포구 여의도동 17-10,서울특별시 영등포구 국회대로62길,126.9176966,37.52631416
303,스타벅스역삼럭키점,역삼럭키점,서울특별시 강남구 역삼동 798-30,서울특별시 강남구 도곡로,127.0393917,37.49222561
304,스타벅스,제일은행본점,서울특별시 종로구 공평동 100,서울특별시 종로구 종로,126.9824231,37.57111286
305,스타벅스,양재역점,서울특별시 서초구 양재동 14-4,서울특별시 서초구 강남대로,127.0368501,37.48232032
306,스타벅스신압구정점,신압구정점,서울특별시 강남구 신사동 639-7,서울특별시 강남구 언주로174길,127.03642,37.52810841
307,스타벅스,방배로점,서울특별시 서초구 방배동 1022-5,서울특별시 서초구 방배로,126.9994187,37.47934212
308,스타벅스,강동암사DT점,서울특별시 강동구 암사동 441-12,서울특별시 강동구 고덕로,127.1300002,37.55510063
309,스타벅스명동중앙로,,서울특별시 중구 명동2가 2-16,서울특별시 중구 명동길,126.9857377,37.56376186
310,스타벅스,역삼이마트점,서울특별시 강남구 역삼동 755,서울특별시 강남구 역삼로,127.0484061,37.49922769
311,스타벅스,서울역서부점,서울특별시 용산구 서계동 219-17,서울특별시 용산구 만리재로,126.9684505,37.55493504
312,스타벅스,경복궁역점,서울특별시 종로구 통의동 35-42,서울특별시 종로구 자하문로4길,126.9726157,37.57717301
313,스타벅스,묵동점,서울특별시 중랑구 묵동 169-12,서울특별시 중랑구 동일로,127.0768659,37.61532851
314,스타벅스,서울숲역점,서울특별시 성동구 성수동1가 656-335,서울특별시 성동구 왕십리로,127.0448881,37.54188218
315,스타벅스,서울역동자동점,서울특별시 용산구 동자동 45,서울특별시 용산구 한강대로,126.9729093,37.55166709
316,스타벅스,어린이대공원역점,서울특별시 광진구 군자동 236,서울특별시 광진구 능동로,127.0763355,37.55193579
317,스타벅스,경기빌딩점,서울특별시 중구 수하동 65-1,서울특별시 중구 남대문로10길,126.9832279,37.56686688
318,스타벅스,강북삼성병원점,서울특별시 종로구 평동 108-1,서울특별시 종로구 새문안로,126.9677944,37.56885941
319,스타벅스가락시장역점,가락시장역점,서울특별시 송파구 가락동 79,서울특별시 송파구 중대로,127.1215333,37.49440578
320,스타벅스,홍대역점,서울특별시 마포구 동교동 159-1,서울특별시 마포구 양화로,126.9235995,37.55720174
321,스타벅스외대점,외대점,서울특별시 동대문구 이문동 305-60,서울특별시 동대문구 휘경로,127.061379,37.59572582
322,스타벅스,광나루역점,서울특별시 광진구 광장동 445-5,서울특별시 광진구 아차산로,127.102912,37.54413034
323,스타벅스,을지로입구역점,서울특별시 중구 을지로2가 198,서울특별시 중구 을지로,126.9833126,37.56563319
324,스타벅스,가재울뉴타운점,서울특별시 서대문구 남가좌동 385,서울특별시 서대문구 가재울미래로,126.9178279,37.57436779
325,스타벅스,공릉DT점,서울특별시 노원구 공릉동 597-34,서울특별시 노원구 동일로,127.0742049,37.62074093
326,스타벅스,숭례문북창점,서울특별시 중구 남대문로4가 17-19,서울특별시 중구 세종대로12길,126.9769042,37.56161324
327,스타벅스광화문역점,광화문역점,서울특별시 종로구 청진동 246,서울특별시 종로구 종로3길,126.9788929,37.57098327
328,스타벅스,발산역사거리점,서울특별시 강서구 마곡동 801-2,서울특별시 강서구 공항대로,126.8348811,37.55839588
329,스타벅스연세백양로점,연세백양로점,서울특별시 서대문구 신촌동 134,서울특별시 서대문구 연세로,126.9429168,37.56380069
330,스타벅스,동국대점,서울특별시 중구 충무로5가 90,서울특별시 중구 서애로1길,126.9985836,37.56133058
331,스타벅스,월계역점,서울특별시 노원구 월계동 633-31,서울특별시 노원구 초안산로2라길,127.0566071,37.63014355
332,스타벅스,미아이마트점,서울특별시 성북구 길음동 25-2,서울특별시 성북구 도봉로,127.029849,37.6108426
333,스타벅스,목동트라팰리스점,서울특별시 양천구 목동 962,서울특별시 양천구 오목로,126.8703422,37.52607793
334,스타벅스명동역점,명동역점,서울특별시 중구 충무로1가 25-52,서울특별시 중구 퇴계로,126.9830833,37.56085569
335,스타벅스,상계초교사거리점,서울특별시 노원구 상계동 372-16,서울특별시 노원구 노원로,127.0664264,37.65665805
336,스타벅스,국립중앙의료원점,서울특별시 중구 을지로6가 18-131,서울특별시 중구 을지로,127.0062337,37.56654919
337,스타벅스W-MALL점,W-MALL점,서울특별시 금천구 가산동 60-27,서울특별시 금천구 디지털로,126.8876625,37.47731564
338,스타벅스,뉴코아반포점,서울특별시 서초구 잠원동 70-2,서울특별시 서초구 잠원로,127.0074239,37.50923454
339,스타벅스,이마트본사점,서울특별시 성동구 성수동2가 333-16,서울특별시 성동구 뚝섬로,127.0528896,37.54000937
340,스타벅스,목동파리공원점,서울특별시 양천구 목동 907-18,서울특별시 양천구 목동동로,126.8788358,37.53533145
341,스타벅스,서강대프라자점,서울특별시 마포구 신수동 1-1,서울특별시 마포구 백범로,126.9430454,37.55149363
342,스타벅스,가산그레이트점,서울특별시 금천구 가산동 60-5,서울특별시 금천구 디지털로9길,126.8872665,37.4796276
343,스타벅스종로평창,,서울특별시 종로구 평창동 310-1,서울특별시 종로구 평창문화로,126.9667633,37.60579292
344,스타벅스,길음역점,서울특별시 성북구 돈암동 625-2,서울특별시 성북구 정릉로,127.0252978,37.60201096
345,스타벅스,경희궁로점,서울특별시 종로구 당주동 128-27,서울특별시 종로구 새문안로3길,126.9722834,37.57170081
346,스타벅스월드컵경기장점,월드컵경기장점,서울특별시 마포구 성산동 515,서울특별시 마포구 월드컵로,126.8972574,37.56827565
347,스타벅스,당산대로점,서울특별시 영등포구 당산동6가 217-2,서울특별시 영등포구 양평로,126.9039187,37.53314313
348,스타벅스,을지로4가역점,서울특별시 중구 을지로4가 323,서울특별시 중구 을지로,126.9973081,37.56613132
349,스타벅스,건대병원점,서울특별시 광진구 화양동 4-12,서울특별시 광진구 능동로,127.0720432,37.54122468
350,스타벅스,강동구청DT점,서울특별시 강동구 성내동 550,서울특별시 강동구 성내로,127.1237844,37.52918538
351,스타벅스,영등포역점,서울특별시 영등포구 영등포동1가 143-3,서울특별시 영등포구 경인로,126.9092683,37.5169739
352,스타벅스,샛강역점,서울특별시 영등포구 여의도동 55-2,서울특별시 영등포구 여의대방로,126.9311951,37.51827363
353,스타벅스,창동이마트점,서울특별시 도봉구 창동 135-26,서울특별시 도봉구 노해로65길,127.0466801,37.65162553
354,스타벅스,상암YTN점,서울특별시 마포구 상암동 1607,서울특별시 마포구 상암산로,126.8922963,37.57918577
355,스타벅스,남성역점,서울특별시 동작구 사당동 252-15,서울특별시 동작구 사당로,126.9726471,37.48414926
356,스타벅스,낙성대역점,서울특별시 관악구 봉천동 1660-1,서울특별시 관악구 남부순환로,126.9611919,37.47769667
357,스타벅스,국기원사거리점,서울특별시 강남구 역삼동 648-22,서울특별시 강남구 테헤란로,127.0316633,37.49959623
358,스타벅스,영동2교점,서울특별시 서초구 양재동 4-3,서울특별시 서초구 논현로,127.0425756,37.48198841
359,스타벅스,올리브타워점,서울특별시 중구 서소문동 135,서울특별시 중구 세종대로9길,126.9729802,37.5613449
360,스타벅스,역삼점,서울특별시 강남구 역삼동 679-4,서울특별시 강남구 테헤란로,127.0377338,37.50157409
361,스타벅스,사가정역점,서울특별시 중랑구 면목동 617-2,서울특별시 중랑구 면목로,127.0879606,37.57962529
362,스타벅스,노량진동점,서울특별시 동작구 노량진동 333,서울특별시 동작구 노량진로,126.946847,37.51294489
363,스타벅스압구정로데오역점,압구정로데오역점,서울특별시 강남구 청담동 84-3,서울특별시 강남구 선릉로,127.0405131,37.52653786
364,스타벅스,망원역점,서울특별시 마포구 서교동 475-13,서울특별시 마포구 월드컵로,126.9107064,37.55576797
365,스타벅스,쌍문역점,서울특별시 도봉구 창동 659-5,서울특별시 도봉구 도봉로,127.0348687,37.64834884
366,스타벅스,아차산역점,서울특별시 광진구 구의동 75-19,서울특별시 광진구 천호대로,127.0899103,37.5505815
367,스타벅스,역삼아레나빌딩점,서울특별시 강남구 역삼동 721-13,서울특별시 강남구 언주로,127.043044,37.50111264
368,스타벅스,무교동점,서울특별시 중구 무교동 45,서울특별시 중구 무교로,126.9789728,37.56762308
369,스타벅스,기술센터점,서울특별시 강남구 역삼동 701-7,서울특별시 강남구 테헤란로,127.0437621,37.50333505
370,스타벅스서초파라곤점,서초파라곤점,서울특별시 서초구 서초동 1327-29,서울특별시 서초구 서초대로74길,127.0274035,37.49493882
371,스타벅스강변역점,강변역점,서울특별시 광진구 구의동 589-10,서울특별시 광진구 구의강변로,127.0925786,37.53586081
372,스타벅스오목교역점,오목교역점,서울특별시 양천구 목동 404-13,서울특별시 양천구 오목로,126.8767663,37.52394066
373,스타벅스,압구정2점,서울특별시 강남구 신사동 635-13,서울특별시 강남구 압구정로42길,127.0347168,37.52683303
374,스타벅스노원케이티점,노원케이티점,서울특별시 노원구 상계동 723,서울특별시 노원구 노해로,127.0638259,37.65436683
375,스타벅스가산디지털단지점,가산디지털단지점,서울특별시 금천구 가산동 371-28,서울특별시 금천구 가산디지털1로,126.882626,37.47995323
376,스타벅스,금천독산점,서울특별시 금천구 독산동 291-1,서울특별시 금천구 두산로,126.8956093,37.46895637
377,스타벅스,태평로점,서울특별시 중구 태평로2가 69-7,서울특별시 중구 세종대로,126.9767791,37.56248617
378,스타벅스,잠실점,서울특별시 송파구 신천동 11-4,서울특별시 송파구 올림픽로35가길,127.1034466,37.51743613
379,스타벅스,상봉점,서울특별시 중랑구 상봉동 79,서울특별시 중랑구 상봉로,127.0925055,37.59787046
380,스타벅스,오류동역점,서울특별시 구로구 오류동 55-50,서울특별시 구로구 경인로,126.8448498,37.49620515
381,스타벅스,숭례문점,서울특별시 중구 남대문로5가 6-1,서울특별시 중구 세종대로,126.9732441,37.55861704
382,스타벅스,영등포본동점,서울특별시 영등포구 영등포동3가 2-21,서울특별시 영등포구 영등포로,126.909583,37.51867077
383,스타벅스,송파사거리점,서울특별시 송파구 송파동 96-7,서울특별시 송파구 송파대로,127.1103348,37.50226933
384,스타벅스,강남에비뉴점,서울특별시 서초구 서초동 1303-16,서울특별시 서초구 서초대로77길,127.0238869,37.50272196
385,스타벅스,서교점,서울특별시 마포구 서교동 395-166,서울특별시 마포구 양화로,126.9169043,37.55137386
386,스타벅스한성대입구역점,한성대입구역점,서울특별시 성북구 성북동1가 35-1,서울특별시 성북구 성북로,127.0049043,37.58904601
387,스타벅스동묘앞역점동묘앞역점,동묘앞역점,서울특별시 종로구 숭인동 310,서울특별시 종로구 종로,127.0160686,37.57271361
388,스타벅스,올림픽대교북단점,서울특별시 광진구 구의동 200-2,서울특별시 광진구 광나루로,127.0952529,37.5411525
389,스타벅스,써머셋팰리스,서울특별시 종로구 수송동 85,서울특별시 종로구 율곡로2길,126.9812267,37.57500405
390,스타벅스포스코사거리점,포스코사거리점,서울특별시 강남구 삼성동 157-36,서울특별시 강남구 테헤란로,127.0574281,37.50756271
391,스타벅스,대치대원빌딩R점,서울특별시 강남구 대치동 599,서울특별시 강남구 남부순환로,127.0626465,37.49456594
392,스타벅스,강남II점,서울특별시 서초구 서초동 1307-19,서울특별시 서초구 서초대로77길,127.0254816,37.50011306
393,스타벅스,석촌역점,서울특별시 송파구 석촌동 286-9,서울특별시 송파구 백제고분로,127.1060134,37.50424607
394,스타벅스연신내역점,연신내역점,서울특별시 은평구 대조동 198-10,서울특별시 은평구 연서로,126.9201098,37.61780045
395,스타벅스,연대점,서울특별시 서대문구 창천동 33-9,서울특별시 서대문구 연세로,126.9366956,37.55871702
396,스타벅스,선유도역점,서울특별시 영등포구 양평동4가 98-5,서울특별시 영등포구 양평로,126.8945908,37.53730008
397,스타벅스종암점,종암점,서울특별시 성북구 종암동 3-686,서울특별시 성북구 종암로,127.0339835,37.60118133
398,스타벅스,여의도알리안츠점,서울특별시 영등포구 여의도동 45-21,서울특별시 영등포구 의사당대로,126.9278277,37.51881077
399,스타벅스,평창점,서울특별시 종로구 평창동 310-1,서울특별시 종로구 평창문화로,126.9667633,37.60579292
400,스타벅스,한국프레스센터점,서울특별시 중구 태평로1가 25,서울특별시 중구 세종대로,126.9778549,37.56741517
401,스타벅스,독산사거리점,서울특별시 금천구 독산동 159-23,서울특별시 금천구 시흥대로,126.8986457,37.47157973
402,스타벅스,대우재단빌딩점,서울특별시 중구 남대문로5가 526,서울특별시 중구 퇴계로,126.9751399,37.5565521
403,스타벅스,이촌역점,서울특별시 용산구 용산동5가 24-1,서울특별시 용산구 서빙고로,126.9723312,37.52370262
404,스타벅스,국민은행명동점,서울특별시 중구 을지로2가 199-2,서울특별시 중구 남대문로,126.9828281,37.56463787
405,스타벅스문정역점,문정역점,서울특별시 송파구 문정동 651,서울특별시 송파구 송파대로,127.1207441,37.4845513
406,스타벅스황학사거리점,황학사거리점,서울특별시 성동구 하왕십리동 700,서울특별시 성동구 왕십리로,127.0240621,37.56654474
407,스타벅스신설동역점,신설동역점,서울특별시 동대문구 신설동 76-10,서울특별시 동대문구 왕산로,127.0255032,37.5767024
408,스타벅스,가산브이타워,서울특별시 금천구 가산동 371-37,서울특별시 금천구 가산디지털1로,126.8836842,37.47722405
409,스타벅스,미아점,서울특별시 성북구 하월곡동 89-7,서울특별시 성북구 동소문로,127.029302,37.60761238
410,스타벅스,화곡동점,서울특별시 강서구 화곡동 1073-10,서울특별시 강서구 화곡로,126.837569,37.54055489
411,스타벅스,금천시흥점,서울특별시 금천구 시흥동 904-22,서울특별시 금천구 시흥대로,126.9032169,37.4488707
412,스타벅스,마곡GMG점,서울특별시 강서구 마곡동 773-2,서울특별시 강서구 마곡중앙6로,126.828987,37.56039191
413,스타벅스,강남대로신사점,서울특별시 서초구 잠원동 21-7,서울특별시 서초구 강남대로,127.019521,37.51485002
414,스타벅스둔촌동점,둔촌동점,서울특별시 강동구 성내동 441-2,서울특별시 강동구 양재대로,127.1339281,37.52276357
415,스타벅스,문정로데오점,서울특별시 송파구 가락동 125-6,서울특별시 송파구 동남로,127.126233,37.49189964
416,스타벅스,신월ICDT점,서울특별시 양천구 신월동 205-48,서울특별시 양천구 남부순환로,126.8321965,37.52951826
417,스타벅스,양평동점,서울특별시 영등포구 양평동4가 2,서울특별시 영등포구 선유동2로,126.8968599,37.53381625
418,스타벅스경희대삼거리점,경희대삼거리점,서울특별시 동대문구 회기동 60-40,서울특별시 동대문구 회기로,127.0520102,37.59156021
419,스타벅스,고대안암병원점,서울특별시 성북구 안암동5가 126-1,서울특별시 성북구 인촌로,127.0263415,37.58709834
420,스타벅스,상수역점,서울특별시 마포구 상수동 329-1,서울특별시 마포구 독막로,126.9232071,37.54750297
421,스타벅스,잠실대교남단점,서울특별시 송파구 신천동 7-30,서울특별시 송파구 송파대로,127.098885,37.51577952
422,스타벅스대치은마사거리점,대치은마사거리점,서울특별시 강남구 대치동 941-19,서울특별시 강남구 도곡로,127.0601595,37.49899741
423,스타벅스,을지로국제빌딩점,서울특별시 중구 다동 111,서울특별시 중구 남대문로,126.9822303,37.56697542
424,스타벅스서소문배재점,서소문배재점,서울특별시 중구 서소문동 57-9,서울특별시 중구 서소문로,126.9721669,37.5628786
425,스타벅스송파방이DT점,송파방이DT점,서울특별시 송파구 방이동 226-10,서울특별시 송파구 오금로,127.1205089,37.50654446
426,스타벅스숙대점,숙대점,서울특별시 용산구 청파동3가 111-35,서울특별시 용산구 청파로47가길,126.9673037,37.544545
427,스타벅스,,서울특별시 광진구 군자동 98,서울특별시 광진구 능동로,127.0731707,37.55160464
428,스타벅스,보라매점,서울특별시 관악구 봉천동 729-24,서울특별시 관악구 보라매로5가길,126.9253642,37.49180204
429,스타벅스방화DT,,서울특별시 강서구 방화동 293-4,서울특별시 강서구 방화대로,126.816371,37.57443928
430,스타벅스,여의도화재보험,서울특별시 영등포구 여의도동 35-4,서울특별시 영등포구 국제금융로6길,126.9259809,37.52137999
431,스타벅스,신세계강남점,서울특별시 서초구 반포동 19-3,서울특별시 서초구 신반포로,127.0023932,37.50393001
432,스타벅스강동역점,강동역점,서울특별시 강동구 천호동 447-17,서울특별시 강동구 천호대로,127.1330784,37.53656154
433,스타벅스,연세세브란스점,서울특별시 중구 남대문로5가 84-11,서울특별시 중구 통일로,126.9736159,37.5570885
434,스타벅스종로3가점,종로3가점,서울특별시 종로구 종로3가 9-3,서울특별시 종로구 종로,126.9902072,37.57058502
435,스타벅스,대치삼성프라자점,서울특별시 강남구 대치동 993-1,서울특별시 강남구 영동대로,127.0670514,37.50045769
436,스타벅스청계산입구역점,청계산입구역점,서울특별시 서초구 신원동 205-1,서울특별시 서초구 청계산로,127.0562524,37.4472724
437,스타벅스강남오거리점,강남오거리점,서울특별시 강남구 역삼동 813-17,서울특별시 강남구 봉은사로2길,127.0266434,37.50209594
438,스타벅스,합정점,서울특별시 마포구 합정동 472,서울특별시 마포구 월드컵로1길,126.9120459,37.5500407
439,스타벅스,남산스테이트점,서울특별시 중구 회현동2가 88,서울특별시 중구 퇴계로,126.9829111,37.56019644
440,스타벅스새문안로점,새문안로점,서울특별시 종로구 신문로1가 163,서울특별시 종로구 새문안로,126.9748689,37.56972298
441,스타벅스가산디지털단지역점,가산디지털단지역점,서울특별시 금천구 가산동 50-3,서울특별시 금천구 벚꽃로,126.883859,37.48143359
442,스타벅스명동입구점,명동입구점,서울특별시 중구 명동2가 85-5,서울특별시 중구 남대문로,126.9822587,37.56322733
443,스타벅스마포이마트점,마포이마트점,서울특별시 마포구 신공덕동 173,서울특별시 마포구 백범로,126.9533465,37.54242179
444,스타벅스,가든파이브점,서울특별시 송파구 문정동 628,서울특별시 송파구 충민로,127.1193706,37.47826065
445,스타벅스,염창역점,서울특별시 강서구 염창동 282-23,서울특별시 강서구 공항대로,126.8745264,37.54727425
446,스타벅스압구정점,압구정점,서울특별시 강남구 신사동 609,서울특별시 강남구 압구정로30길,127.0295417,37.52632207
447,스타벅스,천호이마트점,서울특별시 강동구 천호동 454-1,서울특별시 강동구 천호대로,127.1251325,37.53871953
448,스타벅스숭실대입구역점,숭실대입구역점,서울특별시 동작구 상도동 475-5,서울특별시 동작구 상도로,126.9527047,37.4968682
449,스타벅스회현역점,회현역점,서울특별시 중구 회현동1가 206,서울특별시 중구 퇴계로,126.9805829,37.55911313
450,스타벅스,논현힐탑점,서울특별시 강남구 논현동 216-5,서울특별시 강남구 논현로,127.032255,37.5115851
451,스타벅스약수역점,약수역점,서울특별시 중구 신당동 374-27,서울특별시 중구 다산로,127.0107162,37.55542289
452,스타벅스,영등포신길DT점,서울특별시 영등포구 신길동 252-9,서울특별시 영등포구 신길로,126.9100596,37.50456481
453,스타벅스충정타워점,충정타워점,서울특별시 서대문구 충정로3가 464,서울특별시 서대문구 서소문로,126.9640699,37.55988846
454,스타벅스,신당역사거리점,서울특별시 중구 흥인동 86,서울특별시 중구 다산로,127.0164407,37.56594086
455,스타벅스,신촌오거리점,서울특별시 마포구 노고산동 54-1,서울특별시 마포구 신촌로16길,126.9346636,37.55516663
456,스타벅스중구저동점,중구저동점,서울특별시 중구 저동2가 24-1,서울특별시 중구 수표로,126.9903364,37.56436893
457,스타벅스,명동중앙로점,서울특별시 중구 명동2가 2-16,서울특별시 중구 명동길,126.9857377,37.56376186
458,스타벅스대치사거리점,대치사거리점,서울특별시 강남구 대치동 960-5,서울특별시 강남구 삼성로,127.0588155,37.50335683
459,스타벅스커피여의도IFC1F,,서울특별시 영등포구 여의도동 23,서울특별시 영등포구 국제금융로,126.9248631,37.52517222
460,스타벅스,여의도일신점,서울특별시 영등포구 여의도동 15-15,서울특별시 영등포구 은행로,126.9202192,37.52790507
461,스타벅스,반포역점,서울특별시 서초구 잠원동 58-24,서울특별시 서초구 신반포로,127.0119225,37.50861449
462,스타벅스,명동남산,서울특별시 중구 남산동3가 13-31,서울특별시 중구 퇴계로,126.9864465,37.56074044
463,스타벅스,서울대치과병원점,서울특별시 종로구 연건동 28-21,서울특별시 종로구 대학로,126.9971841,37.58044782
464,스타벅스,보라매타운점,서울특별시 동작구 신대방동 395-66,서울특별시 동작구 보라매로5길,126.9233568,37.49142334
465,스타벅스,구의역점,서울특별시 광진구 구의동 246-15,서울특별시 광진구 아차산로,127.0840104,37.53700208
466,스타벅스가든파이브,,서울특별시 송파구 문정동 628,서울특별시 송파구 충민로,127.1193706,37.47826065
467,스타벅스강남점,강남점,서울특별시 강남구 역삼동 825,서울특별시 강남구 강남대로,127.0285648,37.49783175
468,스타벅스,,서울특별시 강남구 역삼동 831-25,서울특별시 강남구 강남대로78길,127.0305366,37.49489249
469,스타벅스,큰길타워점,서울특별시 강남구 역삼동 677-25,서울특별시 강남구 테헤란로,127.0406526,37.50239076
470,스타벅스동교삼거리점,동교삼거리점,서울특별시 서대문구 창천동 510-2,서울특별시 서대문구 신촌로,126.9273453,37.55881265
471,스타벅스커피가산브이타워,,서울특별시 금천구 가산동 371-37,서울특별시 금천구 가산디지털1로,126.8836842,37.47722405
472,스타벅스연대동문,연대동문점,서울특별시 서대문구 대신동 115,서울특별시 서대문구 성산로,126.9463211,37.56640809
473,스타벅스,서초동점,서울특별시 서초구 서초동 1439-14,서울특별시 서초구 남부순환로339길,127.0215728,37.48591615
474,스타벅스,이대이씨씨점,서울특별시 서대문구 대현동 11-1,서울특별시 서대문구 이화여대길,126.9503015,37.56428106
475,스타벅스차병원사거리점,차병원사거리점,서울특별시 강남구 논현동 235-11,서울특별시 강남구 봉은사로,127.0353547,37.50804228
476,스타벅스,송파개롱역점,서울특별시 송파구 오금동 20-17,서울특별시 송파구 마천로7길,127.1281717,37.50898908
477,스타벅스낙성대DT점,낙성대DT점,서울특별시 관악구 봉천동 1657-3,서울특별시 관악구 남부순환로,126.9650001,37.4761983
478,스타벅스,청담공원점,서울특별시 강남구 삼성동 53,서울특별시 강남구 학동로,127.0514396,37.51868785
479,스타벅스압구정로데오역,,서울특별시 강남구 청담동 84-3,서울특별시 강남구 선릉로,127.0405131,37.52653786
480,스타벅스성신여대정문,,서울특별시 성북구 동선동2가 134,서울특별시 성북구 보문로34길,127.0188421,37.59082962
481,스타벅스,종암점,서울특별시 성북구 종암동 3-1297,서울특별시 성북구 종암로28길,127.0342762,37.60130987
482,스타벅스구파발역점,구파발역점,서울특별시 은평구 진관동 100-6,서울특별시 은평구 진관2로,126.9185232,37.63427473
483,스타벅스,송파개롱역점,서울특별시 송파구 가락동 174-14,서울특별시 송파구 오금로,127.1362616,37.4969833
484,스타벅스,미아뉴타운점,서울특별시 강북구 미아동 812-2,서울특별시 강북구 삼양로,127.0211081,37.61838418
485,스타벅스한남동점,한남동점,서울특별시 용산구 한남동 36-7,서울특별시 용산구 독서당로,127.0109208,37.53479964
486,스타벅스커피마포염리,,서울특별시 마포구 염리동 168-9,서울특별시 마포구 독막로,126.9474628,37.54399137
487,스타벅스,국회의사당역점,서울특별시 영등포구 여의도동 17-3,서울특별시 영등포구 의사당대로,126.9168822,37.5278655
488,스타벅스화곡DT점,화곡DT점,서울특별시 강서구 화곡동 772-67,서울특별시 강서구 등촌로,126.8631123,37.53506398
489,스타벅스,용산역써밋R점,서울특별시 용산구 한강로2가 391,서울특별시 용산구 한강대로,126.9652201,37.52745195
490,스타벅스,목동오목로점,서울특별시 양천구 목동 406-4,서울특별시 양천구 오목로,126.8683761,37.52591494
491,스타벅스,강남구청정문점,서울특별시 강남구 청담동 44-12,서울특별시 강남구 학동로,127.045958,37.5183013
492,스타벅스송파위례점,송파위례점,서울특별시 송파구 장지동 884,서울특별시 송파구 위례광장로,127.1437439,37.47854792
493,스타벅스월계이마트점,월계이마트점,서울특별시 노원구 월계동 333-1,서울특별시 노원구 마들로3길,127.0619664,37.62650103
494,스타벅스문정하비오점,문정하비오점,서울특별시 송파구 문정동 618,서울특별시 송파구 송파대로,127.1248723,37.47961708
495,스타벅스,마포경찰서후문,서울특별시 마포구 아현동 618-19,서울특별시 마포구 마포대로,126.9535888,37.55099285
496,스타벅스,국회대로점,서울특별시 영등포구 여의도동 14,서울특별시 영등포구 국회대로,126.9195743,37.5302599
497,스타벅스,착한빵,서울특별시 중구 신당동 372-96,서울특별시 중구 동호로7길,127.0108813,37.55235171
498,스타벅스,청담사거리점,서울특별시 강남구 청담동 6-5,서울특별시 강남구 도산대로,127.0468501,37.52375987
499,스타벅스,미스리,서울특별시 종로구 소격동 34-2,서울특별시 종로구 북촌로5가길,126.9816593,37.5806483
500,스타벅스,신림DT점,서울특별시 관악구 신림동 564-12,서울특별시 관악구 남부순환로,126.9084012,37.48096909
501,스타벅스방이역점,방이역점,서울특별시 송파구 오금동 17-8,서울특별시 송파구 마천로,127.1266385,37.50854524
502,스타벅스,미스리,서울특별시 금천구 가산동 345-90,서울특별시 금천구 가산디지털2로,126.881125,37.4729469
503,스타벅스,연신내역사거리점,서울특별시 은평구 불광동 308-1,서울특별시 은평구 통일로,126.9220454,37.61868313
504,스타벅스,을지로내외빌딩점,서울특별시 중구 을지로2가 6,서울특별시 중구 을지로,126.9836633,37.56648318
505,스타벅스,연신내점,서울특별시 은평구 갈현동 395-5,서울특별시 은평구 통일로,126.9197896,37.62035644
506,스타벅스,서초우성사거리점,서울특별시 서초구 서초동 1329-7,서울특별시 서초구 강남대로,127.0292201,37.49351207
507,스타벅스,방화DT점,서울특별시 강서구 방화동 293-4,서울특별시 강서구 방화대로,126.816371,37.57443928
508,스타벅스,구파발사거리,서울특별시 은평구 진관동 65,서울특별시 은평구 진관3로,126.9191031,37.63960511
509,스타벅스구로디지털타워점,구로디지털타워점,서울특별시 구로구 구로동 222-7,서울특별시 구로구 디지털로32길,126.8965051,37.48338151
510,스타벅스,천호이마트점,서울특별시 강동구 천호동 455-4,서울특별시 강동구 천호대로,127.1251976,37.5389633
511,스타벅스,,서울특별시 강동구 천호동 454-60,서울특별시 강동구 천호대로157길,127.1270214,37.53878758
512,스타벅스,압구정역2점,서울특별시 강남구 신사동 583-3,서울특별시 강남구 논현로,127.0278969,37.52404691
513,스타벅스,뚝섬역점,서울특별시 성동구 성수동1가 14-33,서울특별시 성동구 아차산로,127.0490964,37.54643942
514,스타벅스,홍제역점,서울특별시 서대문구 홍제동 301-19,서울특별시 서대문구 통일로,126.9438335,37.5886595
515,스타벅스,가양역점,서울특별시 강서구 등촌동 73-1,서울특별시 강서구 양천로,126.8532583,37.56158526
516,스타벅스잠실대교남단점,잠실대교남단점,서울특별시 송파구 신천동 7-30,서울특별시 송파구 올림픽로35길,127.098885,37.51577952
517,스타벅스,한강진역점,서울특별시 용산구 한남동 683-139,서울특별시 용산구 이태원로,127.0011028,37.53710478
518,스타벅스신도림점,신도림점,서울특별시 구로구 신도림동 413-9,서울특별시 구로구 경인로,126.8839424,37.50546526
519,스타벅스역점,,서울특별시 동작구 상도동 324-1,서울특별시 동작구 상도로,126.931762,37.49993346
520,스타벅스,서초구청점,서울특별시 서초구 서초동 1365-23,서울특별시 서초구 남부순환로,127.03005,37.48442722
521,스타벅스,은평구청입구점,서울특별시 은평구 응암동 96-1,서울특별시 은평구 은평로,126.9266481,37.6010829
522,스타벅스,신촌역점,서울특별시 서대문구 창천동 72-12,서울특별시 서대문구 신촌로,126.9345003,37.55630046
523,스타벅스송파구청점,송파구청점,서울특별시 송파구 방이동 22-5,서울특별시 송파구 오금로,127.1074057,37.51460076
524,스타벅스차병원사거리,,서울특별시 강남구 논현동 235-11,서울특별시 강남구 봉은사로,127.0353547,37.50804228
525,스타벅스을지로센타,을지로센터,서울특별시 중구 을지로2가 204,서울특별시 중구 을지로5길,126.9848909,37.56694427
526,스타벅스,갤러리아팰리스점,서울특별시 송파구 잠실동 40,서울특별시 송파구 올림픽로,127.0944673,37.51066377
527,스타벅스건국클래식점,건국클래식점,서울특별시 광진구 자양동 227-342,서울특별시 광진구 능동로,127.070902,37.53835036
528,스타벅스예술의전당점,예술의전당점,서울특별시 서초구 서초동 1451-95,서울특별시 서초구 남부순환로323길,127.0134831,37.48112734
529,스타벅스신천역점,신천역점,서울특별시 송파구 잠실동 181,서울특별시 송파구 올림픽로,127.0812008,37.51145336
530,스타벅스연희DT점,연희DT점,서울특별시 서대문구 연희동 87-7,서울특별시 서대문구 연희로,126.9338837,37.57018891
531,스타벅스숙대입구역점,숙대입구역점,서울특별시 용산구 갈월동 69-5,서울특별시 용산구 한강대로,126.9719251,37.54422491
532,스타벅스,묵동이마트점,서울특별시 중랑구 묵동 170-1,서울특별시 중랑구 동일로,127.0775414,37.61382905
533,스타벅스삼선교점,삼선교점,서울특별시 성북구 동소문동2가 11,서울특별시 성북구 동소문로,127.0073203,37.58872396
534,스타벅스신림사거리점,신림사거리점,서울특별시 관악구 신림동 1422-35,서울특별시 관악구 남부순환로,126.9304873,37.48463112
535,스타벅스,보라매대교점,서울특별시 관악구 봉천동 729-21,서울특별시 관악구 보라매로3길,126.9255222,37.49103758
536,스타벅스,굽은다리역점,서울특별시 강동구 명일동 353-2,서울특별시 강동구 양재대로,127.143206,37.54541174
537,스타벅스,고대안암병원점,서울특별시 성북구 안암동5가 1-2,서울특별시 성북구 안암로,127.0317018,37.58848499
538,스타벅스,삼성점,서울특별시 강남구 삼성동 144-25,서울특별시 강남구 테헤란로,127.0555809,37.50694425
539,스타벅스,중앙대점,서울특별시 동작구 흑석동 205-5,서울특별시 동작구 흑석로,126.9581289,37.50693583
540,스타벅스,송파방이DT점,서울특별시 송파구 방이동 226-10,서울특별시 송파구 오금로,127.1205658,37.50650884
541,스타벅스,잠실역점,서울특별시 송파구 신천동 7-17,서울특별시 송파구 송파대로,127.0995353,37.51532494
542,스타벅스,내방역점,서울특별시 서초구 방배동 851-1,서울특별시 서초구 방배로,126.9924576,37.49001452
543,스타벅스,이태원거리점,서울특별시 용산구 한남동 737-61,서울특별시 용산구 이태원로,126.9975778,37.53501151
544,스타벅스,도곡역점,서울특별시 강남구 대치동 651,서울특별시 강남구 남부순환로,127.0573953,37.4921724
545,스타벅스외대정문점,외대정문점,서울특별시 동대문구 이문동 329-1,서울특별시 동대문구 이문로,127.0592092,37.59537516
546,스타벅스,성수역점,서울특별시 성동구 성수동2가 317-20,서울특별시 성동구 성수이로,127.0569453,37.54322254
547,스타벅스서강광흥창역점,서강광흥창역점,서울특별시 마포구 창전동 130,서울특별시 마포구 서강로,126.9316785,37.54941805
548,스타벅스,올림픽공원북문점,서울특별시 강동구 성내동 468,서울특별시 강동구 강동대로,127.1259321,37.52547091
549,스타벅스,경기대점,서울특별시 서대문구 충정로2가 191,서울특별시 서대문구 충정로,126.9646165,37.5637407
550,스타벅스서울대역점,서울대역점,서울특별시 관악구 봉천동 861-6,서울특별시 관악구 남부순환로,126.9522051,37.481627
551,스타벅스이수역사거리점,이수역사거리점,서울특별시 서초구 방배동 3001-2,서울특별시 서초구 서초대로,126.9830474,37.48598728
552,스타벅스충정타워,,서울특별시 서대문구 충정로3가 464,서울특별시 서대문구 서소문로,126.9640699,37.55988846
553,스타벅스공릉역점,공릉역점,서울특별시 노원구 공릉동 379-27,서울특별시 노원구 동일로,127.0722546,37.62636612
554,스타벅스중랑역점,중랑역점,서울특별시 중랑구 상봉동 130-3,서울특별시 중랑구 망우로30길,127.0747289,37.59307404
555,스타벅스종각점,종각점,서울특별시 종로구 종로2가 84-10,서울특별시 종로구 종로,126.9845218,37.56995057
556,스타벅스청담영동대로점,청담영동대로점,서울특별시 강남구 청담동 132-1,서울특별시 강남구 영동대로,127.056441,37.52217895
557,스타벅스강남우성점,강남우성점,서울특별시 강남구 역삼동 832-3,서울특별시 강남구 강남대로,127.0306939,37.4923528
558,스타벅스,수서점,서울특별시 강남구 수서동 713,서울특별시 강남구 밤고개로1길,127.1018421,37.48801336
559,스타벅스,삼성현대힐점,서울특별시 강남구 삼성동 51,서울특별시 강남구 삼성로,127.0527047,37.51347189
560,스타벅스상암디지털큐브점상암디지털큐브점,상암디지털큐브점,서울특별시 마포구 상암동 1647,서울특별시 마포구 상암산로,126.8892257,37.57630064
561,스타벅스,답십리역점,서울특별시 동대문구 답십리동 497-67,서울특별시 동대문구 천호대로,127.0511027,37.56849519
562,스타벅스,안국점,서울특별시 종로구 재동 109,서울특별시 종로구 북촌로,126.9856325,37.57736668
563,스타벅스,강남대로논현점,서울특별시 서초구 반포동 736-2,서울특별시 서초구 강남대로85길,127.0225824,37.50736061
564,스타벅스,연희동점,서울특별시 서대문구 연희동 188-2,서울특별시 서대문구 연희로,126.9305022,37.56679745
565,스타벅스,동대문점,서울특별시 중구 광희동1가 185-1,서울특별시 중구 장충단로,127.0071916,37.56516063
566,스타벅스양천향교역점,양천향교역점,서울특별시 강서구 마곡동 776-6,서울특별시 강서구 강서로,126.840442,37.56692032
567,스타벅스이수역점,이수역점,서울특별시 서초구 방배동 3000-1,서울특별시 서초구 동작대로,126.9826899,37.4864978
568,스타벅스방배카페입구,,서울특별시 서초구 방배동 755-14,서울특별시 서초구 방배중앙로,126.9856769,37.49723701
569,스타벅스,타임스퀘어B2점,서울특별시 영등포구 영등포동4가 442,서울특별시 영등포구 영중로,126.9039142,37.51721267
570,스타벅스삼성도심공항점,삼성도심공항점,서울특별시 강남구 삼성동 154-10,서울특별시 강남구 테헤란로87길,127.0579087,37.50981919
571,스타벅스,서울극장점,서울특별시 종로구 관수동 59-7,서울특별시 종로구 돈화문로,126.9916457,37.56968726
572,스타벅스,삼성역섬유센터R점,서울특별시 강남구 대치동 944-31,서울특별시 강남구 테헤란로,127.0605609,37.50757866
573,스타벅스,등촌역점,서울특별시 양천구 목동 602-2,서울특별시 양천구 공항대로,126.8680505,37.54895134
574,스타벅스,이수자이점,서울특별시 동작구 사당동 147-29,서울특별시 동작구 사당로,126.9809089,37.48442805
575,스타벅스,군자역점,서울특별시 광진구 군자동 478-5,서울특별시 광진구 천호대로,127.0790129,37.5569305
576,스타벅스명동길점,명동길점,서울특별시 중구 충무로2가 7-1,서울특별시 중구 명동10길,126.9858515,37.56205085
577,스타벅스,선릉점,서울특별시 강남구 대치동 889-70,서울특별시 강남구 테헤란로64길,127.0511761,37.50376427
578,스타벅스,신사2점,서울특별시 서초구 잠원동 28-1,서울특별시 서초구 강남대로,127.0197628,37.51366263
579,스타벅스,목동7단지점,서울특별시 양천구 목동 923,서울특별시 양천구 목동서로,126.8705959,37.52800858
580,스타벅스,이대점,서울특별시 서대문구 대현동 54-4,서울특별시 서대문구 이화여대길,126.945924,37.55843936
581,스타벅스선정릉역점,선정릉역점,서울특별시 강남구 삼성동 37-17,서울특별시 강남구 봉은사로,127.0445494,37.51077512
582,스타벅스강북구청사거리점,강북구청사거리점,서울특별시 강북구 수유동 174-13,서울특별시 강북구 도봉로,127.027328,37.64003344
583,스타벅스종로수송점,종로수송점,서울특별시 종로구 청진동 19,서울특별시 종로구 종로5길,126.9806835,37.57166551
584,스타벅스,코엑스2점,서울특별시 강남구 삼성동 159,서울특별시 강남구 영동대로,127.0591391,37.51182033
585,스타벅스뱅뱅사거리점,뱅뱅사거리점,서울특별시 강남구 도곡동 946-14,서울특별시 강남구 강남대로,127.032473,37.48855591
586,스타벅스방배카페입구점,방배카페입구점,서울특별시 서초구 방배동 755-14,서울특별시 서초구 방배중앙로,126.9856769,37.49723701
587,스타벅스마포트라팰점,마포트라팰점,서울특별시 마포구 아현동 738,서울특별시 마포구 마포대로,126.9555066,37.55224426
588,스타벅스,삼성역점,서울특별시 강남구 삼성동 168-21,서울특별시 강남구 영동대로96길,127.063193,37.51056404
589,스타벅스학여울점,학여울점,서울특별시 강남구 대치동 994-10,서울특별시 강남구 영동대로,127.0685071,37.49799127
590,스타벅스,아현역점,서울특별시 서대문구 북아현동 142-27,서울특별시 서대문구 북아현로,126.9561442,37.56007995
591,스타벅스,종로관철점,서울특별시 종로구 관철동 12-15,서울특별시 종로구 종로12길,126.9859827,37.5690711
592,스타벅스,건대스타씨티점,서울특별시 광진구 자양동 227-7,서울특별시 광진구 아차산로,127.0729442,37.53699681
593,스타벅스,사당로데오점,서울특별시 서초구 방배동 444-7,서울특별시 서초구 방배천로,126.9821471,37.47733842
594,스타벅스,신림포도몰점,서울특별시 관악구 신림동 1641-2,서울특별시 관악구 신림로,126.9302159,37.48384475
595,스타벅스,,서울특별시 서대문구 북가좌동 328-51,서울특별시 서대문구 증가로29길,126.9118591,37.58234114
596,스타벅스,압구정신원빌딩R점,서울특별시 강남구 신사동 621-1,서울특별시 강남구 언주로,127.0330918,37.5273874
597,스타벅스,문정법원로R점,서울특별시 송파구 문정동 642,서울특별시 송파구 송파대로,127.1205807,37.48788401
598,스타벅스,관악서울대입구R점,서울특별시 관악구 봉천동 856-6,서울특별시 관악구 관악로,126.9527917,37.47929847
599,스타벅스,가산에스케이점,서울특별시 금천구 가산동 371-41,서울특별시 금천구 가산디지털1로,126.8803985,37.48148195
600,스타벅스,독립문역점,서울특별시 종로구 교북동 12-1,서울특별시 종로구 송월길,126.9613715,37.57163234
601,스타벅스,금호역점,서울특별시 성동구 금호동4가 1483,서울특별시 성동구 동호로,127.0153294,37.54802783
602,스타벅스,광화문우체국점,서울특별시 종로구 서린동 154-1,서울특별시 종로구 종로,126.9780823,37.56983193
603,스타벅스,이촌점,서울특별시 용산구 이촌동 300-20,서울특별시 용산구 이촌로,126.977265,37.5186365
604,스타벅스,봉은사역점,서울특별시 강남구 삼성동 108-6,서울특별시 강남구 봉은사로,127.0631033,37.51502355
605,스타벅스,강남교보타워R점,서울특별시 서초구 서초동 1303-22,서울특별시 서초구 강남대로,127.0240884,37.50375083
606,스타벅스마곡나루역점,마곡나루역점,서울특별시 강서구 마곡동 759-3,서울특별시 강서구 마곡중앙로,126.825947,37.56802948
607,스타벅스노원마들역점,노원마들역점,서울특별시 노원구 상계동 694,서울특별시 노원구 노원로,127.0570787,37.66096272
608,스타벅스,이태원점,서울특별시 용산구 이태원동 127-6,서울특별시 용산구 이태원로,126.9947813,37.53430294
609,스타벅스,여의도역점,서울특별시 영등포구 여의도동 23-6,서울특별시 영등포구 의사당대로,126.9234298,37.52335708
610,스타벅스,여의도의사당점,서울특별시 영등포구 여의도동 13-19,서울특별시 영등포구 국회대로74길,126.9210478,37.53007514
611,스타벅스,서울타워점,서울특별시 용산구 용산동2가 1-3,서울특별시 용산구 남산공원길,126.9878557,37.55111136
612,스타벅스올림픽평화의문점,올림픽평화의문점,서울특별시 송파구 방이동 180-8,서울특별시 송파구 위례성대로,127.1163168,37.51578507
613,스타벅스,까치산역점,서울특별시 강서구 화곡동 343-1,서울특별시 강서구 강서로13길,126.846036,37.53228534
614,스타벅스,방배점,서울특별시 서초구 방배동 812-2,서울특별시 서초구 방배로,126.9905093,37.49194417
615,스타벅스,한티역점,서울특별시 강남구 대치동 1024,서울특별시 강남구 도곡로,127.0552134,37.4966152
616,스타벅스양천향교역,,서울특별시 강서구 마곡동 776-6,서울특별시 강서구 강서로,126.840442,37.56692032
617,스타벅스커피강남대로신사,,서울특별시 서초구 잠원동 21-7,서울특별시 서초구 강남대로,127.019521,37.51485002
618,스타벅스,홍대공항철도역점,서울특별시 마포구 동교동 166-1,서울특별시 마포구 양화로,126.9251911,37.55749556
619,스타벅스,은평이마트점,서울특별시 은평구 응암동 90-1,서울특별시 은평구 은평로,126.9204912,37.60081951
620,스타벅스,SKTTOWER점,서울특별시 중구 을지로2가 11,서울특별시 중구 을지로,126.9851123,37.56647763
621,스타벅스,학동역점,서울특별시 강남구 논현동 87,서울특별시 강남구 논현로,127.0307455,37.51460026
622,스타벅스,신용산역점,서울특별시 용산구 한강로2가 342,서울특별시 용산구 한강대로,126.9664013,37.5287598
623,스타벅스,몬테소리점,서울특별시 서초구 서초동 1318-8,서울특별시 서초구 강남대로,127.0268289,37.49825898
624,스타벅스,신촌아트레온점,서울특별시 서대문구 창천동 20-25,서울특별시 서대문구 신촌로,126.9403142,37.55655102
625,스타벅스,월곡역점,서울특별시 성북구 하월곡동 46-73,서울특별시 성북구 화랑로,127.0404418,37.60181969
626,스타벅스,서래마을입구점,서울특별시 서초구 반포동 92-1,서울특별시 서초구 서래로,126.9985423,37.49925701
627,스타벅스석촌역,,서울특별시 송파구 석촌동 286-9,서울특별시 송파구 백제고분로,127.1060134,37.50424607
628,스타벅스,장한평역점,서울특별시 동대문구 장안동 433-7,서울특별시 동대문구 장한로,127.0654766,37.56234757
629,스타벅스미아역점,미아역점,서울특별시 강북구 미아동 121-19,서울특별시 강북구 도봉로,127.0265575,37.62613312
630,스타벅스,을지병원사거리점,서울특별시 강남구 논현동 59-8,서울특별시 강남구 논현로,127.0286278,37.5191512
631,스타벅스,신촌대로점,서울특별시 서대문구 창천동 20-41,서울특별시 서대문구 신촌로,126.939278,37.55619932
632,스타벅스,순화동에이스점,서울특별시 중구 순화동 1-170,서울특별시 중구 통일로,126.9692029,37.5635826
633,스타벅스,포스코점,서울특별시 강남구 대치동 942-5,서울특별시 강남구 삼성로86길,127.0579257,37.50576457
634,스타벅스,서울세관사거리점,서울특별시 강남구 논현동 238-5,서울특별시 강남구 언주로,127.0357413,37.51491147
635,스타벅스선릉로점,선릉로점,서울특별시 강남구 역삼동 697-45,서울특별시 강남구 선릉로93길,127.046716,37.50495379
636,스타벅스,사당역점,서울특별시 동작구 사당동 1031-27,서울특별시 동작구 동작대로,126.9813515,37.4784759
637,스타벅스명동역,,서울특별시 중구 충무로1가 25-52,서울특별시 중구 퇴계로,126.9830833,37.56085569
638,스타벅스중계역점,중계역점,서울특별시 노원구 상계동 763-3,서울특별시 노원구 동일로,127.0621587,37.64815447
639,스타벅스커리학동사거리점,커리학동사거리점,서울특별시 강남구 논현동 93-2,서울특별시 강남구 도산대로,127.0379529,37.52239022
640,스타벅스,신논현역점,서울특별시 서초구 반포동 748-1,서울특별시 서초구 강남대로,127.023627,37.50531485
641,스타벅스,수유역점,서울특별시 강북구 번동 418-17,서울특별시 강북구 도봉로,127.0261078,37.63802308
642,스타벅스,선릉역점,서울특별시 강남구 역삼동 708-6,서울특별시 강남구 테헤란로,127.0485159,37.5039411
643,스타벅스,서울시청점,서울특별시 중구 을지로1가 50,서울특별시 중구 을지로,126.9799417,37.56629791
644,스타벅스천호로데오점,천호로데오점,서울특별시 강동구 천호동 453-14,서울특별시 강동구 천호대로,127.1273154,37.53783463
645,스타벅스,마포용강동점,서울특별시 마포구 용강동 112-2,서울특별시 마포구 토정로,126.9422063,37.54119622
646,스타벅스,남가좌사거리점,서울특별시 서대문구 남가좌동 224-1,서울특별시 서대문구 거북골로,126.9184627,37.57822103
647,스타벅스마포일진빌딩점,마포일진빌딩점,서울특별시 마포구 도화동 50-1,서울특별시 마포구 마포대로,126.9463581,37.54046745
648,스타벅스,자양점,서울특별시 광진구 자양동 507-6,서울특별시 광진구 능동로,127.0691588,37.53566952
649,스타벅스,상봉역점,서울특별시 중랑구 상봉동 100-2,서울특별시 중랑구 망우로,127.0864584,37.59693178
650,스타벅스,송파헬리오시티점,서울특별시 송파구 가락동 479,서울특별시 송파구 송파대로,127.1025188,37.49760579
651,스타벅스,우장산역점,서울특별시 강서구 내발산동 719-6,서울특별시 강서구 강서로,126.8359236,37.54958505
652,스타벅스역삼럭키,,서울특별시 강남구 역삼동 798-30,서울특별시 강남구 도곡로,127.0393917,37.49222561
653,스타벅스,역삼대로점,서울특별시 강남구 역삼동 678-39,서울특별시 강남구 테헤란로,127.0392228,37.50187455
654,스타벅스명동메트로,,서울특별시 중구 을지로2가 199-33,서울특별시 중구 명동9가길,126.9837157,37.56512306
655,스타벅스,강남대로점,서울특별시 강남구 역삼동 809-10,서울특별시 강남구 강남대로,127.0255555,37.5031322
656,스타벅스경복아파트점,경복아파트점,서울특별시 강남구 역삼동 681,서울특별시 강남구 봉은사로,127.0403528,37.50902009
657,스타벅스,상암MBC점,서울특별시 마포구 상암동 1603,서울특별시 마포구 성암로,126.8909658,37.5811105
658,스타벅스,여의도한양증권점,서울특별시 영등포구 여의도동 34-11,서울특별시 영등포구 국제금융로6길,126.9290886,37.52239936
659,스타벅스,현대미아점,서울특별시 성북구 길음동 20-1,서울특별시 성북구 동소문로,127.0287256,37.60839154
660,스타벅스,구로NC점,서울특별시 구로구 구로동 573,서울특별시 구로구 구로중앙로,126.882759,37.50063348
661,스타벅스,마리오아울렛점,서울특별시 금천구 가산동 60-20,서울특별시 금천구 벚꽃로,126.8850681,37.47843551
662,스타벅스,역삼포스코점,서울특별시 강남구 역삼동 735-3,서울특별시 강남구 테헤란로,127.0337924,37.49937038
663,스타벅스,고대점,서울특별시 성북구 안암동5가 104-30,서울특별시 성북구 인촌로24길,127.029689,37.58391819
664,스타벅스,노원역점,서울특별시 노원구 상계동 712,서울특별시 노원구 동일로,127.0600017,37.65475991
665,스타벅스,상도역점,서울특별시 동작구 상도1동 666-5,서울특별시 동작구 상도로37길,126.9484312,37.50322768
666,스타벅스용산역점,용산역점,서울특별시 용산구 한강로3가 40-999,서울특별시 용산구 한강대로21나길,126.9632226,37.52790298
667,스타벅스,가락본동점,서울특별시 송파구 가락동 97-7,서울특별시 송파구 송파대로30길,127.1187684,37.49488077
668,스타벅스,충무로역점,서울특별시 중구 필동2가 10,서울특별시 중구 퇴계로,126.9939076,37.56142598
669,스타벅스,압구정윤성빌딩점,서울특별시 강남구 신사동 592,서울특별시 강남구 논현로,127.0286028,37.52282728
670,스타벅스,북촌로점,서울특별시 종로구 계동 101-14,서울특별시 종로구 북촌로4길,126.9864535,37.57943711
671,스타벅스,용산리첸시아점,서울특별시 용산구 원효로1가 133-3,서울특별시 용산구 백범로,126.9679607,37.53792807
672,스타벅스,송파나루역DT점,서울특별시 송파구 송파동 59-9,서울특별시 송파구 오금로,127.1102559,37.51081979
673,스타벅스,잠실시그마타워점,서울특별시 송파구 신천동 7-19,서울특별시 송파구 올림픽로,127.1024963,37.51460861
674,스타벅스,명일역점,서울특별시 강동구 명일동 312-28,서울특별시 강동구 양재대로,127.1437694,37.55255218
675,스타벅스,몽촌토성역점,서울특별시 송파구 방이동 44-3,서울특별시 송파구 위례성대로,127.113137,37.5168335
676,스타벅스,자양사거리점,서울특별시 광진구 자양동 779,서울특별시 광진구 아차산로,127.0825464,37.53736014
677,스타벅스,은행사거리점,서울특별시 노원구 중계동 360-6,서울특별시 노원구 중계로,127.0759774,37.65049809
678,스타벅스신대방삼거리역점,신대방삼거리역점,서울특별시 동작구 상도동 324-1,서울특별시 동작구 상도로,126.931762,37.49993346
679,스타벅스,테헤란로아남타워점,서울특별시 강남구 역삼동 702-10,서울특별시 강남구 테헤란로,127.0448427,37.50374026
680,스타벅스,용산해링턴스퀘어점,서울특별시 용산구 한강로3가 63-70,서울특별시 용산구 서빙고로,126.9665514,37.52689595
681,스타벅스,서소문점,서울특별시 중구 서소문동 90,서울특별시 중구 서소문로,126.9755101,37.56340323
682,스타벅스,교대점,서울특별시 서초구 서초동 1657-5,서울특별시 서초구 서초중앙로,127.014217,37.49238766
683,스타벅스,회기역사거리점,서울특별시 동대문구 회기동 346-18,서울특별시 동대문구 이문로,127.0560164,37.59084445
684,스타벅스,서울아트센터점,서울특별시 서초구 서초동 1464-22,서울특별시 서초구 남부순환로,127.0123471,37.48066733
685,스타벅스마포아크로타워점,마포아크로타워점,서울특별시 마포구 도화동 563,서울특별시 마포구 마포대로,126.9491392,37.54145635
686,스타벅스서울중앙우체국점,서울중앙우체국점,서울특별시 중구 충무로1가 21-1,서울특별시 중구 소공로,126.9821565,37.56158656
687,스타벅스석촌서호점,석촌서호점,서울특별시 송파구 삼전동 130-2,서울특별시 송파구 석촌호수로,127.0966117,37.50636412
688,스타벅스,동부이촌동점,서울특별시 용산구 이촌동 302-60,서울특별시 용산구 이촌로,126.9690527,37.52107002
689,스타벅스삼성교점,삼성교점,서울특별시 강남구 대치동 1001-8,서울특별시 강남구 영동대로86길,127.0651728,37.50781348
690,스타벅스조선호텔후문,,서울특별시 중구 소공동 70,서울특별시 중구 남대문로7길,126.9807573,37.56376402
691,스타벅스,왕십리역점,서울특별시 성동구 도선동 58-1,서울특별시 성동구 왕십리로,127.0338801,37.56274199
692,스타벅스목동점,목동점,서울특별시 양천구 목동 907-4,서울특별시 양천구 목동서로,126.8785371,37.53638282
693,스타벅스,명일이마트점,서울특별시 강동구 명일동 47-7,서울특별시 강동구 동남로75길,127.1559874,37.55400074
694,스타벅스남산스테이트,,서울특별시 중구 회현동2가 88,서울특별시 중구 퇴계로,126.9829111,37.56019644
695,스타벅스구로하이엔드점,구로하이엔드점,서울특별시 구로구 구로동 235-2,서울특별시 구로구 디지털로26길,126.8934671,37.48160507
696,스타벅스,논현역점,서울특별시 서초구 잠원동 37-7,서울특별시 서초구 강남대로,127.0206276,37.51153431
697,스타벅스,상명아트홀점,서울특별시 종로구 동숭동 1-38,서울특별시 종로구 동숭길,127.0027155,37.58336
698,스타벅스,서초중앙로점,서울특별시 서초구 반포동 52-6,서울특별시 서초구 서초중앙로,127.0115392,37.50165515
699,스타벅스,한솔빌딩점,서울특별시 강남구 역삼동 736-1,서울특별시 강남구 테헤란로,127.0349412,37.49974019
700,스타벅스,지에스타워점,서울특별시 강남구 역삼동 679,서울특별시 강남구 논현로,127.0372774,37.50188574
701,탐앤탐스,막스앤스펜서점,서울특별시 강남구 신사동 575,서울특별시 강남구 압구정로,127.0260332,37.52555433
702,탐앤탐스안국역점,안국역점,서울특별시 종로구 계동 146-2,서울특별시 종로구 율곡로,126.9865731,37.57729366
703,탐앤탐스난곡사거리점,난곡사거리점,서울특별시 관악구 신림동 1474-23,서울특별시 관악구 남부순환로,126.9141946,37.48144597
704,탐앤탐스일원점,일원점,서울특별시 강남구 일원동 641-3,서울특별시 강남구 개포로140길,127.0865296,37.49372582
705,탐앤탐스온수역점,온수역점,서울특별시 구로구 온수동 11-1,서울특별시 구로구 부일로,126.823618,37.49293209
706,탐앤탐스1호,,서울특별시 구로구 고척동 63-9,서울특별시 구로구 경인로,126.8670177,37.49978074
707,탐앤탐스,양재위메스점,서울특별시 서초구 양재동 16-6,서울특별시 서초구 바우뫼로37길,127.0391396,37.48012236
708,탐앤탐스명동중앙우체국점,명동중앙우체국점,서울특별시 중구 충무로1가 25-10,서울특별시 중구 명동8나길,126.9820616,37.56107214
709,탐앤탐스탐스커버리아셈타,,서울특별시 강남구 삼성동 77-15,서울특별시 강남구 봉은사로,127.0593452,37.5143269
710,탐앤탐스,청담점,서울특별시 강남구 청담동 124-18,서울특별시 강남구 도산대로89길,127.0501825,37.52504819
711,탐앤탐스탐스커버리광진화양점탐스커버리광진화양점,탐스커버리광진화양점,서울특별시 광진구 화양동 12-32,서울특별시 광진구 능동로13길,127.0707735,37.54323305
712,탐앤탐스,,서울특별시 동대문구 휘경동 191-2,서울특별시 동대문구 회기로,127.0577344,37.59019141
713,탐앤탐스회기역점,회기역점,서울특별시 동대문구 휘경동 319-37,서울특별시 동대문구 회기로,127.0570486,37.58980749
714,탐앤탐스서울대입구점,서울대입구점,서울특별시 관악구 봉천동 862-3,서울특별시 관악구 관악로,126.9522407,37.48069923
715,탐앤탐스,노원점,서울특별시 노원구 상계동 292-1,서울특별시 노원구 노해로,127.0638693,37.65542139
716,탐앤탐스,사당역점,서울특별시 서초구 방배동 446-1,서울특별시 서초구 방배천로2길,126.9832858,37.4767355
717,탐앤탐스,서초디스커버리점,서울특별시 서초구 서초동 1554-5,서울특별시 서초구 서초대로,127.0109808,37.49254082
718,탐앤탐스삼성오라클점,삼성오라클점,서울특별시 강남구 삼성동 144-17,서울특별시 강남구 삼성로,127.0555606,37.50765592
719,탐앤탐스,왕십리센트라스점,서울특별시 성동구 하왕십리동 1070,서울특별시 성동구 왕십리로,127.0240621,37.56654474
720,탐앤탐스,덕성여대점,서울특별시 강북구 우이동 71-31,서울특별시 강북구 삼양로,127.0124444,37.65163222
721,탐앤탐스,어린이대공원역점,서울특별시 광진구 군자동 361-24,서울특별시 광진구 광나루로,127.072479,37.54806708
722,탐앤탐스,신촌점,서울특별시 서대문구 창천동 2-31,서울특별시 서대문구 명물길,126.9386535,37.55873464
723,탐앤탐스도산사거리점,도산사거리점,서울특별시 강남구 논현동 97-23,서울특별시 강남구 언주로,127.0346178,37.52046178
724,탐앤탐스,도산로점,서울특별시 강남구 신사동 589-18,서울특별시 강남구 논현로152길,127.0311164,37.52178469
725,탐앤탐스,광장점,서울특별시 광진구 광장동 571-1,서울특별시 광진구 광나루로,127.096749,37.5409477
726,탐앤탐스홈플러스강서점,홈플러스강서점,서울특별시 강서구 등촌동 639-11,서울특별시 강서구 화곡로,126.8548002,37.55845562
727,에스앤탐앤탐스양재위메스점,,서울특별시 서초구 양재동 16-6,서울특별시 서초구 바우뫼로37길,127.0391396,37.48012236
728,탐앤탐스,개봉동센트레빌점,서울특별시 구로구 개봉동 497,서울특별시 구로구 경인로,126.8557608,37.49559952
729,탐앤탐스,동대입구역점,서울특별시 중구 장충동2가 189-27,서울특별시 중구 동호로,127.0049721,37.55927615
730,탐앤탐스,도봉산입구점,서울특별시 도봉구 도봉동 280-4,서울특별시 도봉구 도봉산4길,127.0429878,37.68765487
731,탐앤탐스,고대점,서울특별시 성북구 안암동5가 104-117,서울특별시 성북구 인촌로24길,127.0296056,37.58336787
732,탐앤탐스,대방역점,서울특별시 동작구 대방동 88-19,서울특별시 동작구 여의대방로62길,126.9270465,37.51411824
733,탐앤탐스구로점,구로점,서울특별시 관악구 신림동 1655,서울특별시 관악구 시흥대로,126.9024504,37.483527
734,탐앤탐스커피숍,,서울특별시 중구 충무로1가 25-10,서울특별시 중구 명동8나길,126.9820616,37.56107214
735,탐앤탐스,용산아이파크몰점,서울특별시 용산구 한강로3가 40-999,서울특별시 용산구 한강대로21나길,126.9632226,37.52790298
736,탐앤탐스망원점,망원점,서울특별시 마포구 망원동 377-3,서울특별시 마포구 월드컵로,126.9098212,37.555931
737,탐앤탐스매점,,서울특별시 서초구 반포동 19-3,서울특별시 서초구 신반포로,127.0023932,37.50393001
738,탐앤탐스,창동본점,서울특별시 도봉구 창동 691-10,서울특별시 도봉구 노해로,127.0399573,37.6518323
739,탐앤탐스화랑대점,화랑대점,서울특별시 노원구 공릉동 90-4,서울특별시 노원구 노원로,127.0866391,37.62198215
740,탐앤탐스,국방부점,서울특별시 용산구 용산동3가 1,서울특별시 용산구 이태원로,126.9776719,37.5335884
741,탐앤탐스천호로데오점,천호로데오점,서울특별시 강동구 천호동 454-53,서울특별시 강동구 천호대로157길,127.1267634,37.53859645
742,탐앤탐스,인덕대점,서울특별시 노원구 월계동 648,서울특별시 노원구 초안산로,127.0544862,37.63033381
743,탐앤탐스3호,,서울특별시 구로구 고척동 63-6,서울특별시 구로구 경인로,126.8672243,37.49882761
744,탐앤탐스송파위례점,송파위례점,서울특별시 송파구 장지동 881,서울특별시 송파구 위례광장로,127.1428882,37.48119986
745,탐앤탐스가재울뉴타운점,가재울뉴타운점,서울특별시 서대문구 남가좌동 124-1,서울특별시 서대문구 가재울미래로,126.9189295,37.5733417
746,탐앤탐스,마포도화점,서울특별시 마포구 도화동 202-1,서울특별시 마포구 삼개로,126.9476352,37.5389741
747,탐앤탐스,,서울특별시 광진구 군자동 211,서울특별시 광진구 능동로,127.0744588,37.54811866
748,탐앤탐스,탐스커버리아셈타워점,서울특별시 강남구 삼성동 77-15,서울특별시 강남구 봉은사로,127.0593452,37.5143269
749,탐앤탐스,서초타워점,서울특별시 서초구 서초동 1329,서울특별시 서초구 강남대로,127.0288133,37.49435572
750,탐앤탐스,서문여고점,서울특별시 서초구 방배동 1770,서울특별시 서초구 동작대로,126.9826243,37.488002
751,탐앤탐스,낙성대역점,서울특별시 노원구 상계동 177-34,서울특별시 노원구 상계로18길,127.0695143,37.65715098
752,탐앤탐스,강남2호점,서울특별시 강남구 역삼동 832-5,서울특별시 강남구 강남대로,127.0309332,37.49221059
753,탐앤탐스반포디스커버리,,서울특별시 동작구 사당동 1133,서울특별시 동작구 사당로23바길,126.9705222,37.48903249
754,탐앤탐스대한항공서소문점,대한항공서소문점,서울특별시 중구 서소문동 41-3,서울특별시 중구 서소문로,126.9741042,37.56357123
755,탐앤탐스,이대역점,서울특별시 서대문구 창천동 4-70,서울특별시 서대문구 연세로2다길,126.9402586,37.55728036
756,탐앤탐스,호평점,서울특별시 강남구 논현동 107-41,서울특별시 강남구 언주로140길,127.0373713,37.51834876
757,탐앤탐스,신촌로터리점,서울특별시 서대문구 창천동 29-81,서울특별시 서대문구 신촌로,126.937778,37.55582541
758,탐앤탐스,반포자이점,서울특별시 서초구 반포동 20-43,서울특별시 서초구 신반포로,127.0115706,37.50785466
759,탐앤탐스,목동사거리점,서울특별시 강서구 화곡동 781-4,서울특별시 강서구 등촌로,126.8634685,37.53172456
760,탐앤탐스수유역점,수유역점,서울특별시 강북구 번동 418-23,서울특별시 강북구 오패산로,127.026111,37.63777982
761,탐앤탐스,,서울특별시 서초구 서초동 1303,서울특별시 서초구 사평대로,127.0231839,37.50372533
762,탐앤탐스,역삼2호점,서울특별시 강남구 역삼동 769-12,서울특별시 강남구 논현로,127.0397914,37.49545464
763,탐앤탐스삼모타워신림역점,삼모타워신림역점,서울특별시 관악구 신림동 1638-1,서울특별시 관악구 신원로,126.9290054,37.482302
764,탐앤탐스,블랙청계광장점,서울특별시 중구 무교동 77,서울특별시 중구 청계천로,126.9787984,37.56878391
765,탐앤탐스길동점,길동점,서울특별시 강동구 성내동 244,서울특별시 강동구 천호대로,127.1351602,37.5346125
766,탐앤탐스중랑구청점,중랑구청점,서울특별시 중랑구 신내동 565-1,서울특별시 중랑구 신내로14길,127.0961052,37.60547587
767,탐앤탐스,역삼GS타워점,서울특별시 강남구 역삼동 678,서울특별시 강남구 테헤란로27길,127.0379472,37.50256699
768,탐앤탐스,블랙눈스퀘어점,서울특별시 중구 명동2가 83-5,서울특별시 중구 명동길,126.9828675,37.56340378
769,탐앤탐스,제이제이점,서울특별시 강남구 신사동 666-4,서울특별시 강남구 선릉로153길,127.0389211,37.52452458
770,탐앤탐스,정릉점,서울특별시 성북구 정릉동 408-3,서울특별시 성북구 보국문로,127.0101079,37.60737185
771,탐앤탐스,,서울특별시 용산구 용산동5가 24,서울특별시 용산구 서빙고로,126.9703921,37.52485709
772,탐앤탐스,압구정로데오본점,서울특별시 강남구 신사동 665-1,서울특별시 강남구 선릉로,127.0393713,37.52559149
773,탐앤탐스,건대탐스커버리점,서울특별시 광진구 자양동 7-7,서울특별시 광진구 아차산로,127.0693316,37.53997791
774,탐앤탐스,서울만남의광장휴게소부산방면,서울특별시 서초구 원지동 10-16,서울특별시 서초구 양재대로12길,127.0427135,37.45965224
775,탐앤탐스,도산사거리점,서울특별시 강남구 논현동 91-20,서울특별시 강남구 언주로,127.0344186,37.52100079
776,탐앤탐스,동교삼거리점,서울특별시 서대문구 창천동 510-4,서울특별시 서대문구 신촌로,126.9275505,37.55870639
777,탐앤탐스,,서울특별시 광진구 화양동 507-6,서울특별시 광진구 광나루로24길,127.0766853,37.54560414
778,탐앤탐스,이태원점,서울특별시 용산구 이태원동 67-1,서울특별시 용산구 이태원로,126.9927008,37.53419511
779,탐앤탐스,굿모닝시티점,서울특별시 중구 을지로6가 18-21,서울특별시 중구 장충단로,127.0073398,37.56679277
780,탐앤탐스,강서구청사거리점,서울특별시 강서구 등촌동 657-3,서울특별시 강서구 공항대로,126.8515334,37.55671192
781,탐앤탐스,코엑스스카이점,서울특별시 강남구 삼성동 159,서울특별시 강남구 봉은사로,127.0571003,37.5129394
782,탐앤탐스,3호점,서울특별시 구로구 고척동 63-6,서울특별시 구로구 경인로,126.8670754,37.49820447
783,탐앤탐스목동예술인센터,,서울특별시 양천구 목동 923-6,서울특별시 양천구 목동서로,126.8707346,37.52706381
784,탐앤탐스트래블,,서울특별시 강남구 청담동 92-11,서울특별시 강남구 도산대로,127.0444354,37.52415485
785,탐앤탐스,상봉메가박스점,서울특별시 중랑구 상봉동 130-3,서울특별시 중랑구 망우로30길,127.0747289,37.59307404
786,탐앤탐스,,서울특별시 성동구 행당동 168-151,서울특별시 성동구 왕십리광장로,127.0383792,37.56143616
787,탐앤탐스,,서울특별시 송파구 문정동 55-6,서울특별시 송파구 송파대로,127.1230757,37.48628966
788,탐앤탐스공릉역점,공릉역점,서울특별시 노원구 공릉동 388-35,서울특별시 노원구 동일로192길,127.0746091,37.62651076
789,탐앤탐스,강남면허점,서울특별시 강남구 대치동 997-11,서울특별시 강남구 테헤란로114길,127.066532,37.50857211
790,탐앤탐스,성신여대점,서울특별시 성북구 동선동1가 87,서울특별시 성북구 동소문로22길,127.0178141,37.59237086
791,탐앤탐스디엠씨탐스커버리,,서울특별시 은평구 증산동 223-13,서울특별시 은평구 수색로,126.9006607,37.57856116
792,탐앤탐스,노량진점,서울특별시 동작구 노량진동 40-14,서울특별시 동작구 노량진로,126.9386581,37.51289862
793,탐앤탐스,,서울특별시 광진구 화양동 5-91,서울특별시 광진구 동일로22길,127.0704422,37.54075255
794,탐앤탐스,더블유디호텔신림점,서울특별시 관악구 신림동 1432-79,서울특별시 관악구 신림로,126.9293102,37.48550349
795,탐앤탐스한성대점,한성대점,서울특별시 성북구 동소문동3가 63,서울특별시 성북구 동소문로,127.0109903,37.59033159
796,탐앤탐스,역삼르까프골프장점,서울특별시 강남구 대치동 982-10,서울특별시 강남구 역삼로98길,127.064825,37.50305315
797,탐앤탐스은마사거리,,서울특별시 강남구 대치동 988-13,서울특별시 강남구 삼성로,127.0608664,37.49944455
798,탐앤탐스,탐스커버리금천본점,서울특별시 금천구 독산동 1012,서울특별시 금천구 시흥대로,126.8984777,37.46916335
799,탐앤탐스,강서구청점,서울특별시 강서구 화곡동 998-1,서울특별시 강서구 화곡로,126.8495218,37.55209707
800,탐앤탐스신도림테크노마트,,서울특별시 구로구 구로동 3-25,서울특별시 구로구 새말로,126.8902076,37.50703804
801,탐앤탐스,순화동케이지점,서울특별시 중구 순화동 1-170,서울특별시 중구 통일로,126.9692029,37.5635826
802,탐앤탐스,삼성본점,서울특별시 강남구 삼성동 143-27,서울특별시 강남구 테헤란로77길,127.054403,37.50706999
803,탐앤탐스,더칼립소점,서울특별시 강남구 신사동 637-14,서울특별시 강남구 언주로172길,127.0347817,37.52794185
804,탐앤탐스한남점,한남점,서울특별시 용산구 한남동 657-204,서울특별시 용산구 한남대로21길,127.0061476,37.53382248
805,탐앤탐스,반포스타점,서울특별시 서초구 반포동 52-1,서울특별시 서초구 고무래로,127.0112248,37.50233732
806,탐앤탐스,염창본점,서울특별시 강서구 염창동 265,서울특별시 강서구 양천로,126.8699013,37.55229389
807,탐앤탐스영등포,,서울특별시 영등포구 영등포동4가 55,서울특별시 영등포구 영중로,126.9051406,37.51844045
808,탐앤탐스,마포역점,서울특별시 마포구 용강동 26-7,서울특별시 마포구 토정로37길,126.9447756,37.54115613
809,탐앤탐스,반포자이점,서울특별시 서초구 반포동 20-45,서울특별시 서초구 잠원로,127.0098611,37.50711049
810,탐앤탐스,이대역점,서울특별시 마포구 염리동 8-31,서울특별시 마포구 신촌로,126.9466856,37.55659902
811,이디야커피,신길역점,서울특별시 영등포구 신길동 59-2,서울특별시 영등포구 영등포로,126.9180619,37.51511754
812,이디야커피,북창동점,서울특별시 중구 태평로2가 52-4,서울특별시 중구 남대문로1길,126.9775557,37.56363722
813,이디야커피,라이프점,서울특별시 영등포구 여의도동 61-3,서울특별시 영등포구 63로,126.9391975,37.51954417
814,이디야커피,시흥점,서울특별시 금천구 시흥동 1011,서울특별시 금천구 금하로,126.9136456,37.44906614
815,이디야커피양재AT점,양재AT점,서울특별시 서초구 양재동 326-9,서울특별시 서초구 동산로,127.0402645,37.4690755
816,이디야커피,개봉중앙점,서울특별시 구로구 개봉동 358-20,서울특별시 구로구 개봉로3길,126.8548716,37.48643631
817,이디야커피,해군회관점,서울특별시 동작구 대방동 385-24,서울특별시 동작구 여의대방로,126.9222451,37.50425313
818,이디야커피,등촌역점,서울특별시 강서구 등촌동 509-1,서울특별시 강서구 등촌로,126.8632941,37.54917596
819,이디야커피,신정역점,서울특별시 양천구 신정동 922-17,서울특별시 양천구 오목로,126.8546338,37.5249535
820,이디야커피,도림사거리,서울특별시 영등포구 신길동 363-4,서울특별시 영등포구 도림로,126.9018076,37.5065788
821,이디야서대문점2호,,서울특별시 서대문구 냉천동 248,서울특별시 서대문구 통일로,126.9652177,37.56691763
822,이디야IBK고객센터,,서울특별시 용산구 한남동 707-18,서울특별시 용산구 한남대로,127.0070365,37.53505538
823,이디야커피은행나무사거리점,은행나무사거리점,서울특별시 금천구 시흥동 908-7,서울특별시 금천구 금하로,126.9066214,37.45179463
824,이디야커피,디지털미디어시티역사점,서울특별시 마포구 상암동 1140,서울특별시 마포구 성암로,126.8989995,37.57681569
825,이디야커피,강서구청점,서울특별시 강서구 화곡동 981-1,서울특별시 강서구 화곡로,126.8487572,37.55030557
826,이디야커피,약수역점,서울특별시 중구 신당동 373-70,서울특별시 중구 동호로10길,127.0116106,37.55454736
827,이디야커피,영등포아크로타워점,서울특별시 영등포구 영등포동7가 145-8,서울특별시 영등포구 국회대로54길,126.9070317,37.52373808
828,이디야커피,둔촌점,서울특별시 강동구 성내동 415-8,서울특별시 강동구 양재대로,127.1362415,37.52916
829,이디야커피,중계롯데우성점,서울특별시 노원구 중계동 361-1,서울특별시 노원구 노원로22길,127.0727538,37.64636407
830,이디야커피,동덕여대점,서울특별시 성북구 하월곡동 21-78,서울특별시 성북구 화랑로13길,127.0422635,37.60459168
831,이디야커피,양재언남점,서울특별시 서초구 양재동 377-1,서울특별시 서초구 동산로,127.0453977,37.4716851
832,이디야커피,,서울특별시 성북구 하월곡동 225-3,서울특별시 성북구 오패산로16길,127.0382182,37.60915408
833,이디야커피수유역점,수유역점,서울특별시 강북구 수유동 191-2,서울특별시 강북구 도봉로,127.0266913,37.63933439
834,이디야커피돈암아리랑점,돈암아리랑점,서울특별시 성북구 돈암동 535-1,서울특별시 성북구 아리랑로,127.0124946,37.5998862
835,이디야커피,사당역점,서울특별시 동작구 사당동 1046-39,서울특별시 동작구 동작대로7길,126.9775142,37.47714524
836,이디야커피,오금점,서울특별시 송파구 가락동 8,서울특별시 송파구 오금로,127.1261052,37.50287363
837,이디야커피,건대후문점,서울특별시 광진구 화양동 499-1,서울특별시 광진구 광나루로,127.0755658,37.54645138
838,이디야커피,광운대점,서울특별시 노원구 월계동 465-10,서울특별시 노원구 광운로,127.0584078,37.62031859
839,이디야커피,미아역점,서울특별시 강북구 미아동 207-3,서울특별시 강북구 도봉로,127.025458,37.62705212
840,이디야커피,,서울특별시 강북구 미아동 860-76,서울특별시 강북구 솔샘로,127.0214895,37.61953166
841,이디야커피,고덕점,서울특별시 강동구 명일동 47-4,서울특별시 강동구 동남로75길,127.1551598,37.55412097
842,이디야커피,청계산입구역점,서울특별시 서초구 신원동 271-23,서울특별시 서초구 청계산로,127.055336,37.44824723
843,이디야커피,삼전역점,서울특별시 송파구 삼전동 133-6,서울특별시 송파구 백제고분로,127.0957841,37.50277157
844,이디야커피세광교회점,세광교회점,서울특별시 금천구 시흥동 813-20,서울특별시 금천구 독산로,126.9055425,37.45835331
845,이디야커피,,서울특별시 강서구 화곡동 84-4,서울특별시 강서구 우현로,126.8436114,37.54715573
846,이디야커피,용산효창점,서울특별시 용산구 효창동 5-80,서울특별시 용산구 효창원로66길,126.9621762,37.54055347
847,이디야커피,신당점,서울특별시 중구 신당동 241-5,서울특별시 중구 다산로35길,127.0148311,37.56353066
848,이디야커피,구일역점,서울특별시 구로구 구로동 642-108,서울특별시 구로구 구일로,126.871997,37.49506187
849,이디야커피우장산동점,우장산동점,서울특별시 강서구 화곡동 84-5,서울특별시 강서구 우현로,126.8434627,37.54725338
850,이디야커피,신림남부초교점,서울특별시 관악구 신림동 465-32,서울특별시 관악구 남부순환로,126.9217311,37.48337116
851,이디야커피,어린이대공원역점,서울특별시 광진구 화양동 111-5,서울특별시 광진구 광나루로,127.0718622,37.54761171
852,이디야커피,대방역점,서울특별시 동작구 대방동 339-15,서울특별시 동작구 노량진로,126.9281387,37.51288472
853,이디야커피,목3동점,서울특별시 양천구 목동 956,서울특별시 양천구 목동중앙북로,126.8667649,37.54791183
854,이디야커피,녹번동점,서울특별시 은평구 녹번동 131-158,서울특별시 은평구 진흥로,126.9269573,37.60872646
855,이디야커피,서울교대점,서울특별시 서초구 서초동 1577-12,서울특별시 서초구 서초중앙로,127.0140581,37.48985437
856,이디야커피,마장동점,서울특별시 성동구 마장동 478-37,서울특별시 성동구 고산자로,127.0373301,37.56996051
857,이디야커피,송파잠실점,서울특별시 송파구 잠실동 252-11,서울특별시 송파구 삼전로,127.0899078,37.50702449
858,이디야커피,신월7동점,서울특별시 양천구 신월동 932-1,서울특별시 양천구 지양로,126.8329747,37.52241678
859,이디야커피,우림시장점,서울특별시 중랑구 망우동 458-3,서울특별시 중랑구 봉우재로,127.0993538,37.59530088
860,이디야커피동소문동점,동소문동점,서울특별시 성북구 동소문동4가 272,서울특별시 성북구 동소문로13길,127.0128136,37.5920318
861,이디야커피,여의도역점,서울특별시 영등포구 여의도동 37,서울특별시 영등포구 의사당대로,126.924414,37.52020338
862,이디야커피,공덕롯데캐슬,서울특별시 마포구 공덕동 467,서울특별시 마포구 마포대로,126.9508646,37.5451119
863,이디야커피,별관,서울특별시 강남구 역삼동 682-20,서울특별시 강남구 선릉로,127.0435765,37.50990224
864,이디야커피,길음중앙점,서울특별시 성북구 길음동 25-7,서울특별시 성북구 도봉로,127.0298568,37.61023897
865,이디야커피,,서울특별시 강남구 삼성동 153-63,서울특별시 강남구 테헤란로87길,127.0577002,37.51020498
866,이디야커피,북촌마을점,서울특별시 종로구 화동 138-6,서울특별시 종로구 북촌로5길,126.9827078,37.57930578
867,이디야커피,중화동점,서울특별시 중랑구 중화동 301-1,서울특별시 중랑구 동일로129길,127.0795205,37.59937376
868,이디야커피,한티역점,서울특별시 강남구 대치동 939-18,서울특별시 강남구 도곡로69길,127.0561015,37.49793785
869,이디야커피,용산원효점,서울특별시 용산구 원효로4가 118-1,서울특별시 용산구 원효로,126.9516297,37.53249508
870,이디야커피,방이초교점,서울특별시 송파구 방이동 167-1,서울특별시 송파구 가락로,127.1199837,37.51273984
871,이디야커피,성수중앙점,서울특별시 성동구 성수동2가 315-74,서울특별시 성동구 성수일로6길,127.0552231,37.54429003
872,이디야커피,신길아이파크점,서울특별시 영등포구 신길동 342-135,서울특별시 영등포구 도림로,126.9042022,37.50293379
873,이디야커피,당산버드나루점,서울특별시 영등포구 영등포동7가 94-50,서울특별시 영등포구 버드나루로,126.9087076,37.52596113
874,이디야커피,까치산로점,서울특별시 강서구 화곡동 1167,서울특별시 강서구 까치산로,126.8538719,37.55330171
875,이디야커피,동대문구청점,서울특별시 동대문구 용두동 39-809,서울특별시 동대문구 천호대로,127.0406227,37.57360952
876,이디야커피,합정역사거리점,서울특별시 마포구 합정동 364-27,서울특별시 마포구 독막로2길,126.9148785,37.54824667
877,이디야커피,등촌중앙점,서울특별시 강서구 등촌동 566-26,서울특별시 강서구 등촌로,126.8631083,37.5360731
878,이디야커피,강서가양동점,서울특별시 강서구 가양동 192-9,서울특별시 강서구 강서로,126.8413419,37.57093874
879,이디야커피,아현역점,서울특별시 서대문구 북아현동 1015,서울특별시 서대문구 신촌로35길,126.9559507,37.55853746
880,이디야커피,길동사거리점,서울특별시 강동구 성내동 378-2,서울특별시 강동구 천호대로,127.1369656,37.53406705
881,이디야커피김안과점,김안과점,서울특별시 영등포구 영등포동4가 156,서울특별시 영등포구 영신로,126.9015706,37.51966876
882,이디야커피,구로역광장점,서울특별시 구로구 구로동 603-9,서울특별시 구로구 경인로,126.8810681,37.50329358
883,이디야커피,이화여대점,서울특별시 서대문구 대현동 54-9,서울특별시 서대문구 이화여대길,126.9460777,37.55797219
884,이디야커피,신길성애병원점,서울특별시 영등포구 신길동 466-1,서울특별시 영등포구 여의대방로53길,126.9215363,37.5118605
885,이디야커피,합정홈플러스점,서울특별시 마포구 서교동 490,서울특별시 마포구 양화로,126.9139374,37.55149077
886,이디야커피,도봉산점,서울특별시 도봉구 도봉동 282-344,서울특별시 도봉구 도봉산길,127.0437264,37.68752571
887,이디야커피을지로역점,을지로역점,서울특별시 중구 남대문로1가 22-10,서울특별시 중구 남대문로,126.9829974,37.56717125
888,이디야커피,잠실본동점,서울특별시 송파구 잠실동 335-4,서울특별시 송파구 백제고분로,127.0858415,37.50471342
889,이디야커피,먹골역점,서울특별시 중랑구 묵동 244-141,서울특별시 중랑구 동일로157길,127.0768784,37.60973314
890,이디야커피,신촌그랑자이점,서울특별시 마포구 대흥동 16-8,서울특별시 마포구 대흥로,126.9456452,37.55573375
891,이디야커피,국회의사당역점,서울특별시 영등포구 여의도동 17-13,서울특별시 영등포구 의사당대로,126.9178245,37.52685596
892,이디야커피,고덕그라시움후문점,서울특별시 강동구 고덕동 225,서울특별시 강동구 동남로82길,127.16368,37.5603899
893,이디야커피,마곡파인스퀘어점,서울특별시 강서구 마곡동 799-11,서울특별시 강서구 마곡중앙4로,126.8292721,37.5580881
894,이디야커피,노원사거리점,서울특별시 노원구 상계동 730-5,서울특별시 노원구 동일로,127.0605347,37.65293505
895,이디야커피,목동신트리점,서울특별시 양천구 신정동 1267,서울특별시 양천구 신정로,126.8554911,37.51326633
896,이디야커피,안국역점,서울특별시 종로구 재동 106-4,서울특별시 종로구 북촌로,126.9857843,37.57702559
897,이디야커피,영등포역점,서울특별시 영등포구 영등포동 423-103,서울특별시 영등포구 경인로,126.9061154,37.51598062
898,이디야커피,면목본동점,서울특별시 중랑구 면목동 412-4,서울특별시 중랑구 면목로,127.0885297,37.58494587
899,이디야커피,IBK점,서울특별시 중구 을지로2가 50,서울특별시 중구 을지로,126.9865498,37.56648097
900,이디야커피,용산후암점,서울특별시 용산구 후암동 244-49,서울특별시 용산구 후암로,126.9776467,37.54951866
901,이디야커피,북서울꿈의숲점,서울특별시 성북구 장위동 219-44,서울특별시 성북구 돌곶이로41가길,127.0455836,37.61863875
902,이디야커피,구의자양로점,서울특별시 광진구 구의동 78-8,서울특별시 광진구 자양로,127.0892959,37.54899091
903,이디야커피,메르디앙고척점,서울특별시 구로구 고척동 343,서울특별시 구로구 중앙로8길,126.863278,37.50252002
904,이디야커피,합정동점,서울특별시 마포구 합정동 410-18,서울특별시 마포구 양화로6길,126.9190661,37.54822201
905,이디야커피,마천사거리점,서울특별시 송파구 거여동 133-77,서울특별시 송파구 마천로,127.1461335,37.49807326
906,이디야커피낙원동점,낙원동점,서울특별시 종로구 낙원동 45-3,서울특별시 종로구 삼일대로,126.9880044,37.57359365
907,이디야커피,선유도역점,서울특별시 영등포구 양평동5가 57-1,서울특별시 영등포구 양평로,126.8938987,37.53819464
908,이디야커피,중계점,서울특별시 노원구 중계동 509-1,서울특별시 노원구 동일로204가길,127.0681553,37.64074141
909,이디야커피,장안점,서울특별시 동대문구 장안동 94-27,서울특별시 동대문구 한천로46길,127.0706831,37.58149987
910,이디야커피,신상도초교점,서울특별시 동작구 상도동 222-1,서울특별시 동작구 양녕로,126.9431592,37.49772028
911,이디야커피,청구역점,서울특별시 중구 신당동 309-18,서울특별시 중구 다산로,127.013228,37.55977794
912,이디야커피,개롱역점,서울특별시 송파구 오금동 165,서울특별시 송파구 오금로,127.1365706,37.4986345
913,이디야커피,구로미성점,서울특별시 구로구 신도림동 399,서울특별시 구로구 구로중앙로,126.8765916,37.50616146
914,이디야커피,,서울특별시 노원구 공릉동 285-2,서울특별시 노원구 화랑로,127.0837308,37.61988721
915,이디야커피전문점,,서울특별시 노원구 중계동 512,서울특별시 노원구 동일로208길,127.0657188,37.64348832
916,이디야커피,청룡중앙점,서울특별시 관악구 봉천동 1562-18,서울특별시 관악구 쑥고개로,126.9452516,37.47920437
917,이디야커피,송정역점,서울특별시 강서구 공항동 53-1,서울특별시 강서구 공항대로,126.8099371,37.56115651
918,이디야커피,장안동점,서울특별시 동대문구 장안동 430-3,서울특별시 동대문구 장한로,127.0666874,37.56509633
919,이디야커피,KBS별관점,서울특별시 영등포구 여의도동 45-20,서울특별시 영등포구 국제금융로8길,126.9289127,37.5196676
920,이디야커피,방이미성점,서울특별시 송파구 방이동 225,서울특별시 송파구 양재대로,127.1224624,37.50584715
921,이디야커피,강남고속터미널점,서울특별시 서초구 반포동 19-11,서울특별시 서초구 신반포로,127.0048767,37.50343736
922,이디야커피,상봉엠코점,서울특별시 중랑구 상봉동 500,서울특별시 중랑구 망우로,127.0916054,37.59832307
923,이디야커피,신대방역점,서울특별시 관악구 신림동 517-50,서울특별시 관악구 난곡로,126.9137802,37.48664121
924,이디야커피,방화역점,서울특별시 강서구 방화동 830,서울특별시 강서구 금낭화로,126.813289,37.57818364
925,이디야커피,이태원점,서울특별시 용산구 이태원동 181-8,서울특별시 용산구 이태원로15길,126.9901721,37.53460602
926,이디야커피,난향동점,서울특별시 관악구 신림동 1735-7,서울특별시 관악구 난곡로,126.9193755,37.4608594
927,이디야커피,돈암동점,서울특별시 성북구 동선동4가 106-2,서울특별시 성북구 동소문로,127.0178859,37.59380411
928,이디야커피,오장동점,서울특별시 중구 오장동 69-29,서울특별시 중구 마른내로,127.0001131,37.56460532
929,이디야커피,용두동사거리점,서울특별시 동대문구 용두동 119-1,서울특별시 동대문구 왕산로,127.0308821,37.57747653
930,이디야커피,신촌역점,서울특별시 서대문구 창천동 30-20,서울특별시 서대문구 신촌로,126.9364442,37.5564982
931,이디야커피,역삼초교점,서울특별시 강남구 역삼동 837-13,서울특별시 강남구 강남대로66길,127.0318328,37.49172239
932,이디야커피,천호역점,서울특별시 강동구 성내동 64-13,서울특별시 강동구 천호대로,127.123727,37.53796124
933,이디야삼성,,서울특별시 강남구 대치동 943-24,서울특별시 강남구 테헤란로88길,127.0594504,37.50683997
934,이디야커피한성대역점2층,,서울특별시 성북구 동소문동1가 90,서울특별시 성북구 동소문로,127.0080797,37.58952326
935,이디야커피,건설회관점,서울특별시 강남구 논현동 71-2,서울특별시 강남구 언주로,127.0334059,37.51707293
936,이디야커피,역삼중앙점,서울특별시 강남구 역삼동 721-9,서울특별시 강남구 언주로81길,127.0428615,37.50034526
937,이디야커피마곡역점,마곡역점,서울특별시 강서구 마곡동 773-3,서울특별시 강서구 공항대로,126.8292573,37.55975486
938,이디야커피,공릉중앙점,서울특별시 노원구 공릉동 238-48,서울특별시 노원구 공릉로,127.0795116,37.62307109
939,이디야커피,목동등촌로점,서울특별시 양천구 목동 655-1,서울특별시 양천구 등촌로,126.8627253,37.54564743
940,이디야커피,상계역사거리점,서울특별시 노원구 상계동 169-461,서울특별시 노원구 한글비석로,127.0708473,37.66113505
941,이디야커피약수점,약수점,서울특별시 중구 신당동 374-10,서울특별시 중구 다산로,127.0108145,37.55569403
942,이디야커피,종로5가점,서울특별시 종로구 효제동 65-2,서울특별시 종로구 대학로,127.0018323,37.57403576
943,이디야커피,관악농협하나로마트점,서울특별시 관악구 신림동 1668,서울특별시 관악구 남부순환로,126.9028847,37.48011606
944,이디야커피,선릉역점,서울특별시 강남구 역삼동 708-4,서울특별시 강남구 테헤란로,127.0481441,37.50382998
945,이디야커피,미아송천점,서울특별시 강북구 미아동 637-397,서울특별시 강북구 삼양로,127.0223834,37.61442118
946,이디야커피,고대병원구로점,서울특별시 구로구 구로동 413-10,서울특별시 구로구 구로동로,126.8833541,37.49256575
947,이디야커피마곡엠밸리점,마곡엠밸리점,서울특별시 강서구 마곡동 768-2,서울특별시 강서구 마곡서로,126.8235753,37.56264475
948,이디야커피,하계을지점,서울특별시 노원구 하계동 179-25,서울특별시 노원구 공릉로,127.0711619,37.6358815
949,이디야커피,교육개발원사거리점,서울특별시 서초구 양재동 81-1,서울특별시 서초구 바우뫼로,127.0398079,37.4782626
950,이디야커피,가산대륭19차점,서울특별시 금천구 가산동 345-29,서울특별시 금천구 가산디지털2로,126.8823312,37.47469734
951,이디야커피,마곡대방디엠시티점,서울특별시 강서구 마곡동 776-2,서울특별시 강서구 양천로,126.8403421,37.56825286
952,이디야커피창신중앙점,창신중앙점,서울특별시 종로구 숭인동 65-10,서울특별시 종로구 지봉로,127.0158139,37.57572097
953,이디야커피한강공원로점,한강공원로점,서울특별시 마포구 망원동 419-12,서울특별시 마포구 망원로,126.8994026,37.55634792
954,이디야커피숍,,서울특별시 서초구 양재동 230,서울특별시 서초구 청계산로,127.0435124,37.46348822
955,이디야커피,COFFEE이디야커피장위중앙점,서울특별시 성북구 장위동 230-112,서울특별시 성북구 장위로,127.0407665,37.61445491
956,이디야커피등촌동점,등촌동점,서울특별시 강서구 염창동 273-9,서울특별시 강서구 공항대로61길,126.8657779,37.55180383
957,이디야커피,구산사거리점,서울특별시 은평구 구산동 200-1,서울특별시 은평구 서오릉로,126.911802,37.61347127
958,이디야커피,신풍역점,서울특별시 영등포구 신길동 3849,서울특별시 영등포구 신풍로,126.9117668,37.49993115
959,이디야커피,암사중앙점,서울특별시 강동구 암사동 479-13,서울특별시 강동구 암사길,127.1347065,37.55135979
960,이디야커피,성공회대점,서울특별시 구로구 항동 1,서울특별시 구로구 연동로,126.8243442,37.48772229
961,이디야커피신림문화교점,신림문화교점,서울특별시 관악구 신림동 808-368,서울특별시 관악구 신림로,126.9326883,37.47855091
962,이디야커피,충무필동점,서울특별시 중구 필동2가 32-19,서울특별시 중구 퇴계로,126.9962626,37.56137394
963,이디야커피,명지대점,서울특별시 서대문구 남가좌동 324-35,서울특별시 서대문구 거북골로,126.9240491,37.57945244
964,이디야커피,구로디지털점,서울특별시 구로구 구로동 1278-1,서울특별시 구로구 디지털로31길,126.8912265,37.48632357
965,이디야커피,수유1동점,서울특별시 강북구 수유동 70-4,서울특별시 강북구 삼양로,127.0177076,37.62974501
966,이디야커피,내방역점,서울특별시 서초구 방배동 898-1,서울특별시 서초구 서초대로,126.9941867,37.48756037
967,이디야커피,장한평점,서울특별시 성동구 용답동 233-6,서울특별시 성동구 천호대로,127.0662535,37.56085797
968,이디야커피,송파파인타운점,서울특별시 송파구 장지동 841-4,서울특별시 송파구 충민로2길,127.1273998,37.47714884
969,이디야커피,고덕래미안힐스점,서울특별시 강동구 고덕동 688,서울특별시 강동구 아리수로50길,127.1485197,37.55779463
970,이디야커피,,서울특별시 강남구 삼성동 159,서울특별시 강남구 영동대로,127.0591391,37.51182033
971,이디야커피,신림신원점,서울특별시 관악구 신림동 1636-35,서울특별시 관악구 신원로,126.9279198,37.48073334
972,이디야커피중곡대원점,중곡대원점,서울특별시 광진구 중곡동 28-7,서울특별시 광진구 용마산로,127.0866281,37.56358534
973,이디야커피,고척스카이돔점,서울특별시 구로구 고척동 76-160,서울특별시 구로구 경인로,126.8638602,37.49768702
974,이디야커피,마곡나루역점,서울특별시 강서구 마곡동 760,서울특별시 강서구 마곡중앙5로,126.8270032,37.56708489
975,이디야커피,까치산역점,서울특별시 강서구 화곡동 349-15,서울특별시 강서구 강서로17길,126.8451813,37.53341229
976,이디야커피숍,,서울특별시 양천구 신정동 761-21,서울특별시 양천구 신정로11길,126.8383138,37.51223363
977,이디야커피,이수중앙점,서울특별시 동작구 사당동 150-3,서울특별시 동작구 사당로,126.9791647,37.48463826
978,이디야커피,4.19사거리점,서울특별시 강북구 수유동 279-2,서울특별시 강북구 삼양로,127.0142166,37.64788073
979,이디야커피,잠실나루역점,서울특별시 송파구 신천동 11,서울특별시 송파구 올림픽로35길,127.1039541,37.51851224
980,이디야커피,,서울특별시 강서구 방화동 886,서울특별시 강서구 하늘길,126.8023643,37.56190888
981,이디야커피,목동로데오점,서울특별시 양천구 신정동 899-5,서울특별시 양천구 목동로,126.8638088,37.52793446
982,이디야커피,,서울특별시 중랑구 묵동 189-5,서울특별시 중랑구 동일로,127.077751,37.61061397
983,이디야커피,,서울특별시 강남구 대치동 995-21,서울특별시 강남구 테헤란로104길,127.0647899,37.50858536
984,이디야커피,망원역점,서울특별시 마포구 서교동 441-11,서울특별시 마포구 월드컵로,126.910211,37.55636709
985,이디야커피,구의역점,서울특별시 광진구 구의동 244-50,서울특별시 광진구 구의로,127.089267,37.53834025
986,이디야커피,국민대점,서울특별시 성북구 정릉동 847-3,서울특별시 성북구 정릉로9라길,127.0003737,37.61115524
987,이디야커피신림남부초교점,신림남부초교점,서울특별시 관악구 신림동 465-30,서울특별시 관악구 남부순환로,126.9218665,37.48339041
988,이디야커피,화곡중앙시장점,서울특별시 강서구 화곡동 362-84,서울특별시 강서구 가로공원로76길,126.8383334,37.53431824
989,이디야커피,개포역점,서울특별시 강남구 개포동 186-3,서울특별시 강남구 개포로82길,127.0674257,37.48854865
990,이디야커피,동묘역점,서울특별시 종로구 숭인동 284,서울특별시 종로구 종로,127.0167767,37.57309795
991,이디야커피,,서울특별시 중랑구 면목동 23-12,서울특별시 중랑구 겸재로,127.0940102,37.58958339
992,이디야커피신길썬프라자점,신길썬프라자점,서울특별시 영등포구 신길동 4662,서울특별시 영등포구 신길로,126.9086055,37.49645999
993,이디야커피디지털미디어시티역사점,디지털미디어시티역사점,서울특별시 은평구 증산동 223-26,서울특별시 은평구 수색로,126.9019154,37.57714921
994,이디야커피,서교동점,서울특별시 마포구 서교동 330-17,서울특별시 마포구 와우산로29길,126.926577,37.55635484
995,이디야커피,금란망우점,서울특별시 중랑구 망우동 202-9,서울특별시 중랑구 망우로,127.1031237,37.60009611
996,이디야커피,태평로점,서울특별시 중구 서소문동 120-35,서울특별시 중구 세종대로11길,126.974563,37.56230475
997,이디야커피일원동점,일원동점,서울특별시 강남구 일원동 685-13,서울특별시 강남구 양재대로27길,127.0816058,37.49039878
998,이디야커피신금호역점,신금호역점,서울특별시 성동구 금호동2가 436,서울특별시 성동구 무수막길,127.0196788,37.55378566
999,이디야커피,연대서문점,서울특별시 서대문구 연희동 28-19,서울특별시 서대문구 연희로10길,126.9336705,37.56369951
1000,이디야커피,미아삼거리점,서울특별시 강북구 미아동 862-6,서울특별시 강북구 도봉로,127.0297455,37.6127069
1001,이디야커피영등포본동점,영등포본동점,서울특별시 영등포구 영등포동 618-460,서울특별시 영등포구 영신로9나길,126.9062166,37.51370192
1002,이디야커피정릉아리랑점,정릉아리랑점,서울특별시 성북구 정릉동 1035-6,서울특별시 성북구 북악산로,127.0185842,37.60012621
1003,이디야커피한국수출입은행점,한국수출입은행점,서울특별시 영등포구 여의도동 14-33,서울특별시 영등포구 은행로,126.9207225,37.52830613
1004,이디야커피,홍대중앙점,서울특별시 마포구 서교동 354-19,서울특별시 마포구 양화로,126.920846,37.55428427
1005,이디야커피,목동파리공원점,서울특별시 양천구 목동 907-17,서울특별시 양천구 목동동로,126.878696,37.53560043
1006,이디야커피,하계온천점,서울특별시 노원구 하계동 251-4,서울특별시 노원구 노원로,127.0727391,37.64025493
1007,이디야커피광산사거리점,광산사거리점,서울특별시 강북구 수유동 188-1,서울특별시 강북구 한천로,127.0226156,37.64253541
1008,이디야커피,우이역도선사점,서울특별시 강북구 우이동 18-5,서울특별시 강북구 삼양로173길,127.0113475,37.66257055
1009,이디야커피,도산사거리점,서울특별시 강남구 논현동 98-12,서울특별시 강남구 언주로148길,127.036143,37.52061841
1010,이디야커피,청담역사점,서울특별시 강남구 청담동 77-76,서울특별시 강남구 학동로,127.0520222,37.51913405
1011,이디야커피,신길사러가점,서울특별시 영등포구 신길동 233-173,서울특별시 영등포구 신길로,126.9107869,37.50666194
1012,이디야커피,신월5동점,서울특별시 양천구 신월동 54-1,서울특별시 양천구 화곡로,126.8274295,37.53915715
1013,이디야커피,구로에이스점,서울특별시 구로구 구로동 191-7,서울특별시 구로구 디지털로33길,126.8954986,37.48569681
1014,이디야커피,한강진역사점,서울특별시 용산구 한남동 726-494,서울특별시 용산구 이태원로,127.0017279,37.54029076
1015,이디야커피,가산에이스점,서울특별시 금천구 가산동 470-5,서울특별시 금천구 가산디지털1로,126.8812697,37.4829589
1016,이디야커피,여의나루역점,서울특별시 영등포구 여의도동 21-4,서울특별시 영등포구 여의나루로,126.9307562,37.52604568
1017,이디야커피,사가정아이파크점,서울특별시 중랑구 면목동 156-5,서울특별시 중랑구 동일로92길,127.0831805,37.58350782
1018,이디야커피용두점,용두점,서울특별시 동대문구 용두동 40-1,서울특별시 동대문구 고산자로,127.0379119,37.57665101
1019,이디야커피,홍은사거리점,서울특별시 서대문구 홍은동 464,서울특별시 서대문구 통일로,126.9411456,37.59456423
1020,이디야커피신당중앙점,신당중앙점,서울특별시 중구 황학동 2480,서울특별시 중구 퇴계로,127.022309,37.56557513
1021,이디야커피,위례아이파크점,서울특별시 송파구 장지동 894,서울특별시 송파구 위례광장로,127.1422226,37.47711321
1022,이디야커피,총신대점,서울특별시 동작구 사당동 224-13,서울특별시 동작구 사당로16가길,126.9688123,37.485098
1023,이디야커피도봉산역사점,도봉산역사점,서울특별시 도봉구 도봉동 18-1,서울특별시 도봉구 도봉로,127.0461313,37.68920308
1024,이디야커피,함지박사거리점,서울특별시 서초구 방배동 773-17,서울특별시 서초구 방배로,126.9899033,37.49411954
1025,이디야커피,신도림메르디앙점,서울특별시 구로구 신도림동 387-3,서울특별시 구로구 신도림로,126.8820152,37.50955579
1026,이디야커피,,서울특별시 은평구 역촌동 43-2,서울특별시 은평구 진흥로1길,126.9186122,37.60075725
1027,이디야커피,쌍문동점,서울특별시 도봉구 쌍문동 342-3,서울특별시 도봉구 노해로,127.0272813,37.64882714
1028,이디야커피,월곡동아점,서울특별시 성북구 상월곡동 55-76,서울특별시 성북구 장월로1길,127.045674,37.60624118
1029,이디야커피,,서울특별시 강남구 신사동 628,서울특별시 강남구 도산대로37길,127.0314721,37.52227418
1030,이디야커피,금호역점,서울특별시 성동구 금호동3가 1387-9,서울특별시 성동구 장터길,127.0177912,37.54842677
1031,이디야커피,창동현대타운점,서울특별시 도봉구 창동 657-142,서울특별시 도봉구 도봉로114길,127.0356293,37.64736392
1032,이디야커피,증산동점,서울특별시 은평구 증산동 186-8,서울특별시 은평구 증산서길,126.9065343,37.58335515
1033,이디야커피,숍명동중앙2호점,서울특별시 중구 충무로2가 12-14,서울특별시 중구 명동8가길,126.9870984,37.56191739
1034,이디야커피,답십리파크자이점,서울특별시 동대문구 답십리동 12-18,서울특별시 동대문구 한천로,127.0618652,37.56690526
1035,이디야커피,용산청파점,서울특별시 용산구 청파동1가 138,서울특별시 용산구 청파로71길,126.9693975,37.54945596
1036,이디야커피,송파풍납점,서울특별시 송파구 풍납동 399-11,서울특별시 송파구 강동대로9길,127.1165223,37.52809506
1037,이디야커피,송파문정점,서울특별시 송파구 가락동 124-7,서울특별시 송파구 송이로,127.1253275,37.49294718
1038,이디야커피,,서울특별시 관악구 신림동 1514-5,서울특별시 관악구 호암로26길,126.9345969,37.470738
1039,이디야커피,석촌백제점,서울특별시 송파구 석촌동 170-9,서울특별시 송파구 백제고분로39길,127.104413,37.50566663
1040,이디야커피,북한산점,서울특별시 강북구 수유동 535-16,서울특별시 강북구 419로,127.0055893,37.64475382
1041,이디야커피,COFFEE이디야커피석관동점,서울특별시 성북구 석관동 410,서울특별시 성북구 돌곶이로8길,127.0622406,37.60647309
1042,이디야커피,,서울특별시 종로구 종로5가 182-5,서울특별시 종로구 동호로,127.0022406,37.57058822
1043,이디야커피,송파헬리오시티점,서울특별시 송파구 석촌동 254-1,서울특별시 송파구 가락로12길,127.1050598,37.49980564
1044,이디야커피,문정문현점,서울특별시 송파구 문정동 75-9,서울특별시 송파구 새말로8길,127.1266302,37.48012568
1045,이디야역삼플래티넘,,서울특별시 강남구 역삼동 826-37,서울특별시 강남구 테헤란로4길,127.0300538,37.49550124
1046,이디야커피,길동역점,서울특별시 강동구 길동 389-2,서울특별시 강동구 양재대로,127.1392473,37.53735454
1047,이디야커피,회기역중앙점,서울특별시 동대문구 휘경동 319-55,서울특별시 동대문구 회기로,127.0574786,37.58982895
1048,이디야커피,독바위역점,서울특별시 은평구 불광동 13-22,서울특별시 은평구 불광로,126.9332899,37.61814559
1049,이디야커피전농뉴타운점,전농뉴타운점,서울특별시 동대문구 전농동 652-1,서울특별시 동대문구 답십리로,127.0496042,37.57506077
1050,이디야커피,,서울특별시 서초구 서초동 1309-9,서울특별시 서초구 서초대로77길,127.0244504,37.50200577
1051,이디야커피,본서부병원점,서울특별시 은평구 응암동 88-11,서울특별시 은평구 응암로,126.9221151,37.60129387
1052,이디야커피,갈현점,서울특별시 은평구 갈현동 432-1,서울특별시 은평구 갈현로,126.9166368,37.62061586
1053,이디야커피,목동남부점,서울특별시 양천구 신정동 203-7,서울특별시 양천구 목동남로,126.8647106,37.50874198
1054,이디야커피,서울삼성내과점,서울특별시 송파구 잠실동 294-4,서울특별시 송파구 백제고분로,127.0807341,37.50616053
1055,이디야커피,장위2동점,서울특별시 성북구 장위동 66-320,서울특별시 성북구 화랑로25길,127.052442,37.60929618
1056,이디야역삼역,,서울특별시 강남구 역삼동 643-10,서울특별시 강남구 테헤란로25길,127.0352202,37.50178786
1057,이디야커피,세이브존노원점,서울특별시 노원구 하계동 284,서울특별시 노원구 공릉로,127.0680177,37.63815435
1058,이디야커피,쌈지공원점,서울특별시 금천구 독산동 179-35,서울특별시 금천구 독산로,126.903273,37.47134345
1059,이디야커피,성산중앙점,서울특별시 마포구 성산동 228-1,서울특별시 마포구 성미산로,126.9166392,37.56030072
1060,이디야커피,대치역점,서울특별시 강남구 대치동 605-2,서울특별시 강남구 남부순환로,127.0616008,37.49408008
1061,이디야커피,신촌숲아이파크점,서울특별시 마포구 신수동 462,서울특별시 마포구 광성로,126.9355032,37.55024551
1062,이디야커피,가산오거리점,서울특별시 금천구 가산동 140-5,서울특별시 금천구 가산로,126.8900819,37.47885215
1063,이디야커피,중계중앙점,서울특별시 노원구 중계동 423-40,서울특별시 노원구 덕릉로73길,127.0724103,37.65210998
1064,이디야커피,,서울특별시 마포구 성산동 515,서울특별시 마포구 월드컵로,126.8972574,37.56827565
1065,이디야커피,상암홈플러스점,서울특별시 마포구 성산동 420,서울특별시 마포구 월드컵로,126.8990103,37.56993189
1066,이디야커피,방학홈플러스점,서울특별시 도봉구 방학동 707-7,서울특별시 도봉구 도봉로,127.0435753,37.66485458
1067,이디야커피,광나루점,서울특별시 광진구 광장동 337-4,서울특별시 광진구 아차산로,127.1075149,37.5481659
1068,이디야커피,종합운동장역점,서울특별시 송파구 잠실동 175-6,서울특별시 송파구 올림픽로,127.0791635,37.51155464
1069,이디야커피,충정로역점,서울특별시 중구 중림동 200,서울특별시 중구 중림로,126.9645165,37.55869399
1070,이디야커피건대스타시티점,건대스타시티점,서울특별시 광진구 자양동 227-7,서울특별시 광진구 아차산로,127.0729442,37.53699681
1071,이디야커피,마곡헤리움점,서울특별시 강서구 마곡동 758-3,서울특별시 강서구 마곡중앙5로1길,126.8261206,37.56922958
1072,이디야커피가좌역점,가좌역점,서울특별시 서대문구 남가좌동 293-85,서울특별시 서대문구 수색로,126.9151025,37.56948619
1073,이디야커피,석계중앙점,서울특별시 성북구 석관동 133-62,서울특별시 성북구 한천로78길,127.0649494,37.61354974
1074,엠케이이디야마곡나루역점,,서울특별시 강서구 마곡동 760,서울특별시 강서구 마곡중앙5로,126.8266178,37.5671171
1075,이디야커피,을지병원사거리점,서울특별시 강남구 논현동 60-10,서울특별시 강남구 도산대로30길,127.0294167,37.51938295
1076,이디야커피,명지전문대점,서울특별시 서대문구 홍은동 347,서울특별시 서대문구 가좌로,126.9241453,37.58456219
1077,이디야커피,신논현점,서울특별시 서초구 반포동 737-16,서울특별시 서초구 강남대로79길,127.0231974,37.50529327
1078,이디야커피,응봉동점,서울특별시 성동구 응봉동 98,서울특별시 성동구 독서당로,127.0311293,37.55052828
1079,이디야커피,오금중앙점,서울특별시 송파구 오금동 10-3,서울특별시 송파구 위례성대로22길,127.1303356,37.50868065
1080,이디야커피,방학중앙점,서울특별시 도봉구 방학동 633,서울특별시 도봉구 도당로13길,127.035278,37.66576012
1081,이디야커피,염창역점,서울특별시 강서구 염창동 282-22,서울특별시 강서구 공항대로,126.8748438,37.54723222
1082,이디야커피,동덕여대점,서울특별시 성북구 하월곡동 16-13,서울특별시 성북구 화랑로,127.0426742,37.60347772
1083,이디야커피,시흥사거리점,서울특별시 금천구 시흥동 121-4,서울특별시 금천구 시흥대로63길,126.899183,37.45498738
1084,이디야커피,강남세곡점,서울특별시 강남구 세곡동 587,서울특별시 강남구 헌릉로569길,127.1007621,37.46678511
1085,이디야커피,신사점,서울특별시 강남구 논현동 3-1,서울특별시 강남구 도산대로,127.0218065,37.51654492
1086,이디야커피,망원중앙점,서울특별시 마포구 망원동 477-3,서울특별시 마포구 월드컵로,126.9054607,37.56078328
1087,이디야커피,시흥유통센터점,서울특별시 금천구 시흥동 954-14,서울특별시 금천구 시흥대로,126.9038954,37.44187581
1088,이디야커피,문정중앙점,서울특별시 송파구 문정동 37-8,서울특별시 송파구 문정로,127.1263192,37.48643984
1089,이디야커피,천호점,서울특별시 강동구 천호동 397-74,서울특별시 강동구 구천면로,127.1308579,37.54167222
1090,이디야커피선정릉역점,선정릉역점,서울특별시 강남구 역삼동 682,서울특별시 강남구 봉은사로,127.0426523,37.50964246
1091,이디야커피신금호역점,신금호역점,서울특별시 성동구 금호동2가 438,서울특별시 성동구 금호산길,127.0195983,37.55388411
1092,이디야커피,도림점,서울특별시 영등포구 도림동 226-1,서울특별시 영등포구 도신로15길,126.8965524,37.50860223
1093,이디야커피,이문점,서울특별시 동대문구 이문동 238-18,서울특별시 동대문구 신이문로,127.0642304,37.60313701
1094,이디야커피,보라매중앙점,서울특별시 관악구 봉천동 1698-1,서울특별시 관악구 보라매로,126.9277955,37.49338294
1095,이디야커피,서울고교점,서울특별시 서초구 서초동 1489-4,서울특별시 서초구 효령로40길,127.0057618,37.48273859
1096,이디야커피,목4동점,서울특별시 양천구 목동 718-11,서울특별시 양천구 목동중앙본로7길,126.8661118,37.53947186
1097,이디야커피봉천중앙점,봉천중앙점,서울특별시 관악구 봉천동 1663-5,서울특별시 관악구 남부순환로,126.9577367,37.4789998
1098,이디야커피,봉천역점,서울특별시 관악구 봉천동 883-1,서울특별시 관악구 남부순환로216길,126.9489751,37.48136403
1099,을지사거리이디야커피숍,,서울특별시 강남구 논현동 60-10,서울특별시 강남구 도산대로30길,127.0294167,37.51938295
1100,마스터키이디야마곡나루역점,,서울특별시 강서구 마곡동 760,서울특별시 강서구 마곡중앙5로,126.8266178,37.5671171
1101,이디야커피,가재울중앙점,서울특별시 서대문구 남가좌동 385,서울특별시 서대문구 가재울미래로,126.9177798,37.57456558
1102,이디야커피봉천역점,봉천역점,서울특별시 관악구 봉천동 931-4,서울특별시 관악구 남부순환로,126.9418786,37.4826793
1103,이디야커피,암사3동점,서울특별시 강동구 암사동 413,서울특별시 강동구 고덕로,127.1408871,37.5541982
1104,이디야마들역,,서울특별시 노원구 상계동 652,서울특별시 노원구 동일로227길,127.0562209,37.66693871
1105,이디야커피,문정엠스테이트점,서울특별시 송파구 문정동 643-1,서울특별시 송파구 법원로,127.1209979,37.48604895
1106,이디야커피,김포공항역점,서울특별시 강서구 방화동 886,서울특별시 강서구 하늘길,126.8029375,37.57135746
1107,이디야커피,양천구청점,서울특별시 양천구 신정동 323-16,서울특별시 양천구 목동동로,126.8622923,37.51530531
1108,이디야커피,롯데마트구로점,서울특별시 구로구 구로동 636-89,서울특별시 구로구 경인로,126.8727176,37.49827647
1109,이디야커피,가락중앙점,서울특별시 송파구 가락동 48,서울특별시 송파구 송이로,127.120775,37.49831976
1110,이디야커피,목3동점,서울특별시 양천구 목동 602-2,서울특별시 양천구 공항대로,126.8680623,37.54892442
1111,이디야커피,,서울특별시 용산구 이촌동 301-53,서울특별시 용산구 이촌로77길,126.9748763,37.5204269
1112,이디야커피,성수2가점,서울특별시 성동구 성수동2가 561-1,서울특별시 성동구 성덕정길,127.0550869,37.53715262
1113,이디야커피,월계인덕점,서울특별시 노원구 월계동 290-1,서울특별시 노원구 광운로22길,127.0587975,37.62984568
1114,이디야커피,,서울특별시 강서구 방화동 580-130,서울특별시 강서구 방화동로,126.8125955,37.56909431
1115,이디야커피,삼각지점,서울특별시 용산구 한강로2가 109-1,서울특별시 용산구 한강대로,126.9704375,37.53143513
1116,이디야커피,성산점,서울특별시 마포구 성산동 56-1,서울특별시 마포구 월드컵북로,126.91165,37.56481408
1117,이디야커피,,서울특별시 금천구 시흥동 3-10,서울특별시 금천구 독산로50길,126.9124224,37.4617327
1118,이디야커피,선릉사거리점,서울특별시 강남구 역삼동 696-40,서울특별시 강남구 선릉로,127.0479938,37.50586515
1119,이디야커피텐즈힐점,텐즈힐점,서울특별시 성동구 하왕십리동 1066,서울특별시 성동구 무학로,127.0264842,37.56917777
1120,이디야커피,당곡사거리점,서울특별시 관악구 봉천동 970-22,서울특별시 관악구 봉천로,126.9290189,37.48927625
1121,이디야커피,은평뉴타운점,서울특별시 은평구 진관동 20,서울특별시 은평구 진관3로,126.9229605,37.64239753
1122,이디야커피,,서울특별시 성북구 정릉동 847-3,서울특별시 성북구 정릉로9라길,127.0003737,37.61115524
1123,이디야커피,동자동점,서울특별시 용산구 동자동 11,서울특별시 용산구 후암로,126.9751046,37.55334408
1124,이디야커피,굽은다리역점,서울특별시 강동구 천호동 45-7,서울특별시 강동구 양재대로,127.1418473,37.54350064
1125,이디야커피논골사거리점,논골사거리점,서울특별시 성동구 금호동1가 172,서울특별시 성동구 난계로,127.0244663,37.55551928
1126,이디야커피,북창동점,서울특별시 중구 태평로2가 58,서울특별시 중구 남대문로1길,126.9774543,37.5636003
1127,이디야커피,문정테라타워점,서울특별시 송파구 문정동 651,서울특별시 송파구 송파대로,127.1207441,37.4845513
1128,이디야커피,가든파이브영관점,서울특별시 송파구 문정동 634,서울특별시 송파구 충민로,127.124941,37.47760822
1129,이디야커피연구소,,서울특별시 강서구 가양동 449-4,서울특별시 강서구 양천로,126.8609249,37.55910054
1130,이디야커피,선릉점,서울특별시 강남구 대치동 889-68,서울특별시 강남구 선릉로86길,127.0508173,37.5035181
1131,이디야커피점,,서울특별시 성동구 금호동2가 438,서울특별시 성동구 금호산길,127.0195983,37.55388411
1132,이디야커피신도림테크노마트,,서울특별시 구로구 구로동 3-25,서울특별시 구로구 새말로,126.8902076,37.50703804
1133,이디야커피,노원중앙점,서울특별시 노원구 상계동 372-5,서울특별시 노원구 노원로,127.0668982,37.65699516
1134,이디야커피,현대시장점,서울특별시 관악구 봉천동 501-3,서울특별시 관악구 은천로,126.9465996,37.48708257
1135,이디야커피,,서울특별시 영등포구 영등포동4가 66,서울특별시 영등포구 영중로,126.9046957,37.51947252
1136,이디야커피,은행사거리점,서울특별시 노원구 중계동 364-24,서울특별시 노원구 중계로,127.0777684,37.65045804
1137,이디야커피,포이사거리점,서울특별시 강남구 개포동 1238-8,서울특별시 강남구 개포로,127.0466001,37.4784888
1138,이디야커피,화곡남부시장점,서울특별시 강서구 화곡동 830-1,서울특별시 강서구 등촌로5길,126.8589338,37.53305941
1139,이디야커피,,서울특별시 강서구 가양동 1500,서울특별시 강서구 양천로55길,126.8481011,37.56646369
1140,이디야커피개봉북부점,개봉북부점,서울특별시 구로구 개봉동 178-13,서울특별시 구로구 경인로40길,126.8590989,37.49620848
1141,이디야커피,염창동점,서울특별시 강서구 염창동 264-37,서울특별시 강서구 양천로,126.8719405,37.55065549
1142,이디야커피마포KCC점,마포KCC점,서울특별시 마포구 신공덕동 171,서울특별시 마포구 백범로,126.9524467,37.5428373
1143,이디야커피,공항시장역점,서울특별시 강서구 방화동 614-34,서울특별시 강서구 방화동로,126.8106702,37.56417333
1144,이디야커피,마포공덕역점,서울특별시 마포구 도화동 181-37,서울특별시 마포구 새창로,126.9504891,37.542027
1145,이디야커피신림중앙점,신림중앙점,서울특별시 관악구 신림동 1433-141,서울특별시 관악구 관천로,126.9266133,37.48432567
1146,이디야커피,몽촌토성점,서울특별시 송파구 방이동 51-11,서울특별시 송파구 백제고분로,127.1151626,37.51581248
1147,이디야커피,이마트구로점,서울특별시 구로구 구로동 188-26,서울특별시 구로구 디지털로32길,126.8978698,37.48438541
1148,이디야커피,역삼상록점,서울특별시 강남구 역삼동 703-1,서울특별시 강남구 테헤란로43길,127.0440422,37.50442759
1149,이디야커피,,서울특별시 서초구 반포동 978,서울특별시 서초구 신반포로,126.990128,37.50178041
1150,이디야커피,보라매공원점,서울특별시 동작구 신대방동 498-2,서울특별시 동작구 여의대방로,126.9166412,37.49680427
1151,이디야커피,답십리역점,서울특별시 동대문구 답십리동 496-1,서울특별시 동대문구 천호대로,127.0513542,37.56829898
1152,이디야커피,동부병원사거리점,서울특별시 동대문구 용두동 127-16,서울특별시 동대문구 무학로,127.030877,37.57350288
1153,이디야카페,,서울특별시 성북구 정릉동 1035,서울특별시 성북구 북악산로,127.0185842,37.60012621
1154,부일이디야커피,,서울특별시 송파구 신천동 11-4,서울특별시 송파구 올림픽로35가길,127.1034466,37.51743613
1155,이디야커피,장안사거리점,서울특별시 동대문구 장안동 331-4,서울특별시 동대문구 답십리로,127.0747134,37.5723769
1156,이디야커피,신월신곡시장점,서울특별시 양천구 신월동 575-2,서울특별시 양천구 신월로,126.8426427,37.51830407
1157,이디야커피,이마트은평점,서울특별시 은평구 응암동 90-1,서울특별시 은평구 은평로,126.9204912,37.60081951
1158,이디야커피,북창동점,서울특별시 중구 태평로2가 58,서울특별시 중구 남대문로1길,126.9774212,37.56353694
1159,이디야커피,합정역점,서울특별시 마포구 서교동 384-12,서울특별시 마포구 양화로11길,126.9138126,37.55229155
1160,이디야커피,강동역점,서울특별시 강동구 천호동 450,서울특별시 강동구 천호대로,127.1302679,37.53692832
1161,이디야커피,양재점,서울특별시 서초구 서초동 1365-22,서울특별시 서초구 남부순환로,127.0305599,37.4843413
1162,이디야커피,불광중앙점,서울특별시 은평구 불광동 276-32,서울특별시 은평구 불광로,126.9317193,37.61232874
1163,이디야커피,건대스타시티2호점,서울특별시 광진구 자양동 227-342,서울특별시 광진구 능동로,127.070902,37.53835036
1164,이디야커피,마곡퀸즈파크9점,서울특별시 강서구 마곡동 797-7,서울특별시 강서구 마곡중앙6로,126.8351177,37.55919112
1165,이디야커피,가산SKV1점,서울특별시 금천구 가산동 371-41,서울특별시 금천구 가산디지털1로,126.8803985,37.48148195
1166,이디야커피경희대점,경희대점,서울특별시 동대문구 회기동 16-55,서울특별시 동대문구 경희대로,127.0525041,37.59189756
1167,이디야커피,백련산아이파크점,서울특별시 은평구 응암동 427-38,서울특별시 은평구 응암로,126.9188613,37.59528126
1168,이디야커피,서일중앙점,서울특별시 중랑구 면목동 51-3,서울특별시 중랑구 용마산로,127.095529,37.58664862
1169,이디야커피,신정서부점,서울특별시 양천구 신정동 761-21,서울특별시 양천구 신정로11길,126.8384044,37.51222551
1170,이디야커피,강남자곡점,서울특별시 강남구 자곡동 651,서울특별시 강남구 자곡로,127.1033474,37.47370691
1171,이디야커피,성균관대점,서울특별시 종로구 명륜2가 209-2,서울특별시 종로구 성균관로,126.9983187,37.58364714
1172,이디야사러가,,서울특별시 영등포구 신길동 233-173,서울특별시 영등포구 신길로,126.9107869,37.50666194
1173,이디야커피,강남역지하상가점,서울특별시 강남구 역삼동 825,서울특별시 강남구 강남대로,127.0285648,37.49783175
1174,이디야커피,역삼점,서울특별시 강남구 역삼동 769-8,서울특별시 강남구 논현로72길,127.0405329,37.4958301
1175,이디야커피,YTN점,서울특별시 중구 봉래동1가 132-2,서울특별시 중구 세종대로1길,126.9725368,37.5581964
1176,이디야커피,석계역사점,서울특별시 노원구 월계동 25-2,서울특별시 노원구 화랑로,127.0660975,37.61503654
1177,이디야커피,봉일시장점,서울특별시 관악구 봉천동 955-57,서울특별시 관악구 은천로,126.9379137,37.4864011
1178,이디야커피,,서울특별시 은평구 불광동 8-7,서울특별시 은평구 불광로,126.9332823,37.61629841
1179,이디야커피,우면동점,서울특별시 서초구 우면동 2-8,서울특별시 서초구 바우뫼로,127.0252738,37.46998
1180,이디야커피,,서울특별시 동대문구 청량리동 235-1,서울특별시 동대문구 약령시로,127.0458022,37.58378825
1181,이디야커피,신림미성점,서울특별시 관악구 신림동 587-22,서울특별시 관악구 난우길,126.9170477,37.47648034
1182,이디야커피,만리동고개점,서울특별시 중구 만리동2가 37-2,서울특별시 중구 만리재로,126.9645939,37.5547391
1183,이디야커피,마장역점,서울특별시 성동구 마장동 773-5,서울특별시 성동구 마장로,127.0421587,37.56593607
1184,이디야커피,삼성동점,서울특별시 강남구 대치동 943-24,서울특별시 강남구 테헤란로88길,127.0594504,37.50683997
1185,이디야커피,오목교대학학원점,서울특별시 양천구 목동 406-35,서울특별시 양천구 오목로,126.87305,37.5250676
1186,이디야신사역,,서울특별시 강남구 신사동 512-10,서울특별시 강남구 압구정로2길,127.0214285,37.51776722
1187,이디야커피,목동신목점,서울특별시 양천구 목동 758-1,서울특별시 양천구 목동중앙로,126.8714222,37.53699082
1188,이디야커피,에이스가산포휴점,서울특별시 금천구 가산동 517-4,서울특별시 금천구 가산디지털1로,126.8788638,37.48506257
1189,이디야커피,장안중앙점,서울특별시 동대문구 장안동 93-99,서울특별시 동대문구 사가정로25길,127.0709537,37.58067304
1190,이디야커피,신림미성점,서울특별시 관악구 신림동 587-122,서울특별시 관악구 난곡로,126.9159729,37.47653356
1191,이디야커피,서여의도점,서울특별시 영등포구 여의도동 14-21,서울특별시 영등포구 국회대로,126.9192525,37.52982446
1192,이디야커피,연신내중앙점,서울특별시 은평구 대조동 186-39,서울특별시 은평구 통일로,126.9226806,37.61704906
1193,이디야커피,발산역점,서울특별시 강서구 내발산동 645-1,서울특별시 강서구 공항대로,126.8384183,37.55801626
1194,이디야커피,종로4가점,서울특별시 종로구 인의동 19,서울특별시 종로구 김상옥로,126.9978773,37.57349767
1195,이디야커피,중곡중앙점,서울특별시 광진구 중곡동 161-23,서울특별시 광진구 능동로,127.08072,37.55893513
1196,이디야커피,,서울특별시 동대문구 장안동 105-7,서울특별시 동대문구 답십리로63길,127.0693165,37.57849763
1197,이디야커피,양천향교역점,서울특별시 강서구 등촌동 684-3,서울특별시 강서구 강서로,126.8413864,37.56660522
1198,이디야커피,면목역점,서울특별시 중랑구 면목동 126-8,서울특별시 중랑구 면목로,127.0871299,37.58924205
1199,이디야커피,불광연서로점,서울특별시 은평구 불광동 357-14,서울특별시 은평구 연서로,126.9248335,37.62093411
1200,이디야커피,중랑역점,서울특별시 중랑구 상봉동 130-99,서울특별시 중랑구 망우로,127.0748505,37.59331828
1201,이디야커피,난곡사거리점,서울특별시 관악구 신림동 1484-6,서울특별시 관악구 남부순환로,126.9112399,37.48091419
1202,이디야커피,노원KT점,서울특별시 노원구 상계동 724-3,서울특별시 노원구 노해로,127.0630874,37.65451414
1203,이디야커피,송파하비오점,서울특별시 송파구 문정동 618,서울특별시 송파구 송파대로,127.1248723,37.47961708
1204,이디야커피,화곡중앙점,서울특별시 강서구 화곡동 24-154,서울특별시 강서구 까치산로,126.8474012,37.54576014
1205,이디야커피,동양미래대학점,서울특별시 구로구 고척동 52-201,서울특별시 구로구 경인로47길,126.8670335,37.50023141
1206,이디야커피,여의도역점,서울특별시 영등포구 여의도동 37,서울특별시 영등포구 의사당대로,126.9239727,37.52100129
1207,이디야커피,답십리사거리점,서울특별시 동대문구 답십리동 245-2,서울특별시 동대문구 답십리로,127.0571298,37.57259819
1208,이디야커피,방학사거리점,서울특별시 도봉구 방학동 703-17,서울특별시 도봉구 도봉로,127.0422936,37.66492527
1209,이디야커피,구파발역점,서울특별시 은평구 진관동 72,서울특별시 은평구 진관2로,126.9193872,37.63563419
1210,이디야커피,,서울특별시 관악구 신림동 1451-2,서울특별시 관악구 봉천로6길,126.9254099,37.48861274
1211,이디야커피,가산그레이트점,서울특별시 금천구 가산동 60-5,서울특별시 금천구 디지털로9길,126.8872665,37.4796276
1212,이디야커피,상도역점,서울특별시 동작구 상도1동 753,서울특별시 동작구 상도로,126.948324,37.50280324
1213,이디야에스프레소,,서울특별시 노원구 상계동 671,서울특별시 노원구 노원로,127.0602369,37.66127625
1214,이디야을지로3가,,서울특별시 중구 저동2가 78,서울특별시 중구 수표로,126.9895764,37.56532655
1215,이디야커피,,서울특별시 광진구 구의동 234-14,서울특별시 광진구 광나루로,127.0856475,37.54470975
1216,이디야커피,중계본점,서울특별시 노원구 중계동 90-40,서울특별시 노원구 중계로14바길,127.0831817,37.64983347
1217,이디야커피자양동점,자양동점,서울특별시 광진구 자양동 681-15,서울특별시 광진구 자양로,127.0859363,37.53217834
1218,이디야커피,상계역점,서울특별시 노원구 중계동 152-5,서울특별시 노원구 덕릉로,127.0756351,37.65983013
1219,이디야커피가든파이브,,서울특별시 송파구 문정동 634,서울특별시 송파구 충민로,127.124941,37.47760822
1220,이디야커피,북가좌동점,서울특별시 서대문구 북가좌동 329-35,서울특별시 서대문구 증가로,126.9115148,37.58343723
1221,이디야커피,광진구청점,서울특별시 광진구 구의동 251-54,서울특별시 광진구 자양로,127.083388,37.5397815
1222,이디야커피,방화동로점,서울특별시 강서구 방화동 580-130,서울특별시 강서구 방화동로,126.812529,37.56900354
1223,이디야커피,대흥역점,서울특별시 마포구 대흥동 263-1,서울특별시 마포구 백범로,126.9423663,37.54749593
1224,이디야커피천호현대점,천호현대점,서울특별시 강동구 천호동 432-2,서울특별시 강동구 올림픽로,127.1238621,37.5409177
1225,이디야커피,,서울특별시 종로구 필운동 31-4,서울특별시 종로구 필운대로1길,126.9671171,37.57773773
1226,이디야커피,장승배기역점,서울특별시 동작구 상도동 370-12,서울특별시 동작구 상도로,126.9401911,37.50528051
1227,이디야커피,,서울특별시 중랑구 면목동 89-34,서울특별시 중랑구 상봉로,127.0930378,37.59319813
1228,이디야커피,멀티캠퍼스점,서울특별시 강남구 역삼동 718-5,서울특별시 강남구 테헤란로,127.0395812,37.50126475
1229,이디야커피,동소문동점,서울특별시 성북구 동소문동4가 248,서울특별시 성북구 동소문로13길,127.0125483,37.59239901
1230,이디야커피,동국대후문점,서울특별시 중구 충무로5가 19-7,서울특별시 중구 창경궁로,126.9986466,37.56253851
1231,이디야커피,독립문역점,서울특별시 종로구 무악동 63-9,서울특별시 종로구 통일로,126.9567729,37.57587172
1232,이디야커피,왕십리비트플렉스점,서울특별시 성동구 행당동 168-151,서울특별시 성동구 왕십리광장로,127.0383792,37.56143616
1233,이디야커피,고척사거리점,서울특별시 구로구 고척동 195-13,서울특별시 구로구 고척로,126.8582294,37.50577815
1234,이디야커피,송파위례점,서울특별시 송파구 장지동 881,서울특별시 송파구 위례광장로,127.1424261,37.48107036
1235,이디야커피,,서울특별시 성북구 정릉동 966-134,서울특별시 성북구 보국문로,127.0095373,37.61025939
1236,이디야커피,미아꿈의숲해링턴점,서울특별시 강북구 미아동 1369,서울특별시 강북구 오현로,127.0344718,37.61684539
1237,이디야커피,박미삼거리점,서울특별시 금천구 시흥동 936-6,서울특별시 금천구 시흥대로,126.9036534,37.44761328
1238,이디야마들역,,서울특별시 노원구 상계동 651,서울특별시 노원구 동일로,127.0570306,37.66565671
1239,이디야커피,동교중앙점,서울특별시 마포구 동교동 198-11,서울특별시 마포구 동교로27길,126.9230222,37.55877329
1240,이디야커피,대림역점,서울특별시 영등포구 대림동 1052-45,서울특별시 영등포구 도림로31길,126.895907,37.49252155
1241,이디야커피,학동역점,서울특별시 강남구 논현동 89-22,서울특별시 강남구 학동로,127.0331047,37.51498903
1242,이디야커피,개화산역점,서울특별시 강서구 방화동 849,서울특별시 강서구 양천로,126.8068967,37.57224451
1243,이디야커피,올림픽프라자점,서울특별시 송파구 방이동 89-11,서울특별시 송파구 양재대로,127.1310458,37.51572315
1244,이디야커피,구로고척공원점,서울특별시 구로구 고척동 260-34,서울특별시 구로구 고척로,126.8501269,37.50311356
1245,이디야커피,암사3동점,서울특별시 강동구 암사동 413-3,서울특별시 강동구 고덕로,127.1407258,37.55444932
1246,이디야커피,응암역점,서울특별시 은평구 역촌동 85-12,서울특별시 은평구 연서로,126.9155189,37.60008914
1247,이디야커피,삼각지역점,서울특별시 용산구 한강로1가 50-1,서울특별시 용산구 한강대로,126.9726305,37.53652711
1248,이디야커피,신림역점,서울특별시 관악구 신림동 1641-19,서울특별시 관악구 신림로,126.9301379,37.4821771
1249,이디야커피,,서울특별시 강남구 논현동 246-3,서울특별시 강남구 언주로130길,127.0370636,37.51500335
1250,이디야커피,서울공진초교점,서울특별시 강서구 마곡동 798-12,서울특별시 강서구 마곡중앙1로,126.8238423,37.5586198
1251,이디야커피,강남센트럴시티점,서울특별시 서초구 반포동 19-3,서울특별시 서초구 신반포로,127.0023932,37.50393001
1252,이디야커피,위례포레샤인점,서울특별시 송파구 장지동 905,서울특별시 송파구 위례순환로,127.1365491,37.47495438
1253,이디야충무로3가,,서울특별시 중구 충무로3가 58-21,서울특별시 중구 퇴계로27길,126.9912325,37.56255649
1254,이디야커피,역삼역점,서울특별시 강남구 역삼동 643-10,서울특별시 강남구 테헤란로25길,127.0352202,37.50178786
1255,이디야커피,,서울특별시 광진구 군자동 27-2,서울특별시 광진구 능동로,127.077131,37.55350984
1256,이디야커피망우점,망우점,서울특별시 성북구 정릉동 508-29,서울특별시 성북구 북악산로1길,127.0048431,37.59958766
1257,이디야커피,신촌로터리점,서울특별시 마포구 노고산동 57-38,서울특별시 마포구 서강로,126.9354087,37.55450658
1258,이디야커피,한양대점,서울특별시 성동구 행당동 14-1,서울특별시 성동구 사근동길,127.0415675,37.55995734
1259,이디야커피,역촌사거리점,서울특별시 은평구 대조동 89-280,서울특별시 은평구 서오릉로,126.9208838,37.60892337
1260,이디야커피,우장산역점,서울특별시 강서구 화곡동 1006-1,서울특별시 강서구 강서로45길,126.8358036,37.54784488
1261,이디야커피,신림신화교점,서울특별시 관악구 신림동 408-40,서울특별시 관악구 신림로,126.9361797,37.47551883
1262,이디야커피,양원남부점,서울특별시 중랑구 망우동 233-28,서울특별시 중랑구 양원역로,127.1074028,37.60308398
1263,이디야커피,,서울특별시 서초구 우면동 764,서울특별시 서초구 양재대로2길,127.0162374,37.45645229
1264,이디야커피,압구정점,서울특별시 강남구 신사동 576-10,서울특별시 강남구 논현로167길,127.0268805,37.5247774
1265,이디야커피,보라매점,서울특별시 동작구 신대방동 395-69,서울특별시 동작구 보라매로5가길,126.924082,37.49132182
1266,이디야커피,가산월드점,서울특별시 금천구 가산동 426-5,서울특별시 금천구 가산디지털2로,126.8786985,37.47871763
1267,이디야커피,뚝섬유원지역점,서울특별시 광진구 자양동 65-1,서울특별시 광진구 능동로,127.0672278,37.53354582
1268,이디야당산,,서울특별시 영등포구 당산동5가 11-33,서울특별시 영등포구 당산로,126.9021984,37.53318121
1269,이디야커피,,서울특별시 동작구 사당동 135-8,서울특별시 동작구 동작대로,126.9818544,37.48723848
1270,이디야커피,창신점,서울특별시 종로구 창신동 366,서울특별시 종로구 종로,127.012908,37.57202045
1271,이디야커피,용문점,서울특별시 용산구 원효로2가 88-8,서울특별시 용산구 원효로41길,126.9611213,37.53584074
1272,이디야커피애오개역점,애오개역점,서울특별시 마포구 아현동 733,서울특별시 마포구 마포대로,126.956827,37.55250823
1273,이디야노원사거리,,서울특별시 강북구 우이동 175,서울특별시 강북구 삼양로171길,127.0120224,37.66209866
1274,이디야에스프레소,,서울특별시 중구 서소문동 120-35,서울특별시 중구 세종대로11길,126.974563,37.56230475
1275,이디야커피,성동구청점,서울특별시 성동구 도선동 14,서울특별시 성동구 고산자로,127.0357582,37.56368542
1276,이디야커피,곰달래점,서울특별시 강서구 화곡동 938-18,서울특별시 강서구 곰달래로,126.8385708,37.52995055
1277,이디야커피,구로하이엔드점,서울특별시 구로구 구로동 235-2,서울특별시 구로구 디지털로26길,126.8934671,37.48160507
1278,이디야커피,응암오거리점,서울특별시 은평구 응암동 577-78,서울특별시 은평구 응암로,126.9171131,37.59089522
1279,이디야커피,가산하이엔드10차점,서울특별시 금천구 가산동 660,서울특별시 금천구 가산디지털1로,126.8874837,37.46879004
1280,이디야커피,이마트용산역,서울특별시 용산구 한강로3가 40-999,서울특별시 용산구 한강대로21나길,126.9632226,37.52790298
1281,이디야잠실,,서울특별시 송파구 잠실동 27,서울특별시 송파구 송파대로,127.0930348,37.51313068
1282,이디야커피,신창점,서울특별시 도봉구 창동 578-146,서울특별시 도봉구 덕릉로,127.0380951,37.63893235
1283,이디야커피,대청역점,서울특별시 강남구 개포동 14-1,서울특별시 강남구 개포로109길,127.0776351,37.49419735
1284,이디야커피,전농사거리점,서울특별시 동대문구 전농동 39-18,서울특별시 동대문구 사가정로,127.0595009,37.57759087
1285,투썸플레이스,서울타워점,서울특별시 용산구 용산동2가 1-3,서울특별시 용산구 남산공원길,126.9878557,37.55111136
1286,투썸플레이스서울대역중앙점,서울대역중앙점,서울특별시 관악구 봉천동 861-7,서울특별시 관악구 봉천로,126.9521903,37.48187916
1287,투썸플레이스,씨제이프레시웨이강남세브란스병원점,서울특별시 강남구 도곡동 146-92,서울특별시 강남구 언주로,127.0462939,37.49279514
1288,투썸플레이스,LG광화문빌딩점,서울특별시 종로구 신문로2가 92,서울특별시 종로구 새문안로,126.9715584,37.56926168
1289,투썸플레이스,가락시장역점,서울특별시 송파구 가락동 79-2,서울특별시 송파구 중대로,127.1208258,37.49398603
1290,투썸플레이스,CGV수유,서울특별시 강북구 수유동 168-12,서울특별시 강북구 도봉로,127.02979,37.6423964
1291,투썸플레이스,영등포시장사거리점,서울특별시 영등포구 영등포동6가 77-1,서울특별시 영등포구 영등포로,126.9030628,37.52051159
1292,투썸커피,청담CGV점,서울특별시 강남구 신사동 651-15,서울특별시 강남구 도산대로49길,127.0369492,37.5230308
1293,투썸플레이스,금호아시아나사옥점,서울특별시 종로구 신문로1가 115,서울특별시 종로구 새문안로,126.9731586,37.56978921
1294,투썸플레이스,논현역점,서울특별시 강남구 논현동 19-2,서울특별시 강남구 강남대로,127.0208299,37.51336513
1295,투썸플레이스신촌점,신촌점,서울특별시 서대문구 창천동 30-8,서울특별시 서대문구 연세로,126.9366468,37.55577919
1296,투썸플레이스,제일제당사옥점,서울특별시 중구 쌍림동 292,서울특별시 중구 동호로,127.0032345,37.56396494
1297,투썸플레이스,신세계DF명동점,서울특별시 중구 충무로1가 52-5,서울특별시 중구 소공로,126.9809659,37.56090951
1298,투썸플레이스옥수리버젠점,옥수리버젠점,서울특별시 성동구 옥수동 561,서울특별시 성동구 매봉길,127.0151752,37.54426016
1299,투썸강서,송정역점,서울특별시 강서구 공항동 53-9,서울특별시 강서구 공항대로,126.8102735,37.56064631
1300,투썸플레이스양재역점,양재역점,서울특별시 서초구 양재동 24,서울특별시 서초구 강남대로,127.0349336,37.48275521
1301,투썸플레이스,강남일원점,서울특별시 강남구 일원동 615-1,서울특별시 강남구 개포로110길,127.0796692,37.49155509
1302,투썸플레이스,중랑역점,서울특별시 중랑구 상봉동 130-166,서울특별시 중랑구 망우로,127.07546,37.59347623
1303,투썸플레이스파인애비뉴점,파인애비뉴점,서울특별시 중구 을지로2가 203,서울특별시 중구 을지로,126.9881233,37.56563848
1304,상티비투썸플레이스가산대,,서울특별시 금천구 가산동 543-1,서울특별시 금천구 서부샛길,126.8769955,37.4799449
1305,투썸플레이스,방배역점,서울특별시 서초구 방배동 910-14,서울특별시 서초구 방배로,126.996274,37.48283857
1306,투썸플레이스쌍문중앙점,쌍문중앙점,서울특별시 도봉구 창동 659-4,서울특별시 도봉구 도봉로,127.0349919,37.64845797
1307,투썸플레이스서대문KT&G타,,서울특별시 서대문구 미근동 21-1,서울특별시 서대문구 충정로,126.9661435,37.56381715
1308,투썸플레이스동서울터미널,동서울터미널,서울특별시 광진구 구의동 546-1,서울특별시 광진구 강변역로,127.0941674,37.53453044
1309,투썸플레이스콜드스톤크리머리,,서울특별시 서초구 반포동 18-3,서울특별시 서초구 반포대로,127.0010418,37.50434209
1310,투썸플레이스상도해링턴플레이스,,서울특별시 동작구 상도동 536,서울특별시 동작구 상도로,126.9419637,37.50550364
1311,투썸플레이스,동양미래대점,서울특별시 구로구 고척동 52-217,서울특별시 구로구 경인로47길,126.866276,37.500963
1312,투썸플레이스우장산역점,우장산역점,서울특별시 강서구 내발산동 723-2,서울특별시 강서구 강서로,126.8359801,37.54886478
1313,투썸플레이스광화문점,광화문점,서울특별시 종로구 신문로1가 33,서울특별시 종로구 새문안로,126.9741012,37.57039209
1314,투썸플레이스,양재시민의숲역점,서울특별시 서초구 양재동 315-6,서울특별시 서초구 강남대로16길,127.0391999,37.47099511
1315,투썸플레이스남산트라팰리스점,남산트라팰리스점,서울특별시 중구 남대문로5가 827,서울특별시 중구 소월로2길,126.9757773,37.55380945
1316,투썸플레이스,압구정역점,서울특별시 강남구 신사동 579-1,서울특별시 강남구 압구정로,127.0269639,37.52619274
1317,투썸커피세종로점,세종로점,서울특별시 종로구 신문로1가 135-2,서울특별시 종로구 새문안로,126.9754206,37.56993501
1318,투썸플레이스,용마산역점,서울특별시 중랑구 면목동 372-19,서울특별시 중랑구 면목로,127.0853304,37.57528893
1319,투썸플레이스,명동CGV스윗바점,서울특별시 중구 명동2가 83-5,서울특별시 중구 명동길,126.9828675,37.56340378
1320,투썸플레이스,강남CGV스윗바점,서울특별시 강남구 역삼동 814-6,서울특별시 강남구 강남대로,127.0263214,37.50163375
1321,투썸플레이스,강동길동점,서울특별시 강동구 길동 252-4,서울특별시 강동구 천호대로,127.145062,37.53549555
1322,투썸플레이스,신촌CGV스윗바점,서울특별시 서대문구 창천동 20-25,서울특별시 서대문구 신촌로,126.9403142,37.55655102
1323,투썸플레이스올리브영본점,올리브영본점,서울특별시 중구 명동1가 8-1,서울특별시 중구 명동길,126.9851561,37.56408123
1324,투썸플레이스송파CGV점,송파CGV점,서울특별시 송파구 문정동 634,서울특별시 송파구 충민로,127.124941,37.47760822
1325,투썸플레이스,중계CGV스윗바점,서울특별시 노원구 중계동 509-2,서울특별시 노원구 동일로204가길,127.0686536,37.63985332
1326,어투썸플레이스,,서울특별시 서초구 양재동 315-5,서울특별시 서초구 강남대로16길,127.0391999,37.47099511
1327,투썸플레이스,소공로북창점,서울특별시 중구 북창동 18-9,서울특별시 중구 세종대로14길,126.977463,37.56296063
1328,투썸플레이스,삼호가든사거리점,서울특별시 서초구 반포동 30-25,서울특별시 서초구 서초중앙로,127.0120536,37.50295697
1329,투썸플레이스,아름제일여성병원점,서울특별시 구로구 구로동 25,서울특별시 구로구 새말로,126.8904798,37.50546377
1330,씨제이투썸플레이스,강남점,서울특별시 서초구 서초동 1306,서울특별시 서초구 강남대로65길,127.0258838,37.50049482
1331,투썸플레이스,여의도점,서울특별시 영등포구 여의도동 37,서울특별시 영등포구 의사당대로,126.924414,37.52020338
1332,투썸플레이스,석수역점,서울특별시 금천구 시흥동 979-4,서울특별시 금천구 시흥대로,126.9034703,37.43460936
1333,투썸플레이스,한양대엔터식스,서울특별시 성동구 행당동 155-1,서울특별시 성동구 왕십리로,127.0400869,37.55714305
1334,투썸플레이스,명동역CGV스윗바점,서울특별시 중구 충무로2가 65-9,서울특별시 중구 퇴계로,126.9853416,37.56125355
1335,투썸플레이스,구로디지탈역깔깔거리점,서울특별시 구로구 구로동 1124-1,서울특별시 구로구 디지털로32길,126.9013206,37.48423734
1336,투썸플레이스,금호힐스테이트점,서울특별시 성동구 금호동4가 1553,서울특별시 성동구 금호로,127.0255205,37.54669773
1337,투썸플레이스,염창역점,서울특별시 양천구 목동 514-18,서울특별시 양천구 공항대로,126.874696,37.546528
1338,투썸플레이스,광흥창역점,서울특별시 마포구 창전동 444,서울특별시 마포구 서강로,126.9312298,37.54835076
1339,투썸플레이스,CGV홍대점,서울특별시 마포구 동교동 159-8,서울특별시 마포구 양화로,126.9226138,37.55648092
1340,투썸플레이스,CGV천호점,서울특별시 강동구 천호동 42,서울특별시 강동구 양재대로,127.1422407,37.54571109
1341,투썸플레이스,동교동삼거리점,서울특별시 서대문구 창천동 374,서울특별시 서대문구 신촌로,126.9273785,37.55886701
1342,투썸플레이스,강남역삼로점,서울특별시 강남구 역삼동 833,서울특별시 강남구 역삼로,127.0321615,37.49341907
1343,투썸플레이스,여의도롯데캐슬아이비점,서울특별시 영등포구 여의도동 43-4,서울특별시 영등포구 국제금융로,126.9317785,37.52019814
1344,투썸플레이스,마포대흥점,서울특별시 마포구 대흥동 17-5,서울특별시 마포구 대흥로,126.9434157,37.55572282
1345,투썸플레이스금호하이리버점금호하이리버점,금호하이리버점,서울특별시 성동구 금호동2가 1217,서울특별시 성동구 금호로,127.0242942,37.55222003
1346,투썸플레이스선유도역점,선유도역점,서울특별시 영등포구 양평동4가 191-1,서울특별시 영등포구 양평로22길,126.8946304,37.53845378
1347,투썸플레이스,성수낙낙점,서울특별시 성동구 성수동2가 280-6,서울특별시 성동구 아차산로17길,127.0645759,37.54656306
1348,투썸플레이스삼성중앙역점,삼성중앙역점,서울특별시 강남구 삼성동 49-12,서울특별시 강남구 봉은사로,127.0507703,37.51258234
1349,투썸플레이스,상암MBC점,서울특별시 마포구 상암동 1603,서울특별시 마포구 성암로,126.8909658,37.5811105
1350,투썸플레이스서초역점,서초역점,서울특별시 서초구 서초동 1553-5,서울특별시 서초구 서초대로,127.0096081,37.49201572
1351,투썸플레이스광장힐스테이스점,광장힐스테이스점,서울특별시 광진구 광장동 582,서울특별시 광진구 아차산로,127.0996444,37.54295213
1352,투썸플레이스,학동역점,서울특별시 강남구 논현동 215,서울특별시 강남구 논현로,127.0314875,37.51320971
1353,투썸플레이스,영등포구청역점,서울특별시 영등포구 당산동3가 260,서울특별시 영등포구 당산로,126.8971017,37.52507842
1354,투썸플레이스신논현역점1,,서울특별시 강남구 논현동 200-7,서울특별시 강남구 강남대로,127.0247747,37.50490083
1355,투썸플레이스연신내점,연신내점,서울특별시 은평구 갈현동 456-1,서울특별시 은평구 연서로,126.9198391,37.61850077
1356,투썸플레이스충정로역점,충정로역점,서울특별시 서대문구 충정로3가 465,서울특별시 서대문구 서소문로,126.9648455,37.5602737
1357,투썸커피고려대법학관,,서울특별시 성북구 안암동5가 1-2,서울특별시 성북구 인촌로,127.0309577,37.58648758
1358,어투썸프레이스,,서울특별시 마포구 상암동 1585,서울특별시 마포구 월드컵북로60길,126.8863008,37.58341827
1359,투썸플레이스,뚝섬역점,서울특별시 성동구 성수동1가 656-1112,서울특별시 성동구 아차산로,127.0461802,37.54793867
1360,투썸플레이스숭실대점,숭실대점,서울특별시 동작구 상도동 506,서울특별시 동작구 사당로,126.9584888,37.49486494
1361,투썸플레이스,오쇼핑사옥점,서울특별시 서초구 방배동 2724,서울특별시 서초구 과천대로,126.987969,37.46900861
1362,투썸플레이스,강남점,서울특별시 서초구 서초동 1306-7,서울특별시 서초구 강남대로,127.0261983,37.49979459
1363,투썸플레이스,목동메가박스점,서울특별시 양천구 목동 917-6,서울특별시 양천구 목동동로,126.875987,37.52913225
1364,투썸플레이스,신논현역점,서울특별시 강남구 논현동 200-7,서울특별시 강남구 강남대로,127.0247747,37.50490083
1365,투썸플레이스,,서울특별시 송파구 오금동 4-9,서울특별시 송파구 위례성대로,127.1328169,37.5093026
1366,투썸플레이스,서울스퀘어점,서울특별시 중구 남대문로5가 541,서울특별시 중구 한강대로,126.9737396,37.55549473
1367,투썸플레이스,노원공릉점,서울특별시 노원구 공릉동 392-14,서울특별시 노원구 동일로192길,127.0758538,37.62662864
1368,투썸플레이스가산대륭18차점,가산대륭18차점,서울특별시 금천구 가산동 670-2,서울특별시 금천구 가산디지털1로,126.8864952,37.46760035
1369,투썸플레이스옥수역점,옥수역점,서울특별시 성동구 옥수동 560,서울특별시 성동구 독서당로40길,127.0178663,37.54184074
1370,투썸플레이스,상계사거리점,서울특별시 노원구 상계동 749,서울특별시 노원구 동일로,127.0616775,37.65127723
1371,투썸플레이스쌍문역점,쌍문역점,서울특별시 도봉구 쌍문동 96-4,서울특별시 도봉구 도봉로,127.0333444,37.64704788
1372,투썸플레이스강남역중앙점,강남역중앙점,서울특별시 강남구 역삼동 818-15,서울특별시 강남구 테헤란로1길,127.0279221,37.49942133
1373,투썸플레이스,가산로데오점,서울특별시 금천구 가산동 60-24,서울특별시 금천구 벚꽃로,126.885474,37.47775455
1374,투썸플레이스,강동역점,서울특별시 강동구 천호동 571,서울특별시 강동구 천호대로,127.1314183,37.53725216
1375,투썸플레이스강남수서점,강남수서점,서울특별시 강남구 수서동 589-3,서울특별시 강남구 광평로34길,127.0941213,37.48218762
1376,CJ푸드빌투썸플레이스,,서울특별시 중구 남대문로5가 500,서울특별시 중구 소월로2길,126.9759589,37.55459493
1377,투썸플레이스,서일대점,서울특별시 중랑구 면목동 56-2,서울특별시 중랑구 용마산로,127.0951989,37.58586218
1378,투썸플레이스,신내홈플러스점,서울특별시 중랑구 신내동 645,서울특별시 중랑구 신내로,127.0937148,37.6158015
1379,투썸플레이스공덕헤링턴스퀘어점,공덕헤링턴스퀘어점,서울특별시 마포구 도화동 25-13,서울특별시 마포구 마포대로,126.9513151,37.54283627
1380,투썸플레이스개화산역점,개화산역점,서울특별시 강서구 방화동 849,서울특별시 강서구 양천로,126.8068967,37.57224451
1381,투썸플레이스논현역사거리점,논현역사거리점,서울특별시 강남구 논현동 120,서울특별시 강남구 강남대로,127.0218672,37.51102198
1382,투썸플레이스,종로알파빌딩점,서울특별시 종로구 서린동 70,서울특별시 종로구 종로,126.9810934,37.56983093
1383,투썸플레이스,성수SKV타워점,서울특별시 성동구 성수동2가 315-61,서울특별시 성동구 연무장5가길,127.0555947,37.54354514
1384,투썸플레이스,강변CGV점,서울특별시 광진구 구의동 546-4,서울특별시 광진구 광나루로56길,127.0956807,37.53571341
1385,투썸플레이스답십리사거리,,서울특별시 동대문구 답십리동 246-23,서울특별시 동대문구 답십리로,127.056608,37.57267511
1386,투썸플레이스굽은다리역점,굽은다리역점,서울특별시 강동구 천호동 50-13,서울특별시 강동구 양재대로,127.1417495,37.54314852
1387,투썸플레이스,신세계DF명동점,서울특별시 중구 충무로1가 54,서울특별시 중구 퇴계로,126.9807585,37.56034908
1388,투썸플레이스,광화문역점,서울특별시 중구 태평로1가 62-3,서울특별시 중구 세종대로,126.9762963,37.5688163
1389,투썸플레이스,종암점,서울특별시 성북구 종암동 87-6,서울특별시 성북구 종암로,127.0340184,37.59935251
1390,투썸플레이스,가재울엘가점,서울특별시 서대문구 남가좌동 387,서울특별시 서대문구 모래내로,126.9180517,37.56985565
1391,투썸플레이스홍대테디점,홍대테디점,서울특별시 마포구 서교동 338-48,서울특별시 마포구 와우산로,126.9248493,37.55292418
1392,투썸플레이스,경찰병원역점,서울특별시 송파구 가락동 78,서울특별시 송파구 중대로,127.1224074,37.49508808
1393,투썸플레이스개봉역점,개봉역점,서울특별시 구로구 개봉동 202-13,서울특별시 구로구 남부순환로97길,126.8588931,37.49412508
1394,투썸플레이스,노원구청점,서울특별시 노원구 상계동 705-1,서울특별시 노원구 노해로,127.0579822,37.65404099
1395,투썸플레이스충정로역,,서울특별시 서대문구 충정로3가 63-1,서울특별시 서대문구 충정로,126.9626005,37.56056035
1396,투썸플레이스세관사거리점,세관사거리점,서울특별시 강남구 논현동 90-2,서울특별시 강남구 언주로,127.0348672,37.51603064
1397,투썸플레이스,강남대륭타워점,서울특별시 강남구 역삼동 826-20,서울특별시 강남구 강남대로,127.0294005,37.49529764
1398,투썸플레이스,고대SK미래관점,서울특별시 성북구 안암동5가 1-2,서울특별시 성북구 안암로,127.0317018,37.58848499
1399,투썸플레이스,상암CGV점,서울특별시 마포구 성산동 515,서울특별시 마포구 월드컵로,126.8972574,37.56827565
1400,투썸플레이스묵동자이점,묵동자이점,서울특별시 중랑구 묵동 170-1,서울특별시 중랑구 동일로,127.0775414,37.61382905
1401,투썸플레이스,건대스타시티점,서울특별시 광진구 자양동 227-342,서울특별시 광진구 능동로,127.070902,37.53835036
1402,투썸플레이스,답십리사거리점,서울특별시 동대문구 답십리동 246-23,서울특별시 동대문구 답십리로,127.056608,37.57267511
1403,투썸플레이스골든서울호텔점,골든서울호텔점,서울특별시 강서구 염창동 260-7,서울특별시 강서구 공항대로,126.8781044,37.54789397
1404,투썸플레이스,수유사거리점,서울특별시 강북구 수유동 47-2,서울특별시 강북구 도봉로,127.0229079,37.63492409
1405,투썸플레이스,합정메세나폴리스,서울특별시 마포구 서교동 490,서울특별시 마포구 양화로,126.9139374,37.55149077
1406,투썸플레이스,보문역점,서울특별시 성북구 보문동2가 105-3,서울특별시 성북구 보문로,127.0186324,37.58610642
1407,투썸플레이스,학동사거리점,서울특별시 강남구 청담동 86,서울특별시 강남구 선릉로,127.0396308,37.5238816
1408,투썸플레이스,마곡나루역점,서울특별시 강서구 마곡동 760,서울특별시 강서구 마곡중앙5로,126.8269117,37.56714705
1409,투썸플레이스,737,서울특별시 용산구 한남동 737-37,서울특별시 용산구 이태원로,126.9972614,37.53498179
1410,투썸플레이스,CJ남산사옥점,서울특별시 중구 남대문로5가 500,서울특별시 중구 소월로2길,126.9759589,37.55459493
1411,투썸플레이스,구의점,서울특별시 광진구 구의동 201-8,서울특별시 광진구 광나루로,127.094897,37.54157326
1412,투썸플레이스,예금보험공사점,서울특별시 중구 다동 33,서울특별시 중구 청계천로,126.9807834,37.56849471
1413,투썸플레이스,서초구청점,서울특별시 서초구 서초동 1355-19,서울특별시 서초구 서운로,127.0293907,37.48469213
1414,투썸플레이스,마포연남점,서울특별시 마포구 연남동 250-28,서울특별시 마포구 성미산로,126.9222916,37.56392056
1415,투썸플레이스광화문,,서울특별시 종로구 신문로1가 33,서울특별시 종로구 새문안로,126.9741012,37.57039209
1416,투썸플레이스,양재사거리점,서울특별시 강남구 도곡동 957-3,서울특별시 강남구 남부순환로,127.0354809,37.48503935
1417,투썸플레이스,강남역KR타워점,서울특별시 강남구 역삼동 825-26,서울특별시 강남구 강남대로84길,127.0295725,37.49686689
1418,투썸플레이스,세종대학교점,서울특별시 광진구 군자동 98,서울특별시 광진구 능동로,127.0731707,37.55160464
1419,투썸플레이스,청담역점,서울특별시 강남구 청담동 133-2,서울특별시 강남구 영동대로,127.0573433,37.5206003
1420,투썸플레이스,보라매삼성쉐르빌점,서울특별시 동작구 신대방동 395-66,서울특별시 동작구 보라매로5길,126.9233568,37.49142334
1421,투썸플레이스,올림픽공원역점,서울특별시 송파구 방이동 88,서울특별시 송파구 올림픽로,127.1157765,37.52034939
1422,투썸플레이,대림역점,서울특별시 영등포구 대림동 1050-40,서울특별시 영등포구 도림로,126.8968466,37.49322414
1423,탁앤초이투썸플레이스청담역지점,청담역지점,서울특별시 강남구 청담동 76-5,서울특별시 강남구 학동로,127.0504496,37.51914844
1424,투썸플레이스,홍대걷고싶은거리점,서울특별시 마포구 동교동 163-11,서울특별시 마포구 어울마당로,126.9226726,37.55476048
1425,투썸플레이스,수락산역점,서울특별시 노원구 상계동 1132-63,서울특별시 노원구 동일로243길,127.0543664,37.67820476
1426,투썸플레이스,공덕풍림빌딩점,서울특별시 마포구 공덕동 404,서울특별시 마포구 마포대로,126.9521283,37.54618636
1427,투썸플레이스차병원사거리,,서울특별시 강남구 논현동 234-28,서울특별시 강남구 논현로,127.0340251,37.50764396
1428,투썸플레이스국립중앙박물관1호점,국립중앙박물관1호점,서울특별시 용산구 용산동6가 168-6,서울특별시 용산구 서빙고로,126.9777254,37.52469553
1429,투썸플레이스화랑대역점,화랑대역점,서울특별시 노원구 공릉동 90-4,서울특별시 노원구 노원로,127.0866391,37.62198215
1430,투썸플레이스,충무로역점,서울특별시 중구 필동2가 15-7,서울특별시 중구 퇴계로,126.9947944,37.56113619
1431,투썸플레이스,삼전역점,서울특별시 송파구 삼전동 7-6,서울특별시 송파구 삼전로,127.0885814,37.50448229
1432,투썸플레이스,마포공덕점,서울특별시 마포구 공덕동 475,서울특별시 마포구 마포대로,126.9542892,37.54784541
1433,투썸플레이스,천호로데오점,서울특별시 강동구 천호동 454-60,서울특별시 강동구 천호대로157길,127.1270214,37.53878758
1434,투썸플레이스,북서울꿈의숲점,서울특별시 강북구 번동 105-1,서울특별시 강북구 월계로,127.0448905,37.62057037
1435,투썸플레이스금호하이리버점,금호하이리버점,서울특별시 성동구 금호동2가 1217,서울특별시 성동구 금호로,127.0247464,37.55225981
1436,투썸플레이스,구로구청사거리점,서울특별시 구로구 구로동 83-4,서울특별시 구로구 가마산로,126.8886583,37.49481432
1437,투썸플레이스,가락몰점,서울특별시 송파구 가락동 600,서울특별시 송파구 양재대로,127.1086964,37.49452588
1438,투썸플레이스,도곡타워팰리스점,서울특별시 강남구 도곡동 467,서울특별시 강남구 언주로30길,127.0534667,37.48805919
1439,투썸플레이스,마포역점,서울특별시 마포구 도화동 37,서울특별시 마포구 마포대로,126.9470781,37.53996028
1440,투썸플레이스,이태원역점,서울특별시 용산구 이태원동 127-12,서울특별시 용산구 이태원로,126.9941714,37.53421666
1441,투썸플레이스,서울역센트럴자이점,서울특별시 중구 만리동2가 37-2,서울특별시 중구 만리재로,126.9639578,37.55490471
1442,투썸플레이스옥수리버젠점,옥수리버젠점,서울특별시 성동구 옥수동 561,서울특별시 성동구 매봉길,127.0136927,37.54598681
1443,투썸플레이스,신대방삼거리점,서울특별시 동작구 상도동 322-19,서울특별시 동작구 국사봉1길,126.9303303,37.49881221
1444,투썸플레이스압구정로데오역점,압구정로데오역점,서울특별시 강남구 신사동 664-6,서울특별시 강남구 선릉로,127.0403644,37.52754583
1445,투썸플레이스,아리랑힐호텔점,서울특별시 성북구 동선동4가 26,서울특별시 성북구 아리랑로,127.016564,37.59357685
1446,투썸플레이스,신림녹두거리점,서울특별시 관악구 신림동 1515,서울특별시 관악구 신림로,126.9352291,37.47079776
1447,투썸플레이스,수서역점,서울특별시 강남구 수서동 725,서울특별시 강남구 광평로56길,127.1031575,37.48675286
1448,투썸플레이스,예술의전당점,서울특별시 서초구 서초동 1459-12,서울특별시 서초구 반포대로,127.0119792,37.48370982
1449,투썸플레이스,양천구청점,서울특별시 양천구 신정동 321-6,서울특별시 양천구 목동서로,126.8652921,37.51739755
1450,투썸플레이스,명동대연각타워점,서울특별시 중구 충무로1가 25-5,서울특별시 중구 퇴계로,126.9826287,37.56098693
1451,투썸플레이스포스코사거리점,포스코사거리점,서울특별시 강남구 대치동 942-10,서울특별시 강남구 테헤란로,127.0579578,37.50681005
1452,투썸플레이스사가정역,,서울특별시 중랑구 면목동 633-9,서울특별시 중랑구 면목로,127.0868313,37.5793913
1453,투썸플레이스,용산아이파크몰점,서울특별시 용산구 한강로3가 40-999,서울특별시 용산구 한강대로21나길,126.9632226,37.52790298
1454,투썸대륭18차,,서울특별시 금천구 가산동 670-2,서울특별시 금천구 가산디지털1로,126.8864952,37.46760035
1455,투썸플레이스,송파구청사거리점,서울특별시 송파구 방이동 22-3,서울특별시 송파구 오금로,127.1072074,37.51510385
1456,투썸플레이스,종로3가역점,서울특별시 서초구 서초동 1599-2,서울특별시 서초구 반포대로14길,127.0145276,37.48682173
1457,투썸플레이스,금천롯데캐슬골드파크점,서울특별시 금천구 독산동 1151,서울특별시 금천구 시흥대로79길,126.8949218,37.45806525
1458,투썸플레이스,KBS별관점,서울특별시 영등포구 여의도동 30-2,서울특별시 영등포구 국제금융로7길,126.9330783,37.52425558
1459,투썸플레이스,한성대입구역점,서울특별시 성북구 동소문동2가 3,서울특별시 성북구 동소문로,127.0070164,37.58858625
1460,투썸플레이스,구로대륭7차점,서울특별시 구로구 구로동 170-10,서울특별시 구로구 디지털로33길,126.8944921,37.48724621
1461,투썸플레이스,등촌점,서울특별시 강서구 등촌동 678,서울특별시 강서구 강서로56가길,126.8400817,37.5616908
1462,투썸플레이스,강북미아점,서울특별시 강북구 미아동 202-3,서울특별시 강북구 도봉로,127.0243434,37.62998929
1463,투썸플레이스,오류역점,서울특별시 구로구 오류동 31-66,서울특별시 구로구 고척로16가길,126.8446859,37.49877152
1464,투썸커피,,서울특별시 송파구 문정동 4-8,서울특별시 송파구 동남로,127.1257127,37.49094066
1465,투썸플레이스,순화ING점,서울특별시 중구 순화동 53,서울특별시 중구 세종대로7길,126.9724678,37.56074575
1466,투썸커피,청담CGV점,서울특별시 강남구 신사동 651-21,서울특별시 강남구 도산대로,127.0369963,37.52288701
1467,투썸플레이스역삼르네상스점,역삼르네상스점,서울특별시 강남구 역삼동 721-39,서울특별시 강남구 언주로,127.0434506,37.50026894
1468,투썸플레이스,금천롯데캐슬골드파크점,서울특별시 금천구 독산동 1147,서울특별시 금천구 벚꽃로,126.8929835,37.45996635
1469,투썸플레이스,,서울특별시 서초구 서초동 1446-11,서울특별시 서초구 서초중앙로,127.0162349,37.48338491
1470,투썸플레이스,테헤란선릉점,서울특별시 강남구 역삼동 708-16,서울특별시 강남구 선릉로89길,127.0477987,37.50342172
1471,투썸커피고려대법학관,,서울특별시 성북구 안암동5가 1-2,서울특별시 성북구 안암로,127.0317018,37.58848499
1472,투썸플레이스콜드스톤크리머리반포래미안퍼스,,서울특별시 서초구 반포동 18-3,서울특별시 서초구 반포대로,127.0010418,37.50434209
1473,투썸플레이스,대치삼성점,서울특별시 강남구 대치동 996-1,서울특별시 강남구 테헤란로,127.0655629,37.50918617
1474,투썸플레이스명동역점,명동역점,서울특별시 중구 남산동2가 8-1,서울특별시 중구 퇴계로18길,126.9856276,37.56019278
1475,투썸플레이스,구리역점,서울특별시 광진구 광장동 566,서울특별시 광진구 아차산로,127.0962579,37.54225948
1476,투썸플레이스,마곡점,서울특별시 강서구 마곡동 774-8,서울특별시 강서구 마곡중앙6로,126.8315706,37.56020126
1477,투썸플레이스,신방화역점,서울특별시 강서구 마곡동 739-1,서울특별시 강서구 방화대로,126.8170323,37.5669854
1478,투썸플레이스,강동성심병원점,서울특별시 강동구 길동 445,서울특별시 강동구 성안로,127.1353463,37.53613665
1479,투썸커피여의도IFC몰,,서울특별시 영등포구 여의도동 23,서울특별시 영등포구 국제금융로,126.9248631,37.52517222
1480,투썸플레이스,헬로비전점,서울특별시 마포구 상암동 1595-1,서울특별시 마포구 월드컵북로56길,126.8883436,37.58232926
1481,투썸플레이스,대방역점,서울특별시 영등포구 신길동 1300,서울특별시 영등포구 영등포로,126.9247977,37.51238581
1482,투썸플레이스선릉ING점,선릉ING점,서울특별시 강남구 역삼동 707-19,서울특별시 강남구 테헤란로,127.0460602,37.50316441
1483,투썸플레이스한양대학생복지관,한양대학생복지관,서울특별시 성동구 행당동 17,서울특별시 성동구 왕십리로,127.0474999,37.55717606
1484,투썸플레이스선정릉역,선정릉역,서울특별시 강남구 삼성동 112-5,서울특별시 강남구 봉은사로,127.0452676,37.51033941
1485,투썸플레이스,홍대입구역,서울특별시 마포구 동교동 158-1,서울특별시 마포구 월드컵북로2길,126.9233463,37.55748776
1486,CJ투썸플레이스,,서울특별시 영등포구 여의도동 37,서울특별시 영등포구 의사당대로,126.9239727,37.52100129
1487,투썸플레이스뱅뱅사거리점,뱅뱅사거리점,서울특별시 서초구 서초동 1361-5,서울특별시 서초구 강남대로,127.0323811,37.48691524
1488,투썸플레이스상왕십리역점,상왕십리역점,서울특별시 성동구 하왕십리동 700,서울특별시 성동구 왕십리로,127.0240621,37.56654474
1489,투썸플레이스,신촌기차역점,서울특별시 서대문구 대현동 110-1,서울특별시 서대문구 신촌역로,126.9418993,37.55891695
1490,투썸플레이스대한통운사옥,대한통운사옥,서울특별시 중구 서소문동 58-12,서울특별시 중구 세종대로9길,126.9728257,37.56188418
1491,투썸플레이스신사세로수길점,신사세로수길점,서울특별시 강남구 신사동 529-1,서울특별시 강남구 압구정로,127.021097,37.52322485
1492,투썸플레이스상암씨지브이,,서울특별시 마포구 성산동 515,서울특별시 마포구 월드컵로,126.8972574,37.56827565
1493,투썸플레이스가재울뉴타운점,가재울뉴타운점,서울특별시 서대문구 북가좌동 470,서울특별시 서대문구 수색로,126.9078045,37.57468094
1494,투썸플레이스,압구정640아트타워점,서울특별시 강남구 신사동 640-11,서울특별시 강남구 언주로172길,127.0360202,37.52752848
1495,투썸플레이스구로디지털단지역점,구로디지털단지역점,서울특별시 관악구 신림동 1655-21,서울특별시 관악구 시흥대로,126.9015513,37.48238332
1496,투썸플레이스발산역점,발산역점,서울특별시 강서구 마곡동 795-7,서울특별시 강서구 마곡중앙6로,126.8376838,37.56012645
1497,투썸플레이스,합정점,서울특별시 마포구 합정동 414-3,서울특별시 마포구 독막로,126.9142904,37.54900715
1498,투썸플레이스중계은행사거리점,중계은행사거리점,서울특별시 노원구 중계동 364-19,서울특별시 노원구 한글비석로,127.0769564,37.64922628
1499,투썸플레이스,낙성대역점,서울특별시 관악구 봉천동 1659-5,서울특별시 관악구 남부순환로,126.9631261,37.4768126
1500,투썸플레이스,,서울특별시 용산구 청파동1가 180-24,서울특별시 용산구 청파로,126.9704328,37.54741061
1501,투썸플레이스가든파이브점,가든파이브점,서울특별시 광진구 광장동 218-1,서울특별시 광진구 아차산로,127.1052358,37.54285046
1502,투썸플레이스,시청점,서울특별시 중구 을지로1가 16,서울특별시 중구 무교로,126.9794525,37.56647389
1503,투썸플레이스판교SK,,서울특별시 강남구 일원동 50,서울특별시 강남구 일원로,127.0895788,37.49033434
1504,투썸플레이스창동이마트점,창동이마트점,서울특별시 도봉구 창동 75-1,서울특별시 도봉구 노해로65길,127.0467539,37.65205862
1505,투썸플레이스,광교점,서울특별시 중구 삼각동 66-1,서울특별시 중구 청계천로,126.9833431,37.56839064
1506,투썸플레이스커피경희대점,커피경희대점,서울특별시 동대문구 회기동 16-72,서울특별시 동대문구 경희대로,127.0522045,37.59230964
1507,투썸플레이스사당역,,서울특별시 관악구 남현동 1060-3,서울특별시 관악구 남부순환로,126.9803655,37.47615168
1508,투썸플레이스삼성,,서울특별시 강남구 삼성동 157-1,서울특별시 강남구 삼성로,127.0565844,37.50809661
1509,투썸플레이스현대,지식산업센터,서울특별시 금천구 독산동 291-1,서울특별시 금천구 두산로,126.8956093,37.46895637
1510,투썸플레이스,서초고려점,서울특별시 서초구 서초동 1688-5,서울특별시 서초구 서초대로,127.0199046,37.49589503
1511,투썸플레이스왕십리역,,서울특별시 성동구 행당동 168-151,서울특별시 성동구 왕십리광장로,127.0383792,37.56143616
1512,투썸플레이스,화곡역점,서울특별시 강서구 화곡동 1075-3,서울특별시 강서구 강서로,126.8403308,37.54123079
1513,투썸플레이스,회기역점,서울특별시 양천구 신정동 1296,서울특별시 양천구 목동동로,126.8718629,37.52125388
1514,투썸플레이스,이수메가박스점,서울특별시 동작구 사당동 147-53,서울특별시 동작구 동작대로,126.9816527,37.48460567
1515,투썸플레이스,건대입구점,서울특별시 광진구 화양동 5-12,서울특별시 광진구 능동로13길,127.0712931,37.54239916
1516,투썸플레이스,문정역점,서울특별시 송파구 문정동 643-1,서울특별시 송파구 법원로,127.1209979,37.48604895
1517,투썸플레이스종로구청점,종로구청점,서울특별시 종로구 수송동 80-6,서울특별시 종로구 종로5길,126.9803158,37.57289676
1518,투썸플레이스대학로씨지브이,,서울특별시 종로구 명륜2가 41-9,서울특별시 종로구 대명길,126.9998271,37.58345269
1519,투썸플레이스,가락시장역2호점,서울특별시 송파구 가락동 99-3,서울특별시 송파구 송파대로,127.1188454,37.49313329
1520,투썸플레이스,경복궁점,서울특별시 종로구 중학동 14,서울특별시 종로구 율곡로,126.9797604,37.57544191
1521,투썸플레이스,방배카페거리점,서울특별시 서초구 방배동 755-14,서울특별시 서초구 방배중앙로,126.9856769,37.49723701
1522,투썸플레이스,대학로점,서울특별시 종로구 연건동 39,서울특별시 종로구 대학로,127.001797,37.57922546
1523,투썸플레이스,강동구청점,서울특별시 강동구 성내동 549-1,서울특별시 강동구 성내로,127.1253431,37.52844004
1524,투썸플레이스,강남IBC점,서울특별시 강남구 역삼동 648-1,서울특별시 강남구 테헤란로7길,127.0311068,37.49978088
1525,투썸플레이스,매경미디어센터점,서울특별시 중구 필동1가 30-1,서울특별시 중구 퇴계로,126.992867,37.56053408
1526,투썸플레이스,이대역점,서울특별시 서대문구 대현동 40-4,서울특별시 서대문구 이화여대길,126.9456242,37.55722928
1527,투썸플레이스쌍문역,,서울특별시 도봉구 쌍문동 96-4,서울특별시 도봉구 도봉로,127.0333444,37.64704788
1528,투썸플레이스,을지트윈타워점,서울특별시 중구 을지로4가 323,서울특별시 중구 을지로,126.9973081,37.56613132
1529,투썸플레이스,역삼테헤란로점,서울특별시 강남구 역삼동 736,서울특별시 강남구 테헤란로,127.0342866,37.49963572
1530,투썸플레이스,망우점,서울특별시 중랑구 망우동 489-1,서울특별시 중랑구 망우로,127.0968693,37.59941769
1531,투썸플레이스,강남KI타워점,서울특별시 서초구 서초동 1309-8,서울특별시 서초구 강남대로69길,127.0246336,37.50183608
1532,투썸플레이스,까치산역점,서울특별시 강서구 화곡동 343-52,서울특별시 강서구 강서로,126.8465342,37.53152432
1533,투썸플레이스,,서울특별시 송파구 신천동 11-10,서울특별시 송파구 오금로,127.1053896,37.516712
1534,투썸커피,,서울특별시 영등포구 여의도동 23,서울특별시 영등포구 국제금융로,126.9248631,37.52517222
1535,투썸플레이스가산디지털점,가산디지털점,서울특별시 금천구 가산동 459-11,서울특별시 금천구 가산디지털1로,126.881568,37.4819075
1536,투썸플레이스카페,,서울특별시 강남구 삼성동 112-5,서울특별시 강남구 봉은사로,127.0452676,37.51033941
1537,투썸플레이스,약수역점,서울특별시 중구 신당동 361-24,서울특별시 중구 다산로,127.009796,37.55397351
1538,투썸플레이스,구로부자의탄생점,서울특별시 구로구 구로동 212-8,서울특별시 구로구 디지털로,126.8954848,37.4835612
1539,투썸플레이스서울대입구역점,서울대입구역점,서울특별시 관악구 봉천동 863-4,서울특별시 관악구 관악로,126.9520773,37.47944532
1540,투썸플레이스용산트윈시티점,용산트윈시티점,서울특별시 용산구 동자동 56,서울특별시 용산구 한강대로,126.9728948,37.55108128
1541,투썸플레이즈,,서울특별시 관악구 신림동 1424-28,서울특별시 관악구 신림로,126.9299661,37.48550042
1542,투썸플레이스,은평한옥마을점,서울특별시 은평구 진관동 9993-104,서울특별시 은평구 진관길,126.9392559,37.6423019
1543,투썸플레이스커피,,서울특별시 동대문구 장안동 375-1,서울특별시 동대문구 장한로,127.0683545,37.56756936
1544,투썸플레이스,압구정51K점,서울특별시 강남구 신사동 602,서울특별시 강남구 압구정로30길,127.0293864,37.52433848
1545,투썸플레이스,아차산역점,서울특별시 광진구 능동 256-12,서울특별시 광진구 천호대로,127.0881456,37.55330708
1546,투썸플레이스등촌로점,등촌로점,서울특별시 강서구 등촌동 719,서울특별시 강서구 등촌로,126.8622143,37.54575964
1547,투썸플레이스,강남자곡점,서울특별시 강남구 자곡동 596,서울특별시 강남구 자곡로,127.1046737,37.47530284
1548,투썸플레이스,하계CGV스윗바점,서울특별시 노원구 중계동 506-1,서울특별시 노원구 섬밭로,127.0649012,37.63910281
1549,투썸플레이스구로,,서울특별시 구로구 구로동 212-8,서울특별시 구로구 디지털로,126.8954848,37.4835612
1550,투썸플레이스,명동L7점,서울특별시 중구 충무로2가 62-12,서울특별시 중구 퇴계로,126.9869583,37.56139358
1551,투썸플레이스,상일동역점,서울특별시 강동구 상일동 121,서울특별시 강동구 고덕로,127.1695058,37.55661956
1552,투썸플레이스,등촌CGV점,서울특별시 강서구 등촌동 639-23,서울특별시 강서구 공항대로45길,126.8559865,37.55785442
1553,투썸플레이스,동묘앞역점,서울특별시 종로구 창신동 292,서울특별시 종로구 종로,127.014807,37.57309054
1554,투썸플레이스,문정KD70점,서울특별시 송파구 문정동 640-9,서울특별시 송파구 정의로8길,127.1161496,37.48583257
1555,투썸플레이스,강변역점,서울특별시 광진구 구의동 587-64,서울특별시 광진구 구의강변로,127.0918786,37.53572929
1556,투썸플레이스,암사역점,서울특별시 강동구 암사동 501-2,서울특별시 강동구 올림픽로,127.1279047,37.55039068
1557,투썸플레이스서울스퀘,,서울특별시 중구 남대문로5가 541,서울특별시 중구 한강대로,126.9737396,37.55549473
1558,투썸플레이스상암E&M점,상암E&M점,서울특별시 마포구 상암동 1606,서울특별시 마포구 상암산로,126.8914724,37.57824997
1559,투썸플레이스,신촌대로점,서울특별시 마포구 노고산동 49-25,서울특별시 마포구 신촌로,126.9339862,37.5558453
1560,투썸플레이스압구정51케이,,서울특별시 강남구 신사동 602,서울특별시 강남구 압구정로30길,127.0293864,37.52433848
1561,투썸플레이스,충정로센트럴플레이스,서울특별시 중구 중림동 419,서울특별시 중구 서소문로,126.96701,37.56090536
1562,CJ푸드빌투썸플레이스퀘,,서울특별시 중구 남대문로5가 541,서울특별시 중구 한강대로,126.9737396,37.55549473
1563,투썸플레이스가산대성디폴리스점,가산대성디폴리스점,서울특별시 금천구 가산동 543-1,서울특별시 금천구 서부샛길,126.8769955,37.4799449
1564,투썸플레이스,남부지방법원점,서울특별시 양천구 신정동 1009-15,서울특별시 양천구 신월로,126.8637537,37.5226178
1565,투썸가산하이앤드점,,서울특별시 금천구 가산동 219-6,서울특별시 금천구 벚꽃로24길,126.8887958,37.47408253
1566,투썸플레이스,양천신목로점,서울특별시 양천구 신정동 296-93,서울특별시 양천구 신목로,126.8727682,37.51973076
1567,투썸플레이스,삼성도심공항점,서울특별시 강남구 삼성동 154-8,서울특별시 강남구 테헤란로87길,127.0577034,37.50995271
1568,투썸플레이스,가산하이엔드클래식점,서울특별시 금천구 가산동 219-6,서울특별시 금천구 벚꽃로24길,126.8887958,37.47408253
1569,투썸플레이스,목동하이페리온점,서울특별시 양천구 목동 961,서울특별시 양천구 오목로,126.8700104,37.52482231
1570,투썸플레이스,강동명일점,서울특별시 강동구 천호동 25-2,서울특별시 강동구 양재대로,127.1434967,37.54967584
